<?xml version="1.0" encoding="UTF-8"?>
<gpx version="1.1" creator="GPX2Maps" xmlns="http://www.topografix.com/GPX/1/1" xmlns:xsi="http://www.w3.org/2001/XMLSchema-instance" xsi:schemaLocation="http://www.topografix.com/GPX/1/1 http://www.topografix.com/GPX/1/1/gpx.xsd">
  <metadata>
    <name>laghi pontini</name>
    <desc>Converted from Google Maps
Distance: 42.0 km
Duration: 53 min
Via: Str. Nascosa</desc>
    <link href="https://gpx2maps.com">
      <text>Created with GPX2Maps</text>
    </link>
    <time>2026-07-23T12:28:47Z</time>
  </metadata>
  <wpt lat="41.4838300" lon="12.7930800">
    <name>Start</name>
    <sym>Flag, Green</sym>
  </wpt>
  <wpt lat="41.4838300" lon="12.7930800">
    <name>End</name>
    <sym>Flag, Red</sym>
  </wpt>
  <trk>
    <name>laghi pontini</name>
    <trkseg>
      <trkpt lat="41.4838300" lon="12.7930800"></trkpt>
      <trkpt lat="41.4837300" lon="12.7930400"></trkpt>
      <trkpt lat="41.4836200" lon="12.7929200"></trkpt>
      <trkpt lat="41.4835700" lon="12.7928800"></trkpt>
      <trkpt lat="41.4835300" lon="12.7928500"></trkpt>
      <trkpt lat="41.4834700" lon="12.7928400"></trkpt>
      <trkpt lat="41.4834600" lon="12.7928400"></trkpt>
      <trkpt lat="41.4834600" lon="12.7928300"></trkpt>
      <trkpt lat="41.4834600" lon="12.7928200"></trkpt>
      <trkpt lat="41.4834500" lon="12.7928200"></trkpt>
      <trkpt lat="41.4834500" lon="12.7928100"></trkpt>
      <trkpt lat="41.4834400" lon="12.7928000"></trkpt>
      <trkpt lat="41.4834300" lon="12.7927900"></trkpt>
      <trkpt lat="41.4834200" lon="12.7927900"></trkpt>
      <trkpt lat="41.4834200" lon="12.7927800"></trkpt>
      <trkpt lat="41.4834100" lon="12.7927800"></trkpt>
      <trkpt lat="41.4834000" lon="12.7927700"></trkpt>
      <trkpt lat="41.4833900" lon="12.7927700"></trkpt>
      <trkpt lat="41.4833800" lon="12.7927700"></trkpt>
      <trkpt lat="41.4833700" lon="12.7927700"></trkpt>
      <trkpt lat="41.4833600" lon="12.7927700"></trkpt>
      <trkpt lat="41.4833500" lon="12.7927700"></trkpt>
      <trkpt lat="41.4833400" lon="12.7927700"></trkpt>
      <trkpt lat="41.4833300" lon="12.7927800"></trkpt>
      <trkpt lat="41.4833200" lon="12.7927800"></trkpt>
      <trkpt lat="41.4833200" lon="12.7927900"></trkpt>
      <trkpt lat="41.4833100" lon="12.7927900"></trkpt>
      <trkpt lat="41.4833000" lon="12.7928000"></trkpt>
      <trkpt lat="41.4832900" lon="12.7928100"></trkpt>
      <trkpt lat="41.4832900" lon="12.7928200"></trkpt>
      <trkpt lat="41.4832800" lon="12.7928200"></trkpt>
      <trkpt lat="41.4832800" lon="12.7928300"></trkpt>
      <trkpt lat="41.4832800" lon="12.7928400"></trkpt>
      <trkpt lat="41.4832700" lon="12.7928400"></trkpt>
      <trkpt lat="41.4832700" lon="12.7928500"></trkpt>
      <trkpt lat="41.4832700" lon="12.7928600"></trkpt>
      <trkpt lat="41.4832600" lon="12.7928700"></trkpt>
      <trkpt lat="41.4832600" lon="12.7928800"></trkpt>
      <trkpt lat="41.4832600" lon="12.7928900"></trkpt>
      <trkpt lat="41.4832600" lon="12.7929000"></trkpt>
      <trkpt lat="41.4832600" lon="12.7929100"></trkpt>
      <trkpt lat="41.4832600" lon="12.7929200"></trkpt>
      <trkpt lat="41.4832600" lon="12.7929300"></trkpt>
      <trkpt lat="41.4832600" lon="12.7929400"></trkpt>
      <trkpt lat="41.4832600" lon="12.7929500"></trkpt>
      <trkpt lat="41.4832600" lon="12.7929600"></trkpt>
      <trkpt lat="41.4832700" lon="12.7929600"></trkpt>
      <trkpt lat="41.4832700" lon="12.7929700"></trkpt>
      <trkpt lat="41.4832700" lon="12.7929800"></trkpt>
      <trkpt lat="41.4832700" lon="12.7929900"></trkpt>
      <trkpt lat="41.4832800" lon="12.7929900"></trkpt>
      <trkpt lat="41.4832600" lon="12.7930500"></trkpt>
      <trkpt lat="41.4832500" lon="12.7930900"></trkpt>
      <trkpt lat="41.4832400" lon="12.7931400"></trkpt>
      <trkpt lat="41.4832300" lon="12.7932700"></trkpt>
      <trkpt lat="41.4831400" lon="12.7934300"></trkpt>
      <trkpt lat="41.4830500" lon="12.7935900"></trkpt>
      <trkpt lat="41.4830400" lon="12.7936000"></trkpt>
      <trkpt lat="41.4825000" lon="12.7945700"></trkpt>
      <trkpt lat="41.4822800" lon="12.7949400"></trkpt>
      <trkpt lat="41.4821800" lon="12.7951100"></trkpt>
      <trkpt lat="41.4819300" lon="12.7955400"></trkpt>
      <trkpt lat="41.4819000" lon="12.7956000"></trkpt>
      <trkpt lat="41.4817000" lon="12.7959400"></trkpt>
      <trkpt lat="41.4815700" lon="12.7961700"></trkpt>
      <trkpt lat="41.4810500" lon="12.7971000"></trkpt>
      <trkpt lat="41.4809200" lon="12.7973300"></trkpt>
      <trkpt lat="41.4808600" lon="12.7974200"></trkpt>
      <trkpt lat="41.4804000" lon="12.7982600"></trkpt>
      <trkpt lat="41.4803100" lon="12.7984300"></trkpt>
      <trkpt lat="41.4802500" lon="12.7985300"></trkpt>
      <trkpt lat="41.4801600" lon="12.7986800"></trkpt>
      <trkpt lat="41.4800500" lon="12.7988700"></trkpt>
      <trkpt lat="41.4799600" lon="12.7990300"></trkpt>
      <trkpt lat="41.4796100" lon="12.7996300"></trkpt>
      <trkpt lat="41.4795300" lon="12.7997700"></trkpt>
      <trkpt lat="41.4792300" lon="12.8002900"></trkpt>
      <trkpt lat="41.4792000" lon="12.8005300"></trkpt>
      <trkpt lat="41.4790800" lon="12.8015900"></trkpt>
      <trkpt lat="41.4790200" lon="12.8020400"></trkpt>
      <trkpt lat="41.4790000" lon="12.8022600"></trkpt>
      <trkpt lat="41.4789600" lon="12.8025500"></trkpt>
      <trkpt lat="41.4789500" lon="12.8026800"></trkpt>
      <trkpt lat="41.4788500" lon="12.8034200"></trkpt>
      <trkpt lat="41.4787800" lon="12.8039900"></trkpt>
      <trkpt lat="41.4787700" lon="12.8040200"></trkpt>
      <trkpt lat="41.4787300" lon="12.8044500"></trkpt>
      <trkpt lat="41.4786300" lon="12.8054000"></trkpt>
      <trkpt lat="41.4785500" lon="12.8060700"></trkpt>
      <trkpt lat="41.4784700" lon="12.8067800"></trkpt>
      <trkpt lat="41.4782100" lon="12.8090500"></trkpt>
      <trkpt lat="41.4779600" lon="12.8112100"></trkpt>
      <trkpt lat="41.4771200" lon="12.8110300"></trkpt>
      <trkpt lat="41.4762600" lon="12.8108400"></trkpt>
      <trkpt lat="41.4758100" lon="12.8107400"></trkpt>
      <trkpt lat="41.4756200" lon="12.8107100"></trkpt>
      <trkpt lat="41.4755500" lon="12.8106900"></trkpt>
      <trkpt lat="41.4745000" lon="12.8104600"></trkpt>
      <trkpt lat="41.4742200" lon="12.8104000"></trkpt>
      <trkpt lat="41.4738800" lon="12.8103300"></trkpt>
      <trkpt lat="41.4734300" lon="12.8102300"></trkpt>
      <trkpt lat="41.4732100" lon="12.8101800"></trkpt>
      <trkpt lat="41.4727500" lon="12.8100900"></trkpt>
      <trkpt lat="41.4722300" lon="12.8099800"></trkpt>
      <trkpt lat="41.4715200" lon="12.8098300"></trkpt>
      <trkpt lat="41.4713400" lon="12.8097900"></trkpt>
      <trkpt lat="41.4711600" lon="12.8097500"></trkpt>
      <trkpt lat="41.4705000" lon="12.8096100"></trkpt>
      <trkpt lat="41.4700100" lon="12.8095100"></trkpt>
      <trkpt lat="41.4697900" lon="12.8094700"></trkpt>
      <trkpt lat="41.4693600" lon="12.8093800"></trkpt>
      <trkpt lat="41.4685400" lon="12.8092100"></trkpt>
      <trkpt lat="41.4676400" lon="12.8090200"></trkpt>
      <trkpt lat="41.4675000" lon="12.8089900"></trkpt>
      <trkpt lat="41.4673000" lon="12.8089500"></trkpt>
      <trkpt lat="41.4664100" lon="12.8087600"></trkpt>
      <trkpt lat="41.4658100" lon="12.8086300"></trkpt>
      <trkpt lat="41.4655100" lon="12.8085700"></trkpt>
      <trkpt lat="41.4653600" lon="12.8085300"></trkpt>
      <trkpt lat="41.4652000" lon="12.8084900"></trkpt>
      <trkpt lat="41.4651800" lon="12.8084900"></trkpt>
      <trkpt lat="41.4650000" lon="12.8084500"></trkpt>
      <trkpt lat="41.4648300" lon="12.8084100"></trkpt>
      <trkpt lat="41.4647700" lon="12.8084000"></trkpt>
      <trkpt lat="41.4645900" lon="12.8083600"></trkpt>
      <trkpt lat="41.4644100" lon="12.8083300"></trkpt>
      <trkpt lat="41.4643400" lon="12.8083100"></trkpt>
      <trkpt lat="41.4641700" lon="12.8082700"></trkpt>
      <trkpt lat="41.4639900" lon="12.8082400"></trkpt>
      <trkpt lat="41.4638700" lon="12.8082100"></trkpt>
      <trkpt lat="41.4637900" lon="12.8081900"></trkpt>
      <trkpt lat="41.4636500" lon="12.8081600"></trkpt>
      <trkpt lat="41.4631100" lon="12.8080500"></trkpt>
      <trkpt lat="41.4630500" lon="12.8080100"></trkpt>
      <trkpt lat="41.4629000" lon="12.8079500"></trkpt>
      <trkpt lat="41.4629000" lon="12.8079400"></trkpt>
      <trkpt lat="41.4629000" lon="12.8079300"></trkpt>
      <trkpt lat="41.4629000" lon="12.8079200"></trkpt>
      <trkpt lat="41.4628900" lon="12.8079100"></trkpt>
      <trkpt lat="41.4628900" lon="12.8079000"></trkpt>
      <trkpt lat="41.4628800" lon="12.8078900"></trkpt>
      <trkpt lat="41.4628800" lon="12.8078800"></trkpt>
      <trkpt lat="41.4628700" lon="12.8078800"></trkpt>
      <trkpt lat="41.4628700" lon="12.8078700"></trkpt>
      <trkpt lat="41.4628600" lon="12.8078700"></trkpt>
      <trkpt lat="41.4628600" lon="12.8078600"></trkpt>
      <trkpt lat="41.4628500" lon="12.8078600"></trkpt>
      <trkpt lat="41.4628400" lon="12.8078500"></trkpt>
      <trkpt lat="41.4628300" lon="12.8078500"></trkpt>
      <trkpt lat="41.4628200" lon="12.8078500"></trkpt>
      <trkpt lat="41.4628100" lon="12.8078500"></trkpt>
      <trkpt lat="41.4628100" lon="12.8078400"></trkpt>
      <trkpt lat="41.4628000" lon="12.8078400"></trkpt>
      <trkpt lat="41.4627900" lon="12.8078500"></trkpt>
      <trkpt lat="41.4627800" lon="12.8078500"></trkpt>
      <trkpt lat="41.4627700" lon="12.8078500"></trkpt>
      <trkpt lat="41.4627600" lon="12.8078600"></trkpt>
      <trkpt lat="41.4627500" lon="12.8078600"></trkpt>
      <trkpt lat="41.4627500" lon="12.8078700"></trkpt>
      <trkpt lat="41.4627400" lon="12.8078700"></trkpt>
      <trkpt lat="41.4627400" lon="12.8078800"></trkpt>
      <trkpt lat="41.4627300" lon="12.8078800"></trkpt>
      <trkpt lat="41.4627300" lon="12.8078900"></trkpt>
      <trkpt lat="41.4627200" lon="12.8079000"></trkpt>
      <trkpt lat="41.4627200" lon="12.8079100"></trkpt>
      <trkpt lat="41.4627100" lon="12.8079200"></trkpt>
      <trkpt lat="41.4627100" lon="12.8079300"></trkpt>
      <trkpt lat="41.4627100" lon="12.8079400"></trkpt>
      <trkpt lat="41.4627000" lon="12.8079500"></trkpt>
      <trkpt lat="41.4627000" lon="12.8079600"></trkpt>
      <trkpt lat="41.4627000" lon="12.8079700"></trkpt>
      <trkpt lat="41.4627000" lon="12.8079800"></trkpt>
      <trkpt lat="41.4627000" lon="12.8079900"></trkpt>
      <trkpt lat="41.4627000" lon="12.8080000"></trkpt>
      <trkpt lat="41.4627000" lon="12.8080100"></trkpt>
      <trkpt lat="41.4627100" lon="12.8080200"></trkpt>
      <trkpt lat="41.4627100" lon="12.8080300"></trkpt>
      <trkpt lat="41.4627100" lon="12.8080400"></trkpt>
      <trkpt lat="41.4627100" lon="12.8080500"></trkpt>
      <trkpt lat="41.4627200" lon="12.8080600"></trkpt>
      <trkpt lat="41.4627200" lon="12.8080700"></trkpt>
      <trkpt lat="41.4627300" lon="12.8080700"></trkpt>
      <trkpt lat="41.4627300" lon="12.8080800"></trkpt>
      <trkpt lat="41.4627400" lon="12.8080800"></trkpt>
      <trkpt lat="41.4627400" lon="12.8080900"></trkpt>
      <trkpt lat="41.4627500" lon="12.8081000"></trkpt>
      <trkpt lat="41.4627600" lon="12.8081100"></trkpt>
      <trkpt lat="41.4627700" lon="12.8081100"></trkpt>
      <trkpt lat="41.4627800" lon="12.8081100"></trkpt>
      <trkpt lat="41.4627800" lon="12.8081200"></trkpt>
      <trkpt lat="41.4628200" lon="12.8083400"></trkpt>
      <trkpt lat="41.4628500" lon="12.8084300"></trkpt>
      <trkpt lat="41.4628700" lon="12.8086800"></trkpt>
      <trkpt lat="41.4629100" lon="12.8092500"></trkpt>
      <trkpt lat="41.4629200" lon="12.8093900"></trkpt>
      <trkpt lat="41.4629500" lon="12.8097100"></trkpt>
      <trkpt lat="41.4629500" lon="12.8097400"></trkpt>
      <trkpt lat="41.4629600" lon="12.8098100"></trkpt>
      <trkpt lat="41.4629800" lon="12.8100400"></trkpt>
      <trkpt lat="41.4630000" lon="12.8101700"></trkpt>
      <trkpt lat="41.4630400" lon="12.8105800"></trkpt>
      <trkpt lat="41.4630700" lon="12.8107900"></trkpt>
      <trkpt lat="41.4631300" lon="12.8116400"></trkpt>
      <trkpt lat="41.4631900" lon="12.8122000"></trkpt>
      <trkpt lat="41.4632000" lon="12.8124200"></trkpt>
      <trkpt lat="41.4632400" lon="12.8129100"></trkpt>
      <trkpt lat="41.4633200" lon="12.8140600"></trkpt>
      <trkpt lat="41.4633600" lon="12.8143300"></trkpt>
      <trkpt lat="41.4634200" lon="12.8147400"></trkpt>
      <trkpt lat="41.4635700" lon="12.8155600"></trkpt>
      <trkpt lat="41.4635700" lon="12.8155700"></trkpt>
      <trkpt lat="41.4636100" lon="12.8157500"></trkpt>
      <trkpt lat="41.4636900" lon="12.8161400"></trkpt>
      <trkpt lat="41.4637700" lon="12.8164700"></trkpt>
      <trkpt lat="41.4637200" lon="12.8165900"></trkpt>
      <trkpt lat="41.4636600" lon="12.8167200"></trkpt>
      <trkpt lat="41.4636300" lon="12.8168000"></trkpt>
      <trkpt lat="41.4634600" lon="12.8171900"></trkpt>
      <trkpt lat="41.4633100" lon="12.8175300"></trkpt>
      <trkpt lat="41.4627700" lon="12.8188400"></trkpt>
      <trkpt lat="41.4626500" lon="12.8191500"></trkpt>
      <trkpt lat="41.4625000" lon="12.8195000"></trkpt>
      <trkpt lat="41.4624300" lon="12.8196700"></trkpt>
      <trkpt lat="41.4623000" lon="12.8199700"></trkpt>
      <trkpt lat="41.4619700" lon="12.8207900"></trkpt>
      <trkpt lat="41.4618800" lon="12.8210000"></trkpt>
      <trkpt lat="41.4616200" lon="12.8216300"></trkpt>
      <trkpt lat="41.4614900" lon="12.8219400"></trkpt>
      <trkpt lat="41.4613200" lon="12.8223600"></trkpt>
      <trkpt lat="41.4610200" lon="12.8230800"></trkpt>
      <trkpt lat="41.4610000" lon="12.8231300"></trkpt>
      <trkpt lat="41.4607300" lon="12.8237900"></trkpt>
      <trkpt lat="41.4607100" lon="12.8238500"></trkpt>
      <trkpt lat="41.4602300" lon="12.8250100"></trkpt>
      <trkpt lat="41.4599100" lon="12.8258000"></trkpt>
      <trkpt lat="41.4597500" lon="12.8261900"></trkpt>
      <trkpt lat="41.4596100" lon="12.8265300"></trkpt>
      <trkpt lat="41.4592700" lon="12.8273700"></trkpt>
      <trkpt lat="41.4592300" lon="12.8274600"></trkpt>
      <trkpt lat="41.4589700" lon="12.8280900"></trkpt>
      <trkpt lat="41.4588900" lon="12.8283100"></trkpt>
      <trkpt lat="41.4588300" lon="12.8284500"></trkpt>
      <trkpt lat="41.4585000" lon="12.8292500"></trkpt>
      <trkpt lat="41.4582900" lon="12.8297600"></trkpt>
      <trkpt lat="41.4580100" lon="12.8304400"></trkpt>
      <trkpt lat="41.4579500" lon="12.8306000"></trkpt>
      <trkpt lat="41.4577400" lon="12.8311000"></trkpt>
      <trkpt lat="41.4572800" lon="12.8322200"></trkpt>
      <trkpt lat="41.4572400" lon="12.8323100"></trkpt>
      <trkpt lat="41.4567000" lon="12.8336200"></trkpt>
      <trkpt lat="41.4566100" lon="12.8338300"></trkpt>
      <trkpt lat="41.4563300" lon="12.8345300"></trkpt>
      <trkpt lat="41.4562300" lon="12.8347600"></trkpt>
      <trkpt lat="41.4561500" lon="12.8349600"></trkpt>
      <trkpt lat="41.4560100" lon="12.8353000"></trkpt>
      <trkpt lat="41.4557700" lon="12.8359000"></trkpt>
      <trkpt lat="41.4553800" lon="12.8368500"></trkpt>
      <trkpt lat="41.4553000" lon="12.8370400"></trkpt>
      <trkpt lat="41.4547700" lon="12.8383300"></trkpt>
      <trkpt lat="41.4544300" lon="12.8391700"></trkpt>
      <trkpt lat="41.4543100" lon="12.8394500"></trkpt>
      <trkpt lat="41.4539800" lon="12.8402700"></trkpt>
      <trkpt lat="41.4539400" lon="12.8403700"></trkpt>
      <trkpt lat="41.4538300" lon="12.8406400"></trkpt>
      <trkpt lat="41.4537300" lon="12.8408700"></trkpt>
      <trkpt lat="41.4536400" lon="12.8409800"></trkpt>
      <trkpt lat="41.4536300" lon="12.8409800"></trkpt>
      <trkpt lat="41.4536200" lon="12.8409800"></trkpt>
      <trkpt lat="41.4536100" lon="12.8409900"></trkpt>
      <trkpt lat="41.4536000" lon="12.8409900"></trkpt>
      <trkpt lat="41.4536000" lon="12.8410000"></trkpt>
      <trkpt lat="41.4535900" lon="12.8410000"></trkpt>
      <trkpt lat="41.4535900" lon="12.8410100"></trkpt>
      <trkpt lat="41.4535800" lon="12.8410100"></trkpt>
      <trkpt lat="41.4535800" lon="12.8410200"></trkpt>
      <trkpt lat="41.4535700" lon="12.8410200"></trkpt>
      <trkpt lat="41.4535700" lon="12.8410300"></trkpt>
      <trkpt lat="41.4535700" lon="12.8410400"></trkpt>
      <trkpt lat="41.4535600" lon="12.8410400"></trkpt>
      <trkpt lat="41.4535600" lon="12.8410500"></trkpt>
      <trkpt lat="41.4535600" lon="12.8410600"></trkpt>
      <trkpt lat="41.4535600" lon="12.8410700"></trkpt>
      <trkpt lat="41.4535600" lon="12.8410800"></trkpt>
      <trkpt lat="41.4535500" lon="12.8410900"></trkpt>
      <trkpt lat="41.4535500" lon="12.8411000"></trkpt>
      <trkpt lat="41.4535600" lon="12.8411100"></trkpt>
      <trkpt lat="41.4535600" lon="12.8411200"></trkpt>
      <trkpt lat="41.4535600" lon="12.8411300"></trkpt>
      <trkpt lat="41.4535600" lon="12.8411400"></trkpt>
      <trkpt lat="41.4535600" lon="12.8411500"></trkpt>
      <trkpt lat="41.4535200" lon="12.8413500"></trkpt>
      <trkpt lat="41.4532300" lon="12.8419700"></trkpt>
      <trkpt lat="41.4531300" lon="12.8421900"></trkpt>
      <trkpt lat="41.4530900" lon="12.8422800"></trkpt>
      <trkpt lat="41.4524000" lon="12.8438000"></trkpt>
      <trkpt lat="41.4523000" lon="12.8440000"></trkpt>
      <trkpt lat="41.4521600" lon="12.8443000"></trkpt>
      <trkpt lat="41.4518100" lon="12.8450500"></trkpt>
      <trkpt lat="41.4516100" lon="12.8455100"></trkpt>
      <trkpt lat="41.4515500" lon="12.8456400"></trkpt>
      <trkpt lat="41.4515000" lon="12.8458200"></trkpt>
      <trkpt lat="41.4514400" lon="12.8460400"></trkpt>
      <trkpt lat="41.4514000" lon="12.8462100"></trkpt>
      <trkpt lat="41.4513700" lon="12.8463800"></trkpt>
      <trkpt lat="41.4512900" lon="12.8468100"></trkpt>
      <trkpt lat="41.4512800" lon="12.8468500"></trkpt>
      <trkpt lat="41.4512100" lon="12.8472300"></trkpt>
      <trkpt lat="41.4511300" lon="12.8476700"></trkpt>
      <trkpt lat="41.4510700" lon="12.8480000"></trkpt>
      <trkpt lat="41.4508200" lon="12.8492700"></trkpt>
      <trkpt lat="41.4507700" lon="12.8495600"></trkpt>
      <trkpt lat="41.4507600" lon="12.8496200"></trkpt>
      <trkpt lat="41.4506800" lon="12.8500700"></trkpt>
      <trkpt lat="41.4506200" lon="12.8503700"></trkpt>
      <trkpt lat="41.4506000" lon="12.8504800"></trkpt>
      <trkpt lat="41.4505900" lon="12.8505800"></trkpt>
      <trkpt lat="41.4505000" lon="12.8511000"></trkpt>
      <trkpt lat="41.4503300" lon="12.8519800"></trkpt>
      <trkpt lat="41.4502700" lon="12.8523000"></trkpt>
      <trkpt lat="41.4502000" lon="12.8526800"></trkpt>
      <trkpt lat="41.4501800" lon="12.8527800"></trkpt>
      <trkpt lat="41.4499000" lon="12.8542700"></trkpt>
      <trkpt lat="41.4498400" lon="12.8546000"></trkpt>
      <trkpt lat="41.4497300" lon="12.8551800"></trkpt>
      <trkpt lat="41.4496400" lon="12.8556300"></trkpt>
      <trkpt lat="41.4493800" lon="12.8570700"></trkpt>
      <trkpt lat="41.4493600" lon="12.8571400"></trkpt>
      <trkpt lat="41.4492400" lon="12.8578000"></trkpt>
      <trkpt lat="41.4491900" lon="12.8580900"></trkpt>
      <trkpt lat="41.4490100" lon="12.8590700"></trkpt>
      <trkpt lat="41.4489900" lon="12.8591600"></trkpt>
      <trkpt lat="41.4489500" lon="12.8593200"></trkpt>
      <trkpt lat="41.4489100" lon="12.8594800"></trkpt>
      <trkpt lat="41.4487400" lon="12.8599500"></trkpt>
      <trkpt lat="41.4486000" lon="12.8603300"></trkpt>
      <trkpt lat="41.4482300" lon="12.8613100"></trkpt>
      <trkpt lat="41.4479500" lon="12.8620000"></trkpt>
      <trkpt lat="41.4479300" lon="12.8620700"></trkpt>
      <trkpt lat="41.4476700" lon="12.8627100"></trkpt>
      <trkpt lat="41.4476400" lon="12.8628000"></trkpt>
      <trkpt lat="41.4475600" lon="12.8629900"></trkpt>
      <trkpt lat="41.4474800" lon="12.8632400"></trkpt>
      <trkpt lat="41.4472800" lon="12.8637800"></trkpt>
      <trkpt lat="41.4472100" lon="12.8639800"></trkpt>
      <trkpt lat="41.4471200" lon="12.8642200"></trkpt>
      <trkpt lat="41.4469400" lon="12.8646800"></trkpt>
      <trkpt lat="41.4467400" lon="12.8652000"></trkpt>
      <trkpt lat="41.4465400" lon="12.8657300"></trkpt>
      <trkpt lat="41.4465200" lon="12.8657700"></trkpt>
      <trkpt lat="41.4462500" lon="12.8664900"></trkpt>
      <trkpt lat="41.4459200" lon="12.8673700"></trkpt>
      <trkpt lat="41.4456900" lon="12.8679800"></trkpt>
      <trkpt lat="41.4453400" lon="12.8689100"></trkpt>
      <trkpt lat="41.4452300" lon="12.8691900"></trkpt>
      <trkpt lat="41.4450800" lon="12.8696000"></trkpt>
      <trkpt lat="41.4450500" lon="12.8696900"></trkpt>
      <trkpt lat="41.4450000" lon="12.8698200"></trkpt>
      <trkpt lat="41.4446700" lon="12.8706700"></trkpt>
      <trkpt lat="41.4446600" lon="12.8706900"></trkpt>
      <trkpt lat="41.4445900" lon="12.8708900"></trkpt>
      <trkpt lat="41.4445800" lon="12.8709000"></trkpt>
      <trkpt lat="41.4443700" lon="12.8714600"></trkpt>
      <trkpt lat="41.4443500" lon="12.8715300"></trkpt>
      <trkpt lat="41.4442600" lon="12.8717800"></trkpt>
      <trkpt lat="41.4441900" lon="12.8719600"></trkpt>
      <trkpt lat="41.4441800" lon="12.8720000"></trkpt>
      <trkpt lat="41.4440300" lon="12.8723900"></trkpt>
      <trkpt lat="41.4440100" lon="12.8724200"></trkpt>
      <trkpt lat="41.4437700" lon="12.8730700"></trkpt>
      <trkpt lat="41.4435400" lon="12.8736800"></trkpt>
      <trkpt lat="41.4432900" lon="12.8743600"></trkpt>
      <trkpt lat="41.4431800" lon="12.8746400"></trkpt>
      <trkpt lat="41.4427800" lon="12.8757100"></trkpt>
      <trkpt lat="41.4425000" lon="12.8764300"></trkpt>
      <trkpt lat="41.4423300" lon="12.8769000"></trkpt>
      <trkpt lat="41.4421800" lon="12.8772900"></trkpt>
      <trkpt lat="41.4421700" lon="12.8773100"></trkpt>
      <trkpt lat="41.4421000" lon="12.8775000"></trkpt>
      <trkpt lat="41.4419300" lon="12.8779300"></trkpt>
      <trkpt lat="41.4419100" lon="12.8779800"></trkpt>
      <trkpt lat="41.4411800" lon="12.8799100"></trkpt>
      <trkpt lat="41.4409500" lon="12.8805400"></trkpt>
      <trkpt lat="41.4407800" lon="12.8809600"></trkpt>
      <trkpt lat="41.4407300" lon="12.8810900"></trkpt>
      <trkpt lat="41.4407100" lon="12.8811600"></trkpt>
      <trkpt lat="41.4406300" lon="12.8813600"></trkpt>
      <trkpt lat="41.4401900" lon="12.8825100"></trkpt>
      <trkpt lat="41.4401000" lon="12.8827500"></trkpt>
      <trkpt lat="41.4399700" lon="12.8830900"></trkpt>
      <trkpt lat="41.4397200" lon="12.8837500"></trkpt>
      <trkpt lat="41.4396400" lon="12.8840100"></trkpt>
      <trkpt lat="41.4395700" lon="12.8841100"></trkpt>
      <trkpt lat="41.4394500" lon="12.8842600"></trkpt>
      <trkpt lat="41.4394500" lon="12.8842700"></trkpt>
      <trkpt lat="41.4394400" lon="12.8842700"></trkpt>
      <trkpt lat="41.4394300" lon="12.8842700"></trkpt>
      <trkpt lat="41.4394200" lon="12.8842700"></trkpt>
      <trkpt lat="41.4394200" lon="12.8842800"></trkpt>
      <trkpt lat="41.4394100" lon="12.8842800"></trkpt>
      <trkpt lat="41.4392100" lon="12.8842300"></trkpt>
      <trkpt lat="41.4391000" lon="12.8842000"></trkpt>
      <trkpt lat="41.4390700" lon="12.8841800"></trkpt>
      <trkpt lat="41.4389300" lon="12.8840900"></trkpt>
      <trkpt lat="41.4385700" lon="12.8838800"></trkpt>
      <trkpt lat="41.4385300" lon="12.8838500"></trkpt>
      <trkpt lat="41.4381500" lon="12.8836300"></trkpt>
      <trkpt lat="41.4378600" lon="12.8834600"></trkpt>
      <trkpt lat="41.4375900" lon="12.8833000"></trkpt>
      <trkpt lat="41.4375500" lon="12.8832800"></trkpt>
      <trkpt lat="41.4375100" lon="12.8832500"></trkpt>
      <trkpt lat="41.4374500" lon="12.8832200"></trkpt>
      <trkpt lat="41.4370200" lon="12.8829700"></trkpt>
      <trkpt lat="41.4369700" lon="12.8829400"></trkpt>
      <trkpt lat="41.4367400" lon="12.8828100"></trkpt>
      <trkpt lat="41.4366600" lon="12.8827700"></trkpt>
      <trkpt lat="41.4363700" lon="12.8826300"></trkpt>
      <trkpt lat="41.4363300" lon="12.8826100"></trkpt>
      <trkpt lat="41.4354100" lon="12.8821900"></trkpt>
      <trkpt lat="41.4352500" lon="12.8821300"></trkpt>
      <trkpt lat="41.4347100" lon="12.8819300"></trkpt>
      <trkpt lat="41.4346300" lon="12.8819000"></trkpt>
      <trkpt lat="41.4341900" lon="12.8817600"></trkpt>
      <trkpt lat="41.4340400" lon="12.8817100"></trkpt>
      <trkpt lat="41.4339000" lon="12.8816700"></trkpt>
      <trkpt lat="41.4337300" lon="12.8816200"></trkpt>
      <trkpt lat="41.4334700" lon="12.8815500"></trkpt>
      <trkpt lat="41.4333200" lon="12.8815100"></trkpt>
      <trkpt lat="41.4328600" lon="12.8814100"></trkpt>
      <trkpt lat="41.4321800" lon="12.8812800"></trkpt>
      <trkpt lat="41.4316700" lon="12.8811900"></trkpt>
      <trkpt lat="41.4311900" lon="12.8810900"></trkpt>
      <trkpt lat="41.4311400" lon="12.8810800"></trkpt>
      <trkpt lat="41.4311000" lon="12.8810700"></trkpt>
      <trkpt lat="41.4308500" lon="12.8810200"></trkpt>
      <trkpt lat="41.4304200" lon="12.8809400"></trkpt>
      <trkpt lat="41.4295700" lon="12.8807700"></trkpt>
      <trkpt lat="41.4295100" lon="12.8807500"></trkpt>
      <trkpt lat="41.4290400" lon="12.8806700"></trkpt>
      <trkpt lat="41.4285100" lon="12.8805700"></trkpt>
      <trkpt lat="41.4279000" lon="12.8804500"></trkpt>
      <trkpt lat="41.4274300" lon="12.8803900"></trkpt>
      <trkpt lat="41.4269600" lon="12.8803200"></trkpt>
      <trkpt lat="41.4269000" lon="12.8803100"></trkpt>
      <trkpt lat="41.4261500" lon="12.8801500"></trkpt>
      <trkpt lat="41.4254900" lon="12.8800100"></trkpt>
      <trkpt lat="41.4252600" lon="12.8799500"></trkpt>
      <trkpt lat="41.4251900" lon="12.8799300"></trkpt>
      <trkpt lat="41.4250900" lon="12.8799000"></trkpt>
      <trkpt lat="41.4249200" lon="12.8798600"></trkpt>
      <trkpt lat="41.4243700" lon="12.8796800"></trkpt>
      <trkpt lat="41.4236900" lon="12.8794500"></trkpt>
      <trkpt lat="41.4236600" lon="12.8794400"></trkpt>
      <trkpt lat="41.4229000" lon="12.8791600"></trkpt>
      <trkpt lat="41.4220000" lon="12.8787700"></trkpt>
      <trkpt lat="41.4218900" lon="12.8787100"></trkpt>
      <trkpt lat="41.4218100" lon="12.8786700"></trkpt>
      <trkpt lat="41.4212400" lon="12.8784200"></trkpt>
      <trkpt lat="41.4206800" lon="12.8781700"></trkpt>
      <trkpt lat="41.4206500" lon="12.8781300"></trkpt>
      <trkpt lat="41.4206100" lon="12.8781000"></trkpt>
      <trkpt lat="41.4205500" lon="12.8780700"></trkpt>
      <trkpt lat="41.4204900" lon="12.8780400"></trkpt>
      <trkpt lat="41.4204200" lon="12.8780000"></trkpt>
      <trkpt lat="41.4203100" lon="12.8779300"></trkpt>
      <trkpt lat="41.4203100" lon="12.8779200"></trkpt>
      <trkpt lat="41.4203100" lon="12.8779100"></trkpt>
      <trkpt lat="41.4203000" lon="12.8779000"></trkpt>
      <trkpt lat="41.4203000" lon="12.8778900"></trkpt>
      <trkpt lat="41.4203000" lon="12.8778800"></trkpt>
      <trkpt lat="41.4202900" lon="12.8778800"></trkpt>
      <trkpt lat="41.4202900" lon="12.8778700"></trkpt>
      <trkpt lat="41.4202900" lon="12.8778600"></trkpt>
      <trkpt lat="41.4202800" lon="12.8778600"></trkpt>
      <trkpt lat="41.4202800" lon="12.8778500"></trkpt>
      <trkpt lat="41.4202700" lon="12.8778400"></trkpt>
      <trkpt lat="41.4202600" lon="12.8778400"></trkpt>
      <trkpt lat="41.4202600" lon="12.8778300"></trkpt>
      <trkpt lat="41.4202500" lon="12.8778300"></trkpt>
      <trkpt lat="41.4202400" lon="12.8778200"></trkpt>
      <trkpt lat="41.4202300" lon="12.8778200"></trkpt>
      <trkpt lat="41.4202200" lon="12.8778100"></trkpt>
      <trkpt lat="41.4202100" lon="12.8778100"></trkpt>
      <trkpt lat="41.4202000" lon="12.8778100"></trkpt>
      <trkpt lat="41.4201900" lon="12.8778100"></trkpt>
      <trkpt lat="41.4201800" lon="12.8778100"></trkpt>
      <trkpt lat="41.4201800" lon="12.8778200"></trkpt>
      <trkpt lat="41.4201700" lon="12.8778200"></trkpt>
      <trkpt lat="41.4201600" lon="12.8778200"></trkpt>
      <trkpt lat="41.4201600" lon="12.8778300"></trkpt>
      <trkpt lat="41.4201500" lon="12.8778300"></trkpt>
      <trkpt lat="41.4201400" lon="12.8778400"></trkpt>
      <trkpt lat="41.4201300" lon="12.8778500"></trkpt>
      <trkpt lat="41.4201200" lon="12.8778600"></trkpt>
      <trkpt lat="41.4200200" lon="12.8778100"></trkpt>
      <trkpt lat="41.4198600" lon="12.8777500"></trkpt>
      <trkpt lat="41.4198400" lon="12.8777400"></trkpt>
      <trkpt lat="41.4197600" lon="12.8777100"></trkpt>
      <trkpt lat="41.4197200" lon="12.8777000"></trkpt>
      <trkpt lat="41.4196900" lon="12.8776900"></trkpt>
      <trkpt lat="41.4196300" lon="12.8777000"></trkpt>
      <trkpt lat="41.4193000" lon="12.8775400"></trkpt>
      <trkpt lat="41.4192100" lon="12.8775000"></trkpt>
      <trkpt lat="41.4186300" lon="12.8772300"></trkpt>
      <trkpt lat="41.4183500" lon="12.8771000"></trkpt>
      <trkpt lat="41.4173600" lon="12.8766500"></trkpt>
      <trkpt lat="41.4170900" lon="12.8765300"></trkpt>
      <trkpt lat="41.4165800" lon="12.8762900"></trkpt>
      <trkpt lat="41.4157400" lon="12.8759100"></trkpt>
      <trkpt lat="41.4151300" lon="12.8756100"></trkpt>
      <trkpt lat="41.4147200" lon="12.8754300"></trkpt>
      <trkpt lat="41.4146100" lon="12.8753800"></trkpt>
      <trkpt lat="41.4145600" lon="12.8753600"></trkpt>
      <trkpt lat="41.4143100" lon="12.8752500"></trkpt>
      <trkpt lat="41.4131900" lon="12.8747500"></trkpt>
      <trkpt lat="41.4109800" lon="12.8737500"></trkpt>
      <trkpt lat="41.4108100" lon="12.8736700"></trkpt>
      <trkpt lat="41.4106400" lon="12.8735900"></trkpt>
      <trkpt lat="41.4103000" lon="12.8734400"></trkpt>
      <trkpt lat="41.4097900" lon="12.8732100"></trkpt>
      <trkpt lat="41.4091100" lon="12.8729000"></trkpt>
      <trkpt lat="41.4086000" lon="12.8726700"></trkpt>
      <trkpt lat="41.4076100" lon="12.8722200"></trkpt>
      <trkpt lat="41.4075600" lon="12.8722000"></trkpt>
      <trkpt lat="41.4070600" lon="12.8719700"></trkpt>
      <trkpt lat="41.4069400" lon="12.8719200"></trkpt>
      <trkpt lat="41.4068900" lon="12.8719000"></trkpt>
      <trkpt lat="41.4065300" lon="12.8717400"></trkpt>
      <trkpt lat="41.4064700" lon="12.8717200"></trkpt>
      <trkpt lat="41.4064600" lon="12.8716900"></trkpt>
      <trkpt lat="41.4064400" lon="12.8716800"></trkpt>
      <trkpt lat="41.4064200" lon="12.8716700"></trkpt>
      <trkpt lat="41.4063800" lon="12.8716500"></trkpt>
      <trkpt lat="41.4063600" lon="12.8716300"></trkpt>
      <trkpt lat="41.4063200" lon="12.8716000"></trkpt>
      <trkpt lat="41.4063100" lon="12.8716000"></trkpt>
      <trkpt lat="41.4063100" lon="12.8715900"></trkpt>
      <trkpt lat="41.4063100" lon="12.8715800"></trkpt>
      <trkpt lat="41.4063100" lon="12.8715700"></trkpt>
      <trkpt lat="41.4063100" lon="12.8715600"></trkpt>
      <trkpt lat="41.4063100" lon="12.8715500"></trkpt>
      <trkpt lat="41.4063000" lon="12.8715500"></trkpt>
      <trkpt lat="41.4063000" lon="12.8715400"></trkpt>
      <trkpt lat="41.4063000" lon="12.8715300"></trkpt>
      <trkpt lat="41.4062900" lon="12.8715300"></trkpt>
      <trkpt lat="41.4062900" lon="12.8715200"></trkpt>
      <trkpt lat="41.4062900" lon="12.8715100"></trkpt>
      <trkpt lat="41.4062800" lon="12.8715100"></trkpt>
      <trkpt lat="41.4062800" lon="12.8715000"></trkpt>
      <trkpt lat="41.4062700" lon="12.8715000"></trkpt>
      <trkpt lat="41.4062700" lon="12.8714900"></trkpt>
      <trkpt lat="41.4062600" lon="12.8714900"></trkpt>
      <trkpt lat="41.4062600" lon="12.8714800"></trkpt>
      <trkpt lat="41.4062500" lon="12.8714800"></trkpt>
      <trkpt lat="41.4062400" lon="12.8714700"></trkpt>
      <trkpt lat="41.4062300" lon="12.8714700"></trkpt>
      <trkpt lat="41.4062200" lon="12.8714700"></trkpt>
      <trkpt lat="41.4062100" lon="12.8714600"></trkpt>
      <trkpt lat="41.4062000" lon="12.8714600"></trkpt>
      <trkpt lat="41.4061900" lon="12.8714700"></trkpt>
      <trkpt lat="41.4061800" lon="12.8714700"></trkpt>
      <trkpt lat="41.4061700" lon="12.8714700"></trkpt>
      <trkpt lat="41.4061600" lon="12.8714800"></trkpt>
      <trkpt lat="41.4061500" lon="12.8714800"></trkpt>
      <trkpt lat="41.4061400" lon="12.8714900"></trkpt>
      <trkpt lat="41.4061400" lon="12.8715000"></trkpt>
      <trkpt lat="41.4061300" lon="12.8715000"></trkpt>
      <trkpt lat="41.4061300" lon="12.8715100"></trkpt>
      <trkpt lat="41.4061200" lon="12.8715100"></trkpt>
      <trkpt lat="41.4061200" lon="12.8715200"></trkpt>
      <trkpt lat="41.4061100" lon="12.8715300"></trkpt>
      <trkpt lat="41.4061100" lon="12.8715400"></trkpt>
      <trkpt lat="41.4061100" lon="12.8715500"></trkpt>
      <trkpt lat="41.4061000" lon="12.8715500"></trkpt>
      <trkpt lat="41.4061000" lon="12.8715600"></trkpt>
      <trkpt lat="41.4061000" lon="12.8715700"></trkpt>
      <trkpt lat="41.4061000" lon="12.8715800"></trkpt>
      <trkpt lat="41.4061000" lon="12.8715900"></trkpt>
      <trkpt lat="41.4060900" lon="12.8716000"></trkpt>
      <trkpt lat="41.4060900" lon="12.8716100"></trkpt>
      <trkpt lat="41.4060900" lon="12.8716200"></trkpt>
      <trkpt lat="41.4061000" lon="12.8716300"></trkpt>
      <trkpt lat="41.4061000" lon="12.8716400"></trkpt>
      <trkpt lat="41.4061000" lon="12.8716500"></trkpt>
      <trkpt lat="41.4061000" lon="12.8716600"></trkpt>
      <trkpt lat="41.4061000" lon="12.8716700"></trkpt>
      <trkpt lat="41.4061100" lon="12.8716800"></trkpt>
      <trkpt lat="41.4061000" lon="12.8717600"></trkpt>
      <trkpt lat="41.4061000" lon="12.8718200"></trkpt>
      <trkpt lat="41.4060900" lon="12.8718600"></trkpt>
      <trkpt lat="41.4060800" lon="12.8719000"></trkpt>
      <trkpt lat="41.4060600" lon="12.8720000"></trkpt>
      <trkpt lat="41.4060500" lon="12.8720600"></trkpt>
      <trkpt lat="41.4060000" lon="12.8721600"></trkpt>
      <trkpt lat="41.4059900" lon="12.8722000"></trkpt>
      <trkpt lat="41.4059400" lon="12.8723200"></trkpt>
      <trkpt lat="41.4056800" lon="12.8729500"></trkpt>
      <trkpt lat="41.4056700" lon="12.8729700"></trkpt>
      <trkpt lat="41.4055900" lon="12.8731700"></trkpt>
      <trkpt lat="41.4055200" lon="12.8733600"></trkpt>
      <trkpt lat="41.4054600" lon="12.8735200"></trkpt>
      <trkpt lat="41.4054300" lon="12.8735700"></trkpt>
      <trkpt lat="41.4053900" lon="12.8736800"></trkpt>
      <trkpt lat="41.4053800" lon="12.8737000"></trkpt>
      <trkpt lat="41.4053000" lon="12.8739000"></trkpt>
      <trkpt lat="41.4052400" lon="12.8740700"></trkpt>
      <trkpt lat="41.4050600" lon="12.8745100"></trkpt>
      <trkpt lat="41.4050200" lon="12.8746000"></trkpt>
      <trkpt lat="41.4048900" lon="12.8749500"></trkpt>
      <trkpt lat="41.4045100" lon="12.8759300"></trkpt>
      <trkpt lat="41.4045000" lon="12.8759400"></trkpt>
      <trkpt lat="41.4043900" lon="12.8762500"></trkpt>
      <trkpt lat="41.4038100" lon="12.8776100"></trkpt>
      <trkpt lat="41.4037600" lon="12.8777200"></trkpt>
      <trkpt lat="41.4037300" lon="12.8777700"></trkpt>
      <trkpt lat="41.4035700" lon="12.8781200"></trkpt>
      <trkpt lat="41.4034600" lon="12.8783400"></trkpt>
      <trkpt lat="41.4033800" lon="12.8785300"></trkpt>
      <trkpt lat="41.4031700" lon="12.8789700"></trkpt>
      <trkpt lat="41.4029900" lon="12.8793400"></trkpt>
      <trkpt lat="41.4026800" lon="12.8800100"></trkpt>
      <trkpt lat="41.4024900" lon="12.8804300"></trkpt>
      <trkpt lat="41.4024600" lon="12.8804800"></trkpt>
      <trkpt lat="41.4024200" lon="12.8805700"></trkpt>
      <trkpt lat="41.4023900" lon="12.8806300"></trkpt>
      <trkpt lat="41.4023300" lon="12.8807700"></trkpt>
      <trkpt lat="41.4018600" lon="12.8817800"></trkpt>
      <trkpt lat="41.4018300" lon="12.8818300"></trkpt>
      <trkpt lat="41.4012500" lon="12.8830800"></trkpt>
      <trkpt lat="41.4011900" lon="12.8832100"></trkpt>
      <trkpt lat="41.4011600" lon="12.8832800"></trkpt>
      <trkpt lat="41.4009600" lon="12.8836800"></trkpt>
      <trkpt lat="41.4005500" lon="12.8845600"></trkpt>
      <trkpt lat="41.4004500" lon="12.8847700"></trkpt>
      <trkpt lat="41.4003000" lon="12.8851000"></trkpt>
      <trkpt lat="41.4001400" lon="12.8854300"></trkpt>
      <trkpt lat="41.4001200" lon="12.8854800"></trkpt>
      <trkpt lat="41.3998600" lon="12.8860300"></trkpt>
      <trkpt lat="41.3998200" lon="12.8861200"></trkpt>
      <trkpt lat="41.3997800" lon="12.8861900"></trkpt>
      <trkpt lat="41.3997600" lon="12.8862400"></trkpt>
      <trkpt lat="41.3997200" lon="12.8863200"></trkpt>
      <trkpt lat="41.3996900" lon="12.8863900"></trkpt>
      <trkpt lat="41.3991900" lon="12.8874600"></trkpt>
      <trkpt lat="41.3979000" lon="12.8901800"></trkpt>
      <trkpt lat="41.3977200" lon="12.8905600"></trkpt>
      <trkpt lat="41.3977000" lon="12.8906100"></trkpt>
      <trkpt lat="41.3969400" lon="12.8922100"></trkpt>
      <trkpt lat="41.3964800" lon="12.8931800"></trkpt>
      <trkpt lat="41.3962000" lon="12.8937500"></trkpt>
      <trkpt lat="41.3961500" lon="12.8938600"></trkpt>
      <trkpt lat="41.3961100" lon="12.8939500"></trkpt>
      <trkpt lat="41.3957600" lon="12.8946900"></trkpt>
      <trkpt lat="41.3955700" lon="12.8950700"></trkpt>
      <trkpt lat="41.3954900" lon="12.8952200"></trkpt>
      <trkpt lat="41.3954900" lon="12.8952300"></trkpt>
      <trkpt lat="41.3954600" lon="12.8952800"></trkpt>
      <trkpt lat="41.3954400" lon="12.8953300"></trkpt>
      <trkpt lat="41.3950300" lon="12.8961600"></trkpt>
      <trkpt lat="41.3946000" lon="12.8970200"></trkpt>
      <trkpt lat="41.3943300" lon="12.8975600"></trkpt>
      <trkpt lat="41.3934900" lon="12.8992700"></trkpt>
      <trkpt lat="41.3934100" lon="12.8994300"></trkpt>
      <trkpt lat="41.3933200" lon="12.8996300"></trkpt>
      <trkpt lat="41.3931200" lon="12.9000300"></trkpt>
      <trkpt lat="41.3924300" lon="12.9014300"></trkpt>
      <trkpt lat="41.3922000" lon="12.9018800"></trkpt>
      <trkpt lat="41.3920400" lon="12.9022100"></trkpt>
      <trkpt lat="41.3919500" lon="12.9023900"></trkpt>
      <trkpt lat="41.3919300" lon="12.9024300"></trkpt>
      <trkpt lat="41.3915900" lon="12.9030900"></trkpt>
      <trkpt lat="41.3915500" lon="12.9031800"></trkpt>
      <trkpt lat="41.3914700" lon="12.9033300"></trkpt>
      <trkpt lat="41.3913700" lon="12.9035400"></trkpt>
      <trkpt lat="41.3912300" lon="12.9038200"></trkpt>
      <trkpt lat="41.3910800" lon="12.9041400"></trkpt>
      <trkpt lat="41.3905200" lon="12.9052700"></trkpt>
      <trkpt lat="41.3905100" lon="12.9052800"></trkpt>
      <trkpt lat="41.3903400" lon="12.9056200"></trkpt>
      <trkpt lat="41.3902400" lon="12.9058300"></trkpt>
      <trkpt lat="41.3900000" lon="12.9063200"></trkpt>
      <trkpt lat="41.3897600" lon="12.9068000"></trkpt>
      <trkpt lat="41.3895300" lon="12.9072600"></trkpt>
      <trkpt lat="41.3894500" lon="12.9074200"></trkpt>
      <trkpt lat="41.3893500" lon="12.9076200"></trkpt>
      <trkpt lat="41.3893200" lon="12.9076800"></trkpt>
      <trkpt lat="41.3891800" lon="12.9079600"></trkpt>
      <trkpt lat="41.3886000" lon="12.9091200"></trkpt>
      <trkpt lat="41.3885800" lon="12.9091600"></trkpt>
      <trkpt lat="41.3884400" lon="12.9094100"></trkpt>
      <trkpt lat="41.3884000" lon="12.9094900"></trkpt>
      <trkpt lat="41.3883500" lon="12.9095600"></trkpt>
      <trkpt lat="41.3883300" lon="12.9096000"></trkpt>
      <trkpt lat="41.3881200" lon="12.9099800"></trkpt>
      <trkpt lat="41.3878600" lon="12.9104500"></trkpt>
      <trkpt lat="41.3875900" lon="12.9109400"></trkpt>
      <trkpt lat="41.3873900" lon="12.9112900"></trkpt>
      <trkpt lat="41.3868500" lon="12.9122600"></trkpt>
      <trkpt lat="41.3868400" lon="12.9122800"></trkpt>
      <trkpt lat="41.3868300" lon="12.9122900"></trkpt>
      <trkpt lat="41.3867200" lon="12.9124900"></trkpt>
      <trkpt lat="41.3866200" lon="12.9126800"></trkpt>
      <trkpt lat="41.3863400" lon="12.9131700"></trkpt>
      <trkpt lat="41.3861800" lon="12.9134400"></trkpt>
      <trkpt lat="41.3860700" lon="12.9136300"></trkpt>
      <trkpt lat="41.3860600" lon="12.9136600"></trkpt>
      <trkpt lat="41.3860300" lon="12.9137100"></trkpt>
      <trkpt lat="41.3857500" lon="12.9142100"></trkpt>
      <trkpt lat="41.3856900" lon="12.9143100"></trkpt>
      <trkpt lat="41.3856400" lon="12.9144000"></trkpt>
      <trkpt lat="41.3855800" lon="12.9145100"></trkpt>
      <trkpt lat="41.3855100" lon="12.9146800"></trkpt>
      <trkpt lat="41.3855000" lon="12.9146900"></trkpt>
      <trkpt lat="41.3853300" lon="12.9151600"></trkpt>
      <trkpt lat="41.3851700" lon="12.9155900"></trkpt>
      <trkpt lat="41.3850400" lon="12.9159500"></trkpt>
      <trkpt lat="41.3849700" lon="12.9161600"></trkpt>
      <trkpt lat="41.3849600" lon="12.9161700"></trkpt>
      <trkpt lat="41.3849000" lon="12.9162600"></trkpt>
      <trkpt lat="41.3848400" lon="12.9163000"></trkpt>
      <trkpt lat="41.3847900" lon="12.9163400"></trkpt>
      <trkpt lat="41.3847800" lon="12.9163500"></trkpt>
      <trkpt lat="41.3847700" lon="12.9163500"></trkpt>
      <trkpt lat="41.3847700" lon="12.9163600"></trkpt>
      <trkpt lat="41.3847600" lon="12.9163600"></trkpt>
      <trkpt lat="41.3847600" lon="12.9163700"></trkpt>
      <trkpt lat="41.3847500" lon="12.9163700"></trkpt>
      <trkpt lat="41.3847500" lon="12.9163800"></trkpt>
      <trkpt lat="41.3847400" lon="12.9163800"></trkpt>
      <trkpt lat="41.3847400" lon="12.9163900"></trkpt>
      <trkpt lat="41.3847400" lon="12.9164000"></trkpt>
      <trkpt lat="41.3847300" lon="12.9164000"></trkpt>
      <trkpt lat="41.3847300" lon="12.9164100"></trkpt>
      <trkpt lat="41.3847300" lon="12.9164200"></trkpt>
      <trkpt lat="41.3847300" lon="12.9164300"></trkpt>
      <trkpt lat="41.3847300" lon="12.9164400"></trkpt>
      <trkpt lat="41.3847300" lon="12.9164500"></trkpt>
      <trkpt lat="41.3847300" lon="12.9164600"></trkpt>
      <trkpt lat="41.3847300" lon="12.9164700"></trkpt>
      <trkpt lat="41.3847300" lon="12.9164800"></trkpt>
      <trkpt lat="41.3847300" lon="12.9164900"></trkpt>
      <trkpt lat="41.3847300" lon="12.9165000"></trkpt>
      <trkpt lat="41.3847400" lon="12.9165000"></trkpt>
      <trkpt lat="41.3847400" lon="12.9165100"></trkpt>
      <trkpt lat="41.3847400" lon="12.9165200"></trkpt>
      <trkpt lat="41.3847500" lon="12.9165200"></trkpt>
      <trkpt lat="41.3847500" lon="12.9165300"></trkpt>
      <trkpt lat="41.3847600" lon="12.9165400"></trkpt>
      <trkpt lat="41.3847700" lon="12.9165500"></trkpt>
      <trkpt lat="41.3847800" lon="12.9165500"></trkpt>
      <trkpt lat="41.3847800" lon="12.9165600"></trkpt>
      <trkpt lat="41.3847900" lon="12.9165600"></trkpt>
      <trkpt lat="41.3848100" lon="12.9165700"></trkpt>
      <trkpt lat="41.3848400" lon="12.9166000"></trkpt>
      <trkpt lat="41.3848600" lon="12.9166200"></trkpt>
      <trkpt lat="41.3849000" lon="12.9166800"></trkpt>
      <trkpt lat="41.3849200" lon="12.9167100"></trkpt>
      <trkpt lat="41.3849700" lon="12.9169300"></trkpt>
      <trkpt lat="41.3849700" lon="12.9169400"></trkpt>
      <trkpt lat="41.3850100" lon="12.9170800"></trkpt>
      <trkpt lat="41.3850400" lon="12.9171600"></trkpt>
      <trkpt lat="41.3850500" lon="12.9171900"></trkpt>
      <trkpt lat="41.3850900" lon="12.9173200"></trkpt>
      <trkpt lat="41.3851200" lon="12.9173700"></trkpt>
      <trkpt lat="41.3851400" lon="12.9174000"></trkpt>
      <trkpt lat="41.3852300" lon="12.9175200"></trkpt>
      <trkpt lat="41.3852500" lon="12.9175400"></trkpt>
      <trkpt lat="41.3854400" lon="12.9177500"></trkpt>
      <trkpt lat="41.3854800" lon="12.9177900"></trkpt>
      <trkpt lat="41.3854800" lon="12.9178000"></trkpt>
      <trkpt lat="41.3855800" lon="12.9179100"></trkpt>
      <trkpt lat="41.3856000" lon="12.9179300"></trkpt>
      <trkpt lat="41.3860400" lon="12.9184700"></trkpt>
      <trkpt lat="41.3861700" lon="12.9186500"></trkpt>
      <trkpt lat="41.3863000" lon="12.9188700"></trkpt>
      <trkpt lat="41.3864100" lon="12.9190700"></trkpt>
      <trkpt lat="41.3864800" lon="12.9192200"></trkpt>
      <trkpt lat="41.3865800" lon="12.9195100"></trkpt>
      <trkpt lat="41.3866000" lon="12.9195600"></trkpt>
      <trkpt lat="41.3866600" lon="12.9197600"></trkpt>
      <trkpt lat="41.3867200" lon="12.9199800"></trkpt>
      <trkpt lat="41.3867400" lon="12.9200400"></trkpt>
      <trkpt lat="41.3867800" lon="12.9202300"></trkpt>
      <trkpt lat="41.3868000" lon="12.9203200"></trkpt>
      <trkpt lat="41.3869100" lon="12.9208400"></trkpt>
      <trkpt lat="41.3869900" lon="12.9214800"></trkpt>
      <trkpt lat="41.3870100" lon="12.9217100"></trkpt>
      <trkpt lat="41.3870200" lon="12.9218200"></trkpt>
      <trkpt lat="41.3870400" lon="12.9220600"></trkpt>
      <trkpt lat="41.3870400" lon="12.9221200"></trkpt>
      <trkpt lat="41.3870400" lon="12.9223500"></trkpt>
      <trkpt lat="41.3870400" lon="12.9225900"></trkpt>
      <trkpt lat="41.3870400" lon="12.9227600"></trkpt>
      <trkpt lat="41.3870400" lon="12.9230700"></trkpt>
      <trkpt lat="41.3870300" lon="12.9240400"></trkpt>
      <trkpt lat="41.3870200" lon="12.9243500"></trkpt>
      <trkpt lat="41.3870000" lon="12.9245700"></trkpt>
      <trkpt lat="41.3869900" lon="12.9246400"></trkpt>
      <trkpt lat="41.3869700" lon="12.9250600"></trkpt>
      <trkpt lat="41.3869700" lon="12.9252400"></trkpt>
      <trkpt lat="41.3869700" lon="12.9261900"></trkpt>
      <trkpt lat="41.3869600" lon="12.9272000"></trkpt>
      <trkpt lat="41.3869700" lon="12.9288200"></trkpt>
      <trkpt lat="41.3869700" lon="12.9289800"></trkpt>
      <trkpt lat="41.3869600" lon="12.9295800"></trkpt>
      <trkpt lat="41.3869900" lon="12.9309100"></trkpt>
      <trkpt lat="41.3869900" lon="12.9309700"></trkpt>
      <trkpt lat="41.3869900" lon="12.9310600"></trkpt>
      <trkpt lat="41.3870200" lon="12.9314500"></trkpt>
      <trkpt lat="41.3870800" lon="12.9319800"></trkpt>
      <trkpt lat="41.3871300" lon="12.9324200"></trkpt>
      <trkpt lat="41.3871400" lon="12.9325500"></trkpt>
      <trkpt lat="41.3871700" lon="12.9327900"></trkpt>
      <trkpt lat="41.3873200" lon="12.9340800"></trkpt>
      <trkpt lat="41.3873600" lon="12.9343900"></trkpt>
      <trkpt lat="41.3874600" lon="12.9352000"></trkpt>
      <trkpt lat="41.3875800" lon="12.9363000"></trkpt>
      <trkpt lat="41.3875900" lon="12.9363600"></trkpt>
      <trkpt lat="41.3875900" lon="12.9363900"></trkpt>
      <trkpt lat="41.3876400" lon="12.9368900"></trkpt>
      <trkpt lat="41.3871900" lon="12.9369400"></trkpt>
      <trkpt lat="41.3871200" lon="12.9369500"></trkpt>
      <trkpt lat="41.3870900" lon="12.9369400"></trkpt>
      <trkpt lat="41.3870800" lon="12.9369400"></trkpt>
      <trkpt lat="41.3870600" lon="12.9369200"></trkpt>
      <trkpt lat="41.3870300" lon="12.9369000"></trkpt>
      <trkpt lat="41.3870200" lon="12.9368600"></trkpt>
      <trkpt lat="41.3870000" lon="12.9367400"></trkpt>
      <trkpt lat="41.3869700" lon="12.9364700"></trkpt>
      <trkpt lat="41.3869500" lon="12.9361900"></trkpt>
      <trkpt lat="41.3868700" lon="12.9362100"></trkpt>
      <trkpt lat="41.3868500" lon="12.9362100"></trkpt>
      <trkpt lat="41.3868300" lon="12.9362200"></trkpt>
      <trkpt lat="41.3867700" lon="12.9362700"></trkpt>
      <trkpt lat="41.3867300" lon="12.9363300"></trkpt>
      <trkpt lat="41.3866600" lon="12.9364300"></trkpt>
      <trkpt lat="41.3866600" lon="12.9364400"></trkpt>
      <trkpt lat="41.3865500" lon="12.9366000"></trkpt>
      <trkpt lat="41.3864100" lon="12.9367800"></trkpt>
      <trkpt lat="41.3862800" lon="12.9369500"></trkpt>
      <trkpt lat="41.3862200" lon="12.9370300"></trkpt>
      <trkpt lat="41.3857000" lon="12.9377500"></trkpt>
      <trkpt lat="41.3856500" lon="12.9378100"></trkpt>
      <trkpt lat="41.3855200" lon="12.9379700"></trkpt>
      <trkpt lat="41.3853900" lon="12.9381400"></trkpt>
      <trkpt lat="41.3851600" lon="12.9384400"></trkpt>
      <trkpt lat="41.3848900" lon="12.9388200"></trkpt>
      <trkpt lat="41.3848600" lon="12.9388600"></trkpt>
      <trkpt lat="41.3847600" lon="12.9389900"></trkpt>
      <trkpt lat="41.3846400" lon="12.9391600"></trkpt>
      <trkpt lat="41.3846000" lon="12.9392200"></trkpt>
      <trkpt lat="41.3846400" lon="12.9391600"></trkpt>
      <trkpt lat="41.3847600" lon="12.9389900"></trkpt>
      <trkpt lat="41.3848600" lon="12.9388600"></trkpt>
      <trkpt lat="41.3848900" lon="12.9388200"></trkpt>
      <trkpt lat="41.3851600" lon="12.9384400"></trkpt>
      <trkpt lat="41.3853900" lon="12.9381400"></trkpt>
      <trkpt lat="41.3855200" lon="12.9379700"></trkpt>
      <trkpt lat="41.3856500" lon="12.9378100"></trkpt>
      <trkpt lat="41.3857000" lon="12.9377500"></trkpt>
      <trkpt lat="41.3862200" lon="12.9370300"></trkpt>
      <trkpt lat="41.3862800" lon="12.9369500"></trkpt>
      <trkpt lat="41.3864100" lon="12.9367800"></trkpt>
      <trkpt lat="41.3865500" lon="12.9366000"></trkpt>
      <trkpt lat="41.3866600" lon="12.9364400"></trkpt>
      <trkpt lat="41.3866600" lon="12.9364300"></trkpt>
      <trkpt lat="41.3867300" lon="12.9363300"></trkpt>
      <trkpt lat="41.3867700" lon="12.9362700"></trkpt>
      <trkpt lat="41.3868300" lon="12.9362200"></trkpt>
      <trkpt lat="41.3868500" lon="12.9362100"></trkpt>
      <trkpt lat="41.3868700" lon="12.9362100"></trkpt>
      <trkpt lat="41.3869500" lon="12.9361900"></trkpt>
      <trkpt lat="41.3869700" lon="12.9364700"></trkpt>
      <trkpt lat="41.3870000" lon="12.9367400"></trkpt>
      <trkpt lat="41.3870200" lon="12.9368600"></trkpt>
      <trkpt lat="41.3870300" lon="12.9369000"></trkpt>
      <trkpt lat="41.3870600" lon="12.9369200"></trkpt>
      <trkpt lat="41.3870800" lon="12.9369400"></trkpt>
      <trkpt lat="41.3870900" lon="12.9369400"></trkpt>
      <trkpt lat="41.3871200" lon="12.9369500"></trkpt>
      <trkpt lat="41.3871900" lon="12.9369400"></trkpt>
      <trkpt lat="41.3876400" lon="12.9368900"></trkpt>
      <trkpt lat="41.3877700" lon="12.9372900"></trkpt>
      <trkpt lat="41.3878900" lon="12.9376300"></trkpt>
      <trkpt lat="41.3881000" lon="12.9382600"></trkpt>
      <trkpt lat="41.3881500" lon="12.9384300"></trkpt>
      <trkpt lat="41.3887000" lon="12.9399500"></trkpt>
      <trkpt lat="41.3893400" lon="12.9416400"></trkpt>
      <trkpt lat="41.3897000" lon="12.9426100"></trkpt>
      <trkpt lat="41.3901600" lon="12.9438900"></trkpt>
      <trkpt lat="41.3905400" lon="12.9449200"></trkpt>
      <trkpt lat="41.3909500" lon="12.9460500"></trkpt>
      <trkpt lat="41.3909600" lon="12.9461000"></trkpt>
      <trkpt lat="41.3911200" lon="12.9465200"></trkpt>
      <trkpt lat="41.3911400" lon="12.9465800"></trkpt>
      <trkpt lat="41.3912800" lon="12.9469800"></trkpt>
      <trkpt lat="41.3912900" lon="12.9470100"></trkpt>
      <trkpt lat="41.3913000" lon="12.9470900"></trkpt>
      <trkpt lat="41.3913200" lon="12.9471200"></trkpt>
      <trkpt lat="41.3913500" lon="12.9471900"></trkpt>
      <trkpt lat="41.3913700" lon="12.9472200"></trkpt>
      <trkpt lat="41.3913800" lon="12.9472400"></trkpt>
      <trkpt lat="41.3914300" lon="12.9473000"></trkpt>
      <trkpt lat="41.3914200" lon="12.9473100"></trkpt>
      <trkpt lat="41.3914200" lon="12.9473200"></trkpt>
      <trkpt lat="41.3914200" lon="12.9473300"></trkpt>
      <trkpt lat="41.3914200" lon="12.9473400"></trkpt>
      <trkpt lat="41.3914100" lon="12.9473500"></trkpt>
      <trkpt lat="41.3914100" lon="12.9473600"></trkpt>
      <trkpt lat="41.3914100" lon="12.9473700"></trkpt>
      <trkpt lat="41.3914200" lon="12.9473800"></trkpt>
      <trkpt lat="41.3914200" lon="12.9473900"></trkpt>
      <trkpt lat="41.3914200" lon="12.9474000"></trkpt>
      <trkpt lat="41.3914200" lon="12.9474100"></trkpt>
      <trkpt lat="41.3914300" lon="12.9474200"></trkpt>
      <trkpt lat="41.3914300" lon="12.9474300"></trkpt>
      <trkpt lat="41.3914300" lon="12.9474400"></trkpt>
      <trkpt lat="41.3914400" lon="12.9474500"></trkpt>
      <trkpt lat="41.3914500" lon="12.9474600"></trkpt>
      <trkpt lat="41.3914600" lon="12.9474700"></trkpt>
      <trkpt lat="41.3914700" lon="12.9474800"></trkpt>
      <trkpt lat="41.3914800" lon="12.9474800"></trkpt>
      <trkpt lat="41.3914900" lon="12.9474800"></trkpt>
      <trkpt lat="41.3915000" lon="12.9474900"></trkpt>
      <trkpt lat="41.3915100" lon="12.9474900"></trkpt>
      <trkpt lat="41.3915200" lon="12.9474900"></trkpt>
      <trkpt lat="41.3915200" lon="12.9474800"></trkpt>
      <trkpt lat="41.3915300" lon="12.9474800"></trkpt>
      <trkpt lat="41.3915400" lon="12.9474800"></trkpt>
      <trkpt lat="41.3915500" lon="12.9474700"></trkpt>
      <trkpt lat="41.3915600" lon="12.9474600"></trkpt>
      <trkpt lat="41.3915700" lon="12.9474500"></trkpt>
      <trkpt lat="41.3915800" lon="12.9474400"></trkpt>
      <trkpt lat="41.3915800" lon="12.9474300"></trkpt>
      <trkpt lat="41.3915900" lon="12.9474200"></trkpt>
      <trkpt lat="41.3915900" lon="12.9474100"></trkpt>
      <trkpt lat="41.3915900" lon="12.9474000"></trkpt>
      <trkpt lat="41.3916000" lon="12.9473900"></trkpt>
      <trkpt lat="41.3916000" lon="12.9473800"></trkpt>
      <trkpt lat="41.3916000" lon="12.9473700"></trkpt>
      <trkpt lat="41.3916500" lon="12.9473000"></trkpt>
      <trkpt lat="41.3917300" lon="12.9471700"></trkpt>
      <trkpt lat="41.3917500" lon="12.9471100"></trkpt>
      <trkpt lat="41.3917700" lon="12.9470600"></trkpt>
      <trkpt lat="41.3918200" lon="12.9469800"></trkpt>
      <trkpt lat="41.3919800" lon="12.9466600"></trkpt>
      <trkpt lat="41.3919900" lon="12.9466500"></trkpt>
      <trkpt lat="41.3920700" lon="12.9465000"></trkpt>
      <trkpt lat="41.3926200" lon="12.9454400"></trkpt>
      <trkpt lat="41.3927500" lon="12.9452000"></trkpt>
      <trkpt lat="41.3928400" lon="12.9450200"></trkpt>
      <trkpt lat="41.3934800" lon="12.9438000"></trkpt>
      <trkpt lat="41.3936000" lon="12.9435900"></trkpt>
      <trkpt lat="41.3939800" lon="12.9428800"></trkpt>
      <trkpt lat="41.3940600" lon="12.9427200"></trkpt>
      <trkpt lat="41.3941700" lon="12.9424800"></trkpt>
      <trkpt lat="41.3942300" lon="12.9423700"></trkpt>
      <trkpt lat="41.3946600" lon="12.9415600"></trkpt>
      <trkpt lat="41.3947400" lon="12.9414100"></trkpt>
      <trkpt lat="41.3947700" lon="12.9413600"></trkpt>
      <trkpt lat="41.3947800" lon="12.9413500"></trkpt>
      <trkpt lat="41.3949600" lon="12.9410000"></trkpt>
      <trkpt lat="41.3952000" lon="12.9405600"></trkpt>
      <trkpt lat="41.3952700" lon="12.9404500"></trkpt>
      <trkpt lat="41.3954200" lon="12.9401500"></trkpt>
      <trkpt lat="41.3957600" lon="12.9394600"></trkpt>
      <trkpt lat="41.3959800" lon="12.9390600"></trkpt>
      <trkpt lat="41.3961700" lon="12.9387000"></trkpt>
      <trkpt lat="41.3963900" lon="12.9382900"></trkpt>
      <trkpt lat="41.3964800" lon="12.9381300"></trkpt>
      <trkpt lat="41.3968200" lon="12.9374600"></trkpt>
      <trkpt lat="41.3969100" lon="12.9372900"></trkpt>
      <trkpt lat="41.3971500" lon="12.9368700"></trkpt>
      <trkpt lat="41.3972000" lon="12.9367700"></trkpt>
      <trkpt lat="41.3975000" lon="12.9361900"></trkpt>
      <trkpt lat="41.3975500" lon="12.9361000"></trkpt>
      <trkpt lat="41.3979300" lon="12.9353800"></trkpt>
      <trkpt lat="41.3984300" lon="12.9344300"></trkpt>
      <trkpt lat="41.3988500" lon="12.9336300"></trkpt>
      <trkpt lat="41.3988900" lon="12.9335400"></trkpt>
      <trkpt lat="41.3989500" lon="12.9334400"></trkpt>
      <trkpt lat="41.3991600" lon="12.9330500"></trkpt>
      <trkpt lat="41.3992500" lon="12.9328600"></trkpt>
      <trkpt lat="41.3993400" lon="12.9327000"></trkpt>
      <trkpt lat="41.3994200" lon="12.9325600"></trkpt>
      <trkpt lat="41.3997300" lon="12.9319700"></trkpt>
      <trkpt lat="41.4003100" lon="12.9308700"></trkpt>
      <trkpt lat="41.4005000" lon="12.9305200"></trkpt>
      <trkpt lat="41.4009000" lon="12.9297700"></trkpt>
      <trkpt lat="41.4010600" lon="12.9294600"></trkpt>
      <trkpt lat="41.4012800" lon="12.9290600"></trkpt>
      <trkpt lat="41.4020100" lon="12.9276700"></trkpt>
      <trkpt lat="41.4021200" lon="12.9274700"></trkpt>
      <trkpt lat="41.4026900" lon="12.9263900"></trkpt>
      <trkpt lat="41.4027900" lon="12.9262100"></trkpt>
      <trkpt lat="41.4030400" lon="12.9257300"></trkpt>
      <trkpt lat="41.4032400" lon="12.9253500"></trkpt>
      <trkpt lat="41.4036200" lon="12.9246300"></trkpt>
      <trkpt lat="41.4045500" lon="12.9228700"></trkpt>
      <trkpt lat="41.4048600" lon="12.9222800"></trkpt>
      <trkpt lat="41.4049600" lon="12.9220900"></trkpt>
      <trkpt lat="41.4052700" lon="12.9215000"></trkpt>
      <trkpt lat="41.4053200" lon="12.9214100"></trkpt>
      <trkpt lat="41.4055400" lon="12.9209900"></trkpt>
      <trkpt lat="41.4056300" lon="12.9208200"></trkpt>
      <trkpt lat="41.4059900" lon="12.9201500"></trkpt>
      <trkpt lat="41.4065200" lon="12.9191500"></trkpt>
      <trkpt lat="41.4065400" lon="12.9191000"></trkpt>
      <trkpt lat="41.4065700" lon="12.9190600"></trkpt>
      <trkpt lat="41.4066300" lon="12.9189400"></trkpt>
      <trkpt lat="41.4066900" lon="12.9188100"></trkpt>
      <trkpt lat="41.4067200" lon="12.9187600"></trkpt>
      <trkpt lat="41.4067700" lon="12.9186800"></trkpt>
      <trkpt lat="41.4070200" lon="12.9182000"></trkpt>
      <trkpt lat="41.4072200" lon="12.9178100"></trkpt>
      <trkpt lat="41.4075800" lon="12.9171400"></trkpt>
      <trkpt lat="41.4076500" lon="12.9170000"></trkpt>
      <trkpt lat="41.4076800" lon="12.9169300"></trkpt>
      <trkpt lat="41.4077200" lon="12.9168300"></trkpt>
      <trkpt lat="41.4078900" lon="12.9164500"></trkpt>
      <trkpt lat="41.4081100" lon="12.9159400"></trkpt>
      <trkpt lat="41.4082700" lon="12.9155900"></trkpt>
      <trkpt lat="41.4086300" lon="12.9147600"></trkpt>
      <trkpt lat="41.4087200" lon="12.9145500"></trkpt>
      <trkpt lat="41.4091700" lon="12.9135000"></trkpt>
      <trkpt lat="41.4092000" lon="12.9134400"></trkpt>
      <trkpt lat="41.4098800" lon="12.9118400"></trkpt>
      <trkpt lat="41.4099700" lon="12.9116300"></trkpt>
      <trkpt lat="41.4100500" lon="12.9114300"></trkpt>
      <trkpt lat="41.4109400" lon="12.9093400"></trkpt>
      <trkpt lat="41.4114700" lon="12.9080800"></trkpt>
      <trkpt lat="41.4120200" lon="12.9068200"></trkpt>
      <trkpt lat="41.4121000" lon="12.9066400"></trkpt>
      <trkpt lat="41.4123100" lon="12.9061600"></trkpt>
      <trkpt lat="41.4124000" lon="12.9059500"></trkpt>
      <trkpt lat="41.4128500" lon="12.9049100"></trkpt>
      <trkpt lat="41.4130600" lon="12.9044000"></trkpt>
      <trkpt lat="41.4131400" lon="12.9042100"></trkpt>
      <trkpt lat="41.4135800" lon="12.9031700"></trkpt>
      <trkpt lat="41.4137800" lon="12.9026800"></trkpt>
      <trkpt lat="41.4141000" lon="12.9019100"></trkpt>
      <trkpt lat="41.4141900" lon="12.9017000"></trkpt>
      <trkpt lat="41.4148100" lon="12.9002400"></trkpt>
      <trkpt lat="41.4150700" lon="12.8996100"></trkpt>
      <trkpt lat="41.4152500" lon="12.8991900"></trkpt>
      <trkpt lat="41.4159500" lon="12.8975200"></trkpt>
      <trkpt lat="41.4160100" lon="12.8973000"></trkpt>
      <trkpt lat="41.4160900" lon="12.8969700"></trkpt>
      <trkpt lat="41.4162300" lon="12.8963400"></trkpt>
      <trkpt lat="41.4162700" lon="12.8961500"></trkpt>
      <trkpt lat="41.4164000" lon="12.8955400"></trkpt>
      <trkpt lat="41.4165400" lon="12.8949200"></trkpt>
      <trkpt lat="41.4166700" lon="12.8942900"></trkpt>
      <trkpt lat="41.4167200" lon="12.8940500"></trkpt>
      <trkpt lat="41.4168000" lon="12.8936800"></trkpt>
      <trkpt lat="41.4171100" lon="12.8922900"></trkpt>
      <trkpt lat="41.4172000" lon="12.8918300"></trkpt>
      <trkpt lat="41.4172400" lon="12.8916600"></trkpt>
      <trkpt lat="41.4174800" lon="12.8905200"></trkpt>
      <trkpt lat="41.4177200" lon="12.8894300"></trkpt>
      <trkpt lat="41.4177300" lon="12.8893900"></trkpt>
      <trkpt lat="41.4178600" lon="12.8888000"></trkpt>
      <trkpt lat="41.4180900" lon="12.8877000"></trkpt>
      <trkpt lat="41.4181000" lon="12.8876300"></trkpt>
      <trkpt lat="41.4181700" lon="12.8873600"></trkpt>
      <trkpt lat="41.4182600" lon="12.8869500"></trkpt>
      <trkpt lat="41.4183600" lon="12.8864800"></trkpt>
      <trkpt lat="41.4185100" lon="12.8857900"></trkpt>
      <trkpt lat="41.4185600" lon="12.8855800"></trkpt>
      <trkpt lat="41.4186600" lon="12.8850800"></trkpt>
      <trkpt lat="41.4187500" lon="12.8846800"></trkpt>
      <trkpt lat="41.4188900" lon="12.8840800"></trkpt>
      <trkpt lat="41.4189000" lon="12.8840100"></trkpt>
      <trkpt lat="41.4189300" lon="12.8838400"></trkpt>
      <trkpt lat="41.4190600" lon="12.8832900"></trkpt>
      <trkpt lat="41.4191400" lon="12.8828900"></trkpt>
      <trkpt lat="41.4192600" lon="12.8823200"></trkpt>
      <trkpt lat="41.4193700" lon="12.8817900"></trkpt>
      <trkpt lat="41.4193900" lon="12.8816900"></trkpt>
      <trkpt lat="41.4194000" lon="12.8816300"></trkpt>
      <trkpt lat="41.4195500" lon="12.8810100"></trkpt>
      <trkpt lat="41.4196400" lon="12.8805800"></trkpt>
      <trkpt lat="41.4197800" lon="12.8799500"></trkpt>
      <trkpt lat="41.4198000" lon="12.8798600"></trkpt>
      <trkpt lat="41.4199700" lon="12.8791100"></trkpt>
      <trkpt lat="41.4199800" lon="12.8790500"></trkpt>
      <trkpt lat="41.4200700" lon="12.8786400"></trkpt>
      <trkpt lat="41.4200900" lon="12.8785900"></trkpt>
      <trkpt lat="41.4201100" lon="12.8785500"></trkpt>
      <trkpt lat="41.4201300" lon="12.8784800"></trkpt>
      <trkpt lat="41.4201500" lon="12.8784200"></trkpt>
      <trkpt lat="41.4201700" lon="12.8783400"></trkpt>
      <trkpt lat="41.4201700" lon="12.8783300"></trkpt>
      <trkpt lat="41.4202100" lon="12.8782300"></trkpt>
      <trkpt lat="41.4202200" lon="12.8781600"></trkpt>
      <trkpt lat="41.4202200" lon="12.8781100"></trkpt>
      <trkpt lat="41.4202300" lon="12.8781100"></trkpt>
      <trkpt lat="41.4202300" lon="12.8781000"></trkpt>
      <trkpt lat="41.4202400" lon="12.8781000"></trkpt>
      <trkpt lat="41.4202500" lon="12.8781000"></trkpt>
      <trkpt lat="41.4202500" lon="12.8780900"></trkpt>
      <trkpt lat="41.4202600" lon="12.8780900"></trkpt>
      <trkpt lat="41.4202700" lon="12.8780800"></trkpt>
      <trkpt lat="41.4202800" lon="12.8780700"></trkpt>
      <trkpt lat="41.4202800" lon="12.8780600"></trkpt>
      <trkpt lat="41.4203600" lon="12.8780900"></trkpt>
      <trkpt lat="41.4204300" lon="12.8781200"></trkpt>
      <trkpt lat="41.4205300" lon="12.8781400"></trkpt>
      <trkpt lat="41.4206100" lon="12.8781700"></trkpt>
      <trkpt lat="41.4206800" lon="12.8781700"></trkpt>
      <trkpt lat="41.4212400" lon="12.8784200"></trkpt>
      <trkpt lat="41.4218100" lon="12.8786700"></trkpt>
      <trkpt lat="41.4218900" lon="12.8787100"></trkpt>
      <trkpt lat="41.4220000" lon="12.8787700"></trkpt>
      <trkpt lat="41.4229000" lon="12.8791600"></trkpt>
      <trkpt lat="41.4236600" lon="12.8794400"></trkpt>
      <trkpt lat="41.4236900" lon="12.8794500"></trkpt>
      <trkpt lat="41.4243700" lon="12.8796800"></trkpt>
      <trkpt lat="41.4249200" lon="12.8798600"></trkpt>
      <trkpt lat="41.4250900" lon="12.8799000"></trkpt>
      <trkpt lat="41.4251900" lon="12.8799300"></trkpt>
      <trkpt lat="41.4252600" lon="12.8799500"></trkpt>
      <trkpt lat="41.4254900" lon="12.8800100"></trkpt>
      <trkpt lat="41.4261500" lon="12.8801500"></trkpt>
      <trkpt lat="41.4269000" lon="12.8803100"></trkpt>
      <trkpt lat="41.4269600" lon="12.8803200"></trkpt>
      <trkpt lat="41.4274300" lon="12.8803900"></trkpt>
      <trkpt lat="41.4279000" lon="12.8804500"></trkpt>
      <trkpt lat="41.4285100" lon="12.8805700"></trkpt>
      <trkpt lat="41.4290400" lon="12.8806700"></trkpt>
      <trkpt lat="41.4295100" lon="12.8807500"></trkpt>
      <trkpt lat="41.4295700" lon="12.8807700"></trkpt>
      <trkpt lat="41.4304200" lon="12.8809400"></trkpt>
      <trkpt lat="41.4308500" lon="12.8810200"></trkpt>
      <trkpt lat="41.4311000" lon="12.8810700"></trkpt>
      <trkpt lat="41.4311400" lon="12.8810800"></trkpt>
      <trkpt lat="41.4311900" lon="12.8810900"></trkpt>
      <trkpt lat="41.4316700" lon="12.8811900"></trkpt>
      <trkpt lat="41.4321800" lon="12.8812800"></trkpt>
      <trkpt lat="41.4328600" lon="12.8814100"></trkpt>
      <trkpt lat="41.4333200" lon="12.8815100"></trkpt>
      <trkpt lat="41.4334700" lon="12.8815500"></trkpt>
      <trkpt lat="41.4337300" lon="12.8816200"></trkpt>
      <trkpt lat="41.4339000" lon="12.8816700"></trkpt>
      <trkpt lat="41.4340400" lon="12.8817100"></trkpt>
      <trkpt lat="41.4341900" lon="12.8817600"></trkpt>
      <trkpt lat="41.4346300" lon="12.8819000"></trkpt>
      <trkpt lat="41.4347100" lon="12.8819300"></trkpt>
      <trkpt lat="41.4352500" lon="12.8821300"></trkpt>
      <trkpt lat="41.4354100" lon="12.8821900"></trkpt>
      <trkpt lat="41.4363300" lon="12.8826100"></trkpt>
      <trkpt lat="41.4363700" lon="12.8826300"></trkpt>
      <trkpt lat="41.4366600" lon="12.8827700"></trkpt>
      <trkpt lat="41.4367400" lon="12.8828100"></trkpt>
      <trkpt lat="41.4369700" lon="12.8829400"></trkpt>
      <trkpt lat="41.4370200" lon="12.8829700"></trkpt>
      <trkpt lat="41.4374500" lon="12.8832200"></trkpt>
      <trkpt lat="41.4375100" lon="12.8832500"></trkpt>
      <trkpt lat="41.4375500" lon="12.8832800"></trkpt>
      <trkpt lat="41.4375900" lon="12.8833000"></trkpt>
      <trkpt lat="41.4378600" lon="12.8834600"></trkpt>
      <trkpt lat="41.4381500" lon="12.8836300"></trkpt>
      <trkpt lat="41.4385300" lon="12.8838500"></trkpt>
      <trkpt lat="41.4385700" lon="12.8838800"></trkpt>
      <trkpt lat="41.4389300" lon="12.8840900"></trkpt>
      <trkpt lat="41.4390700" lon="12.8841800"></trkpt>
      <trkpt lat="41.4391000" lon="12.8842000"></trkpt>
      <trkpt lat="41.4392000" lon="12.8843000"></trkpt>
      <trkpt lat="41.4392000" lon="12.8843100"></trkpt>
      <trkpt lat="41.4393400" lon="12.8844500"></trkpt>
      <trkpt lat="41.4393500" lon="12.8844600"></trkpt>
      <trkpt lat="41.4393500" lon="12.8844700"></trkpt>
      <trkpt lat="41.4393500" lon="12.8844800"></trkpt>
      <trkpt lat="41.4393500" lon="12.8844900"></trkpt>
      <trkpt lat="41.4393600" lon="12.8845000"></trkpt>
      <trkpt lat="41.4393600" lon="12.8845100"></trkpt>
      <trkpt lat="41.4393600" lon="12.8845200"></trkpt>
      <trkpt lat="41.4393700" lon="12.8845300"></trkpt>
      <trkpt lat="41.4393800" lon="12.8845400"></trkpt>
      <trkpt lat="41.4393800" lon="12.8845500"></trkpt>
      <trkpt lat="41.4393900" lon="12.8845500"></trkpt>
      <trkpt lat="41.4393900" lon="12.8845600"></trkpt>
      <trkpt lat="41.4394000" lon="12.8845700"></trkpt>
      <trkpt lat="41.4394100" lon="12.8845800"></trkpt>
      <trkpt lat="41.4394200" lon="12.8845800"></trkpt>
      <trkpt lat="41.4394300" lon="12.8845900"></trkpt>
      <trkpt lat="41.4394400" lon="12.8845900"></trkpt>
      <trkpt lat="41.4394500" lon="12.8845900"></trkpt>
      <trkpt lat="41.4394500" lon="12.8846000"></trkpt>
      <trkpt lat="41.4394600" lon="12.8846000"></trkpt>
      <trkpt lat="41.4394700" lon="12.8846000"></trkpt>
      <trkpt lat="41.4394800" lon="12.8846000"></trkpt>
      <trkpt lat="41.4394900" lon="12.8846000"></trkpt>
      <trkpt lat="41.4394900" lon="12.8845900"></trkpt>
      <trkpt lat="41.4395000" lon="12.8845900"></trkpt>
      <trkpt lat="41.4395100" lon="12.8845900"></trkpt>
      <trkpt lat="41.4395200" lon="12.8845800"></trkpt>
      <trkpt lat="41.4395300" lon="12.8845700"></trkpt>
      <trkpt lat="41.4395400" lon="12.8845700"></trkpt>
      <trkpt lat="41.4395400" lon="12.8845600"></trkpt>
      <trkpt lat="41.4395500" lon="12.8845600"></trkpt>
      <trkpt lat="41.4395600" lon="12.8845500"></trkpt>
      <trkpt lat="41.4395600" lon="12.8845400"></trkpt>
      <trkpt lat="41.4395700" lon="12.8845300"></trkpt>
      <trkpt lat="41.4395700" lon="12.8845200"></trkpt>
      <trkpt lat="41.4395800" lon="12.8845100"></trkpt>
      <trkpt lat="41.4395800" lon="12.8845000"></trkpt>
      <trkpt lat="41.4395900" lon="12.8844900"></trkpt>
      <trkpt lat="41.4395900" lon="12.8844800"></trkpt>
      <trkpt lat="41.4395900" lon="12.8844700"></trkpt>
      <trkpt lat="41.4395900" lon="12.8844600"></trkpt>
      <trkpt lat="41.4395900" lon="12.8844500"></trkpt>
      <trkpt lat="41.4395900" lon="12.8844400"></trkpt>
      <trkpt lat="41.4395900" lon="12.8844300"></trkpt>
      <trkpt lat="41.4395900" lon="12.8844200"></trkpt>
      <trkpt lat="41.4395900" lon="12.8844000"></trkpt>
      <trkpt lat="41.4395900" lon="12.8843900"></trkpt>
      <trkpt lat="41.4395900" lon="12.8843800"></trkpt>
      <trkpt lat="41.4395900" lon="12.8843700"></trkpt>
      <trkpt lat="41.4395800" lon="12.8843600"></trkpt>
      <trkpt lat="41.4395800" lon="12.8843500"></trkpt>
      <trkpt lat="41.4395800" lon="12.8843400"></trkpt>
      <trkpt lat="41.4395700" lon="12.8843300"></trkpt>
      <trkpt lat="41.4395800" lon="12.8842400"></trkpt>
      <trkpt lat="41.4395900" lon="12.8841900"></trkpt>
      <trkpt lat="41.4396000" lon="12.8841400"></trkpt>
      <trkpt lat="41.4396400" lon="12.8840100"></trkpt>
      <trkpt lat="41.4397200" lon="12.8837500"></trkpt>
      <trkpt lat="41.4399700" lon="12.8830900"></trkpt>
      <trkpt lat="41.4401000" lon="12.8827500"></trkpt>
      <trkpt lat="41.4401900" lon="12.8825100"></trkpt>
      <trkpt lat="41.4406300" lon="12.8813600"></trkpt>
      <trkpt lat="41.4407100" lon="12.8811600"></trkpt>
      <trkpt lat="41.4407300" lon="12.8810900"></trkpt>
      <trkpt lat="41.4407800" lon="12.8809600"></trkpt>
      <trkpt lat="41.4409500" lon="12.8805400"></trkpt>
      <trkpt lat="41.4411800" lon="12.8799100"></trkpt>
      <trkpt lat="41.4419100" lon="12.8779800"></trkpt>
      <trkpt lat="41.4419300" lon="12.8779300"></trkpt>
      <trkpt lat="41.4421000" lon="12.8775000"></trkpt>
      <trkpt lat="41.4421700" lon="12.8773100"></trkpt>
      <trkpt lat="41.4421800" lon="12.8772900"></trkpt>
      <trkpt lat="41.4423300" lon="12.8769000"></trkpt>
      <trkpt lat="41.4425000" lon="12.8764300"></trkpt>
      <trkpt lat="41.4427800" lon="12.8757100"></trkpt>
      <trkpt lat="41.4431800" lon="12.8746400"></trkpt>
      <trkpt lat="41.4432900" lon="12.8743600"></trkpt>
      <trkpt lat="41.4435400" lon="12.8736800"></trkpt>
      <trkpt lat="41.4437700" lon="12.8730700"></trkpt>
      <trkpt lat="41.4440100" lon="12.8724200"></trkpt>
      <trkpt lat="41.4440300" lon="12.8723900"></trkpt>
      <trkpt lat="41.4441800" lon="12.8720000"></trkpt>
      <trkpt lat="41.4441900" lon="12.8719600"></trkpt>
      <trkpt lat="41.4442600" lon="12.8717800"></trkpt>
      <trkpt lat="41.4443500" lon="12.8715300"></trkpt>
      <trkpt lat="41.4443700" lon="12.8714600"></trkpt>
      <trkpt lat="41.4445800" lon="12.8709000"></trkpt>
      <trkpt lat="41.4445900" lon="12.8708900"></trkpt>
      <trkpt lat="41.4446600" lon="12.8706900"></trkpt>
      <trkpt lat="41.4446700" lon="12.8706700"></trkpt>
      <trkpt lat="41.4450000" lon="12.8698200"></trkpt>
      <trkpt lat="41.4450500" lon="12.8696900"></trkpt>
      <trkpt lat="41.4450800" lon="12.8696000"></trkpt>
      <trkpt lat="41.4452300" lon="12.8691900"></trkpt>
      <trkpt lat="41.4453400" lon="12.8689100"></trkpt>
      <trkpt lat="41.4456900" lon="12.8679800"></trkpt>
      <trkpt lat="41.4459200" lon="12.8673700"></trkpt>
      <trkpt lat="41.4462500" lon="12.8664900"></trkpt>
      <trkpt lat="41.4465200" lon="12.8657700"></trkpt>
      <trkpt lat="41.4465400" lon="12.8657300"></trkpt>
      <trkpt lat="41.4467400" lon="12.8652000"></trkpt>
      <trkpt lat="41.4469400" lon="12.8646800"></trkpt>
      <trkpt lat="41.4471200" lon="12.8642200"></trkpt>
      <trkpt lat="41.4472100" lon="12.8639800"></trkpt>
      <trkpt lat="41.4472800" lon="12.8637800"></trkpt>
      <trkpt lat="41.4474800" lon="12.8632400"></trkpt>
      <trkpt lat="41.4475600" lon="12.8629900"></trkpt>
      <trkpt lat="41.4476400" lon="12.8628000"></trkpt>
      <trkpt lat="41.4476700" lon="12.8627100"></trkpt>
      <trkpt lat="41.4479300" lon="12.8620700"></trkpt>
      <trkpt lat="41.4479500" lon="12.8620000"></trkpt>
      <trkpt lat="41.4482300" lon="12.8613100"></trkpt>
      <trkpt lat="41.4486000" lon="12.8603300"></trkpt>
      <trkpt lat="41.4487400" lon="12.8599500"></trkpt>
      <trkpt lat="41.4489100" lon="12.8594800"></trkpt>
      <trkpt lat="41.4489500" lon="12.8593200"></trkpt>
      <trkpt lat="41.4489900" lon="12.8591600"></trkpt>
      <trkpt lat="41.4490100" lon="12.8590700"></trkpt>
      <trkpt lat="41.4491900" lon="12.8580900"></trkpt>
      <trkpt lat="41.4492400" lon="12.8578000"></trkpt>
      <trkpt lat="41.4493600" lon="12.8571400"></trkpt>
      <trkpt lat="41.4493800" lon="12.8570700"></trkpt>
      <trkpt lat="41.4496400" lon="12.8556300"></trkpt>
      <trkpt lat="41.4497300" lon="12.8551800"></trkpt>
      <trkpt lat="41.4498400" lon="12.8546000"></trkpt>
      <trkpt lat="41.4499000" lon="12.8542700"></trkpt>
      <trkpt lat="41.4501800" lon="12.8527800"></trkpt>
      <trkpt lat="41.4502000" lon="12.8526800"></trkpt>
      <trkpt lat="41.4502700" lon="12.8523000"></trkpt>
      <trkpt lat="41.4503300" lon="12.8519800"></trkpt>
      <trkpt lat="41.4505000" lon="12.8511000"></trkpt>
      <trkpt lat="41.4505900" lon="12.8505800"></trkpt>
      <trkpt lat="41.4506000" lon="12.8504800"></trkpt>
      <trkpt lat="41.4506200" lon="12.8503700"></trkpt>
      <trkpt lat="41.4506800" lon="12.8500700"></trkpt>
      <trkpt lat="41.4507600" lon="12.8496200"></trkpt>
      <trkpt lat="41.4507700" lon="12.8495600"></trkpt>
      <trkpt lat="41.4508200" lon="12.8492700"></trkpt>
      <trkpt lat="41.4510700" lon="12.8480000"></trkpt>
      <trkpt lat="41.4511300" lon="12.8476700"></trkpt>
      <trkpt lat="41.4512100" lon="12.8472300"></trkpt>
      <trkpt lat="41.4512800" lon="12.8468500"></trkpt>
      <trkpt lat="41.4512900" lon="12.8468100"></trkpt>
      <trkpt lat="41.4513700" lon="12.8463800"></trkpt>
      <trkpt lat="41.4514000" lon="12.8462100"></trkpt>
      <trkpt lat="41.4514400" lon="12.8460400"></trkpt>
      <trkpt lat="41.4515000" lon="12.8458200"></trkpt>
      <trkpt lat="41.4515500" lon="12.8456400"></trkpt>
      <trkpt lat="41.4516100" lon="12.8455100"></trkpt>
      <trkpt lat="41.4518100" lon="12.8450500"></trkpt>
      <trkpt lat="41.4521600" lon="12.8443000"></trkpt>
      <trkpt lat="41.4523000" lon="12.8440000"></trkpt>
      <trkpt lat="41.4524000" lon="12.8438000"></trkpt>
      <trkpt lat="41.4530900" lon="12.8422800"></trkpt>
      <trkpt lat="41.4531300" lon="12.8421900"></trkpt>
      <trkpt lat="41.4532300" lon="12.8419700"></trkpt>
      <trkpt lat="41.4535200" lon="12.8413500"></trkpt>
      <trkpt lat="41.4536300" lon="12.8412100"></trkpt>
      <trkpt lat="41.4536400" lon="12.8412100"></trkpt>
      <trkpt lat="41.4536500" lon="12.8412100"></trkpt>
      <trkpt lat="41.4536600" lon="12.8412100"></trkpt>
      <trkpt lat="41.4536700" lon="12.8412000"></trkpt>
      <trkpt lat="41.4536800" lon="12.8412000"></trkpt>
      <trkpt lat="41.4536800" lon="12.8411900"></trkpt>
      <trkpt lat="41.4536900" lon="12.8411900"></trkpt>
      <trkpt lat="41.4537000" lon="12.8411800"></trkpt>
      <trkpt lat="41.4537000" lon="12.8411700"></trkpt>
      <trkpt lat="41.4537100" lon="12.8411700"></trkpt>
      <trkpt lat="41.4537100" lon="12.8411600"></trkpt>
      <trkpt lat="41.4537200" lon="12.8411500"></trkpt>
      <trkpt lat="41.4537200" lon="12.8411400"></trkpt>
      <trkpt lat="41.4537200" lon="12.8411300"></trkpt>
      <trkpt lat="41.4537200" lon="12.8411200"></trkpt>
      <trkpt lat="41.4537300" lon="12.8411200"></trkpt>
      <trkpt lat="41.4537300" lon="12.8411100"></trkpt>
      <trkpt lat="41.4537300" lon="12.8411000"></trkpt>
      <trkpt lat="41.4537300" lon="12.8410900"></trkpt>
      <trkpt lat="41.4537300" lon="12.8410800"></trkpt>
      <trkpt lat="41.4537200" lon="12.8410700"></trkpt>
      <trkpt lat="41.4537200" lon="12.8410600"></trkpt>
      <trkpt lat="41.4537200" lon="12.8410500"></trkpt>
      <trkpt lat="41.4537200" lon="12.8410400"></trkpt>
      <trkpt lat="41.4537100" lon="12.8410400"></trkpt>
      <trkpt lat="41.4537100" lon="12.8410300"></trkpt>
      <trkpt lat="41.4537300" lon="12.8408700"></trkpt>
      <trkpt lat="41.4538300" lon="12.8406400"></trkpt>
      <trkpt lat="41.4539400" lon="12.8403700"></trkpt>
      <trkpt lat="41.4539800" lon="12.8402700"></trkpt>
      <trkpt lat="41.4543100" lon="12.8394500"></trkpt>
      <trkpt lat="41.4544300" lon="12.8391700"></trkpt>
      <trkpt lat="41.4547700" lon="12.8383300"></trkpt>
      <trkpt lat="41.4553000" lon="12.8370400"></trkpt>
      <trkpt lat="41.4553800" lon="12.8368500"></trkpt>
      <trkpt lat="41.4557700" lon="12.8359000"></trkpt>
      <trkpt lat="41.4560100" lon="12.8353000"></trkpt>
      <trkpt lat="41.4561500" lon="12.8349600"></trkpt>
      <trkpt lat="41.4562300" lon="12.8347600"></trkpt>
      <trkpt lat="41.4563300" lon="12.8345300"></trkpt>
      <trkpt lat="41.4566100" lon="12.8338300"></trkpt>
      <trkpt lat="41.4567000" lon="12.8336200"></trkpt>
      <trkpt lat="41.4572400" lon="12.8323100"></trkpt>
      <trkpt lat="41.4572800" lon="12.8322200"></trkpt>
      <trkpt lat="41.4577400" lon="12.8311000"></trkpt>
      <trkpt lat="41.4579500" lon="12.8306000"></trkpt>
      <trkpt lat="41.4580100" lon="12.8304400"></trkpt>
      <trkpt lat="41.4582900" lon="12.8297600"></trkpt>
      <trkpt lat="41.4585000" lon="12.8292500"></trkpt>
      <trkpt lat="41.4588300" lon="12.8284500"></trkpt>
      <trkpt lat="41.4588900" lon="12.8283100"></trkpt>
      <trkpt lat="41.4589700" lon="12.8280900"></trkpt>
      <trkpt lat="41.4592300" lon="12.8274600"></trkpt>
      <trkpt lat="41.4592700" lon="12.8273700"></trkpt>
      <trkpt lat="41.4596100" lon="12.8265300"></trkpt>
      <trkpt lat="41.4597500" lon="12.8261900"></trkpt>
      <trkpt lat="41.4599100" lon="12.8258000"></trkpt>
      <trkpt lat="41.4602300" lon="12.8250100"></trkpt>
      <trkpt lat="41.4607100" lon="12.8238500"></trkpt>
      <trkpt lat="41.4607300" lon="12.8237900"></trkpt>
      <trkpt lat="41.4610000" lon="12.8231300"></trkpt>
      <trkpt lat="41.4610200" lon="12.8230800"></trkpt>
      <trkpt lat="41.4613200" lon="12.8223600"></trkpt>
      <trkpt lat="41.4614900" lon="12.8219400"></trkpt>
      <trkpt lat="41.4616200" lon="12.8216300"></trkpt>
      <trkpt lat="41.4618800" lon="12.8210000"></trkpt>
      <trkpt lat="41.4619700" lon="12.8207900"></trkpt>
      <trkpt lat="41.4623000" lon="12.8199700"></trkpt>
      <trkpt lat="41.4624300" lon="12.8196700"></trkpt>
      <trkpt lat="41.4625000" lon="12.8195000"></trkpt>
      <trkpt lat="41.4626500" lon="12.8191500"></trkpt>
      <trkpt lat="41.4627700" lon="12.8188400"></trkpt>
      <trkpt lat="41.4633100" lon="12.8175300"></trkpt>
      <trkpt lat="41.4634600" lon="12.8171900"></trkpt>
      <trkpt lat="41.4636300" lon="12.8168000"></trkpt>
      <trkpt lat="41.4636600" lon="12.8167200"></trkpt>
      <trkpt lat="41.4637200" lon="12.8165900"></trkpt>
      <trkpt lat="41.4637700" lon="12.8164700"></trkpt>
      <trkpt lat="41.4636900" lon="12.8161400"></trkpt>
      <trkpt lat="41.4636100" lon="12.8157500"></trkpt>
      <trkpt lat="41.4635700" lon="12.8155700"></trkpt>
      <trkpt lat="41.4635700" lon="12.8155600"></trkpt>
      <trkpt lat="41.4634200" lon="12.8147400"></trkpt>
      <trkpt lat="41.4633600" lon="12.8143300"></trkpt>
      <trkpt lat="41.4633200" lon="12.8140600"></trkpt>
      <trkpt lat="41.4632400" lon="12.8129100"></trkpt>
      <trkpt lat="41.4632000" lon="12.8124200"></trkpt>
      <trkpt lat="41.4631900" lon="12.8122000"></trkpt>
      <trkpt lat="41.4631300" lon="12.8116400"></trkpt>
      <trkpt lat="41.4630700" lon="12.8107900"></trkpt>
      <trkpt lat="41.4630400" lon="12.8105800"></trkpt>
      <trkpt lat="41.4630000" lon="12.8101700"></trkpt>
      <trkpt lat="41.4629800" lon="12.8100400"></trkpt>
      <trkpt lat="41.4629600" lon="12.8098100"></trkpt>
      <trkpt lat="41.4629500" lon="12.8097400"></trkpt>
      <trkpt lat="41.4629500" lon="12.8097100"></trkpt>
      <trkpt lat="41.4629200" lon="12.8093900"></trkpt>
      <trkpt lat="41.4629100" lon="12.8092500"></trkpt>
      <trkpt lat="41.4628700" lon="12.8086800"></trkpt>
      <trkpt lat="41.4628500" lon="12.8084300"></trkpt>
      <trkpt lat="41.4628600" lon="12.8083300"></trkpt>
      <trkpt lat="41.4628600" lon="12.8081000"></trkpt>
      <trkpt lat="41.4628700" lon="12.8080900"></trkpt>
      <trkpt lat="41.4628700" lon="12.8080800"></trkpt>
      <trkpt lat="41.4628800" lon="12.8080800"></trkpt>
      <trkpt lat="41.4628800" lon="12.8080700"></trkpt>
      <trkpt lat="41.4628900" lon="12.8080600"></trkpt>
      <trkpt lat="41.4630400" lon="12.8080700"></trkpt>
      <trkpt lat="41.4631100" lon="12.8080500"></trkpt>
      <trkpt lat="41.4636500" lon="12.8081600"></trkpt>
      <trkpt lat="41.4637900" lon="12.8081900"></trkpt>
      <trkpt lat="41.4638700" lon="12.8082100"></trkpt>
      <trkpt lat="41.4639900" lon="12.8082400"></trkpt>
      <trkpt lat="41.4641700" lon="12.8082700"></trkpt>
      <trkpt lat="41.4643400" lon="12.8083100"></trkpt>
      <trkpt lat="41.4644100" lon="12.8083300"></trkpt>
      <trkpt lat="41.4645900" lon="12.8083600"></trkpt>
      <trkpt lat="41.4647700" lon="12.8084000"></trkpt>
      <trkpt lat="41.4648300" lon="12.8084100"></trkpt>
      <trkpt lat="41.4650000" lon="12.8084500"></trkpt>
      <trkpt lat="41.4651800" lon="12.8084900"></trkpt>
      <trkpt lat="41.4652000" lon="12.8084900"></trkpt>
      <trkpt lat="41.4653600" lon="12.8085300"></trkpt>
      <trkpt lat="41.4655100" lon="12.8085700"></trkpt>
      <trkpt lat="41.4658100" lon="12.8086300"></trkpt>
      <trkpt lat="41.4664100" lon="12.8087600"></trkpt>
      <trkpt lat="41.4673000" lon="12.8089500"></trkpt>
      <trkpt lat="41.4675000" lon="12.8089900"></trkpt>
      <trkpt lat="41.4676400" lon="12.8090200"></trkpt>
      <trkpt lat="41.4685400" lon="12.8092100"></trkpt>
      <trkpt lat="41.4693600" lon="12.8093800"></trkpt>
      <trkpt lat="41.4697900" lon="12.8094700"></trkpt>
      <trkpt lat="41.4700100" lon="12.8095100"></trkpt>
      <trkpt lat="41.4705000" lon="12.8096100"></trkpt>
      <trkpt lat="41.4711600" lon="12.8097500"></trkpt>
      <trkpt lat="41.4713400" lon="12.8097900"></trkpt>
      <trkpt lat="41.4715200" lon="12.8098300"></trkpt>
      <trkpt lat="41.4722300" lon="12.8099800"></trkpt>
      <trkpt lat="41.4727500" lon="12.8100900"></trkpt>
      <trkpt lat="41.4732100" lon="12.8101800"></trkpt>
      <trkpt lat="41.4734300" lon="12.8102300"></trkpt>
      <trkpt lat="41.4738800" lon="12.8103300"></trkpt>
      <trkpt lat="41.4742200" lon="12.8104000"></trkpt>
      <trkpt lat="41.4745000" lon="12.8104600"></trkpt>
      <trkpt lat="41.4755500" lon="12.8106900"></trkpt>
      <trkpt lat="41.4756200" lon="12.8107100"></trkpt>
      <trkpt lat="41.4758100" lon="12.8107400"></trkpt>
      <trkpt lat="41.4762600" lon="12.8108400"></trkpt>
      <trkpt lat="41.4771200" lon="12.8110300"></trkpt>
      <trkpt lat="41.4779600" lon="12.8112100"></trkpt>
      <trkpt lat="41.4782100" lon="12.8090500"></trkpt>
      <trkpt lat="41.4784700" lon="12.8067800"></trkpt>
      <trkpt lat="41.4785500" lon="12.8060700"></trkpt>
      <trkpt lat="41.4786300" lon="12.8054000"></trkpt>
      <trkpt lat="41.4787300" lon="12.8044500"></trkpt>
      <trkpt lat="41.4787700" lon="12.8040200"></trkpt>
      <trkpt lat="41.4787800" lon="12.8039900"></trkpt>
      <trkpt lat="41.4788500" lon="12.8034200"></trkpt>
      <trkpt lat="41.4789500" lon="12.8026800"></trkpt>
      <trkpt lat="41.4789600" lon="12.8025500"></trkpt>
      <trkpt lat="41.4790000" lon="12.8022600"></trkpt>
      <trkpt lat="41.4790200" lon="12.8020400"></trkpt>
      <trkpt lat="41.4790800" lon="12.8015900"></trkpt>
      <trkpt lat="41.4792000" lon="12.8005300"></trkpt>
      <trkpt lat="41.4792300" lon="12.8002900"></trkpt>
      <trkpt lat="41.4795300" lon="12.7997700"></trkpt>
      <trkpt lat="41.4796100" lon="12.7996300"></trkpt>
      <trkpt lat="41.4799600" lon="12.7990300"></trkpt>
      <trkpt lat="41.4800500" lon="12.7988700"></trkpt>
      <trkpt lat="41.4801600" lon="12.7986800"></trkpt>
      <trkpt lat="41.4802500" lon="12.7985300"></trkpt>
      <trkpt lat="41.4803100" lon="12.7984300"></trkpt>
      <trkpt lat="41.4804000" lon="12.7982600"></trkpt>
      <trkpt lat="41.4808600" lon="12.7974200"></trkpt>
      <trkpt lat="41.4809200" lon="12.7973300"></trkpt>
      <trkpt lat="41.4810500" lon="12.7971000"></trkpt>
      <trkpt lat="41.4815700" lon="12.7961700"></trkpt>
      <trkpt lat="41.4817000" lon="12.7959400"></trkpt>
      <trkpt lat="41.4819000" lon="12.7956000"></trkpt>
      <trkpt lat="41.4819300" lon="12.7955400"></trkpt>
      <trkpt lat="41.4821800" lon="12.7951100"></trkpt>
      <trkpt lat="41.4822800" lon="12.7949400"></trkpt>
      <trkpt lat="41.4825000" lon="12.7945700"></trkpt>
      <trkpt lat="41.4830400" lon="12.7936000"></trkpt>
      <trkpt lat="41.4830500" lon="12.7935900"></trkpt>
      <trkpt lat="41.4831400" lon="12.7934300"></trkpt>
      <trkpt lat="41.4832300" lon="12.7932700"></trkpt>
      <trkpt lat="41.4833000" lon="12.7932100"></trkpt>
      <trkpt lat="41.4833500" lon="12.7931600"></trkpt>
      <trkpt lat="41.4833800" lon="12.7931200"></trkpt>
      <trkpt lat="41.4834100" lon="12.7930600"></trkpt>
      <trkpt lat="41.4834200" lon="12.7930500"></trkpt>
      <trkpt lat="41.4834300" lon="12.7930400"></trkpt>
      <trkpt lat="41.4834400" lon="12.7930400"></trkpt>
      <trkpt lat="41.4834400" lon="12.7930300"></trkpt>
      <trkpt lat="41.4835300" lon="12.7930500"></trkpt>
      <trkpt lat="41.4835800" lon="12.7930500"></trkpt>
      <trkpt lat="41.4836500" lon="12.7930500"></trkpt>
      <trkpt lat="41.4837300" lon="12.7930400"></trkpt>
      <trkpt lat="41.4838300" lon="12.7930800"></trkpt>
    </trkseg>
  </trk>
</gpx>
