<?xml version="1.0" encoding="UTF-8"?>
<gpx creator="fabulator:gpx-builder" version="1.1" xmlns="http://www.topografix.com/GPX/1/1" xmlns:xsi="http://www.w3.org/2001/XMLSchema-instance" xsi:schemaLocation="http://www.topografix.com/GPX/1/1 https://www.topografix.com/GPX/1/1/gpx.xsd">
  <metadata>
    <link href="https://gmapstogpx.com">
      <text>GMapsToGPX</text>
    </link>
    <time>2026-07-23T12:19:33.922Z</time>
  </metadata>
  <trk>
    <trkseg>
      <trkpt lat="41.48383" lon="12.79308"></trkpt>
      <trkpt lat="41.49572" lon="12.79797"></trkpt>
      <trkpt lat="41.50622" lon="12.79764"></trkpt>
      <trkpt lat="41.50847" lon="12.79797"></trkpt>
      <trkpt lat="41.5098" lon="12.79903"></trkpt>
      <trkpt lat="41.51092" lon="12.79394"></trkpt>
      <trkpt lat="41.51746" lon="12.78001"></trkpt>
      <trkpt lat="41.5178" lon="12.78317"></trkpt>
      <trkpt lat="41.5179" lon="12.78319"></trkpt>
      <trkpt lat="41.53027" lon="12.77913"></trkpt>
      <trkpt lat="41.54359" lon="12.77489"></trkpt>
      <trkpt lat="41.55189" lon="12.77223"></trkpt>
      <trkpt lat="41.55588" lon="12.7701"></trkpt>
      <trkpt lat="41.55951" lon="12.77459"></trkpt>
      <trkpt lat="41.5631" lon="12.77669"></trkpt>
      <trkpt lat="41.57428" lon="12.77694"></trkpt>
      <trkpt lat="41.5863" lon="12.78021"></trkpt>
      <trkpt lat="41.59241" lon="12.7819"></trkpt>
      <trkpt lat="41.59383" lon="12.78229"></trkpt>
      <trkpt lat="41.59471" lon="12.78252"></trkpt>
      <trkpt lat="41.5952" lon="12.77987"></trkpt>
      <trkpt lat="41.5953" lon="12.77917"></trkpt>
      <trkpt lat="41.59547" lon="12.77815"></trkpt>
      <trkpt lat="41.59613" lon="12.77684"></trkpt>
      <trkpt lat="41.59786" lon="12.77426"></trkpt>
      <trkpt lat="41.59955" lon="12.77184"></trkpt>
      <trkpt lat="41.60482" lon="12.76592"></trkpt>
      <trkpt lat="41.60655" lon="12.75944"></trkpt>
      <trkpt lat="41.60763" lon="12.76033"></trkpt>
      <trkpt lat="41.60949" lon="12.76305"></trkpt>
      <trkpt lat="41.61653" lon="12.76226"></trkpt>
      <trkpt lat="41.62604" lon="12.76392"></trkpt>
      <trkpt lat="41.63218" lon="12.76545"></trkpt>
      <trkpt lat="41.63872" lon="12.76693"></trkpt>
      <trkpt lat="41.64246" lon="12.7686"></trkpt>
      <trkpt lat="41.64665" lon="12.76819"></trkpt>
      <trkpt lat="41.65429" lon="12.76831"></trkpt>
      <trkpt lat="41.6606" lon="12.7713"></trkpt>
      <trkpt lat="41.66453" lon="12.77244"></trkpt>
      <trkpt lat="41.66678" lon="12.77397"></trkpt>
      <trkpt lat="41.66882" lon="12.77415"></trkpt>
      <trkpt lat="41.67008" lon="12.77488"></trkpt>
      <trkpt lat="41.66999" lon="12.77628"></trkpt>
      <trkpt lat="41.67001" lon="12.77654"></trkpt>
      <trkpt lat="41.67017" lon="12.77656"></trkpt>
      <trkpt lat="41.67093" lon="12.77683"></trkpt>
      <trkpt lat="41.67149" lon="12.77917"></trkpt>
      <trkpt lat="41.67484" lon="12.7809"></trkpt>
      <trkpt lat="41.67803" lon="12.78327"></trkpt>
      <trkpt lat="41.67909" lon="12.78307"></trkpt>
      <trkpt lat="41.67985" lon="12.78095"></trkpt>
      <trkpt lat="41.68039" lon="12.77844"></trkpt>
      <trkpt lat="41.68254" lon="12.77771"></trkpt>
      <trkpt lat="41.68349" lon="12.77834"></trkpt>
      <trkpt lat="41.68361" lon="12.77835"></trkpt>
      <trkpt lat="41.68364" lon="12.77818"></trkpt>
      <trkpt lat="41.68351" lon="12.77814"></trkpt>
      <trkpt lat="41.6837" lon="12.78048"></trkpt>
      <trkpt lat="41.68271" lon="12.78024"></trkpt>
      <trkpt lat="41.68264" lon="12.7803"></trkpt>
      <trkpt lat="41.68265" lon="12.78041"></trkpt>
      <trkpt lat="41.68418" lon="12.78095"></trkpt>
      <trkpt lat="41.68434" lon="12.78157"></trkpt>
      <trkpt lat="41.68697" lon="12.78399"></trkpt>
      <trkpt lat="41.68748" lon="12.78632"></trkpt>
      <trkpt lat="41.6904" lon="12.79407"></trkpt>
      <trkpt lat="41.69252" lon="12.79331"></trkpt>
      <trkpt lat="41.69304" lon="12.79694"></trkpt>
      <trkpt lat="41.695" lon="12.80303"></trkpt>
      <trkpt lat="41.69565" lon="12.80723"></trkpt>
      <trkpt lat="41.69482" lon="12.8085"></trkpt>
      <trkpt lat="41.69494" lon="12.81195"></trkpt>
      <trkpt lat="41.69509" lon="12.81942"></trkpt>
      <trkpt lat="41.6969" lon="12.8256"></trkpt>
      <trkpt lat="41.70352" lon="12.83692"></trkpt>
      <trkpt lat="41.70298" lon="12.83901"></trkpt>
      <trkpt lat="41.70187" lon="12.83979"></trkpt>
      <trkpt lat="41.69937" lon="12.84312"></trkpt>
      <trkpt lat="41.69781" lon="12.84446"></trkpt>
      <trkpt lat="41.69843" lon="12.84623"></trkpt>
      <trkpt lat="41.70107" lon="12.8495"></trkpt>
      <trkpt lat="41.70159" lon="12.85314"></trkpt>
      <trkpt lat="41.69808" lon="12.85781"></trkpt>
      <trkpt lat="41.68931" lon="12.86933"></trkpt>
      <trkpt lat="41.68634" lon="12.8752"></trkpt>
      <trkpt lat="41.68598" lon="12.87557"></trkpt>
      <trkpt lat="41.68177" lon="12.87615"></trkpt>
      <trkpt lat="41.67929" lon="12.87617"></trkpt>
      <trkpt lat="41.67855" lon="12.87578"></trkpt>
      <trkpt lat="41.67746" lon="12.87615"></trkpt>
      <trkpt lat="41.67717" lon="12.87659"></trkpt>
      <trkpt lat="41.67649" lon="12.87748"></trkpt>
      <trkpt lat="41.67525" lon="12.87837"></trkpt>
      <trkpt lat="41.67177" lon="12.88002"></trkpt>
      <trkpt lat="41.66788" lon="12.88254"></trkpt>
      <trkpt lat="41.66661" lon="12.8835"></trkpt>
      <trkpt lat="41.66584" lon="12.88526"></trkpt>
      <trkpt lat="41.66279" lon="12.88886"></trkpt>
      <trkpt lat="41.66268" lon="12.89137"></trkpt>
      <trkpt lat="41.66418" lon="12.8964"></trkpt>
      <trkpt lat="41.66141" lon="12.8975"></trkpt>
      <trkpt lat="41.66038" lon="12.89911"></trkpt>
      <trkpt lat="41.6595" lon="12.89938"></trkpt>
      <trkpt lat="41.65864" lon="12.89805"></trkpt>
      <trkpt lat="41.65747" lon="12.89831"></trkpt>
      <trkpt lat="41.65491" lon="12.90098"></trkpt>
      <trkpt lat="41.65416" lon="12.9028"></trkpt>
      <trkpt lat="41.65301" lon="12.90293"></trkpt>
      <trkpt lat="41.65257" lon="12.90586"></trkpt>
      <trkpt lat="41.65175" lon="12.90953"></trkpt>
      <trkpt lat="41.64934" lon="12.91115"></trkpt>
      <trkpt lat="41.64872" lon="12.91276"></trkpt>
      <trkpt lat="41.6487" lon="12.9137"></trkpt>
      <trkpt lat="41.64765" lon="12.91441"></trkpt>
      <trkpt lat="41.64631" lon="12.91623"></trkpt>
      <trkpt lat="41.64458" lon="12.91772"></trkpt>
      <trkpt lat="41.64394" lon="12.91947"></trkpt>
      <trkpt lat="41.64343" lon="12.91879"></trkpt>
      <trkpt lat="41.64292" lon="12.91934"></trkpt>
      <trkpt lat="41.64135" lon="12.91774"></trkpt>
      <trkpt lat="41.64028" lon="12.91539"></trkpt>
      <trkpt lat="41.63971" lon="12.91425"></trkpt>
      <trkpt lat="41.63989" lon="12.91148"></trkpt>
      <trkpt lat="41.63723" lon="12.9063"></trkpt>
      <trkpt lat="41.63633" lon="12.90387"></trkpt>
      <trkpt lat="41.63538" lon="12.90359"></trkpt>
      <trkpt lat="41.63354" lon="12.90101"></trkpt>
      <trkpt lat="41.63063" lon="12.89874"></trkpt>
      <trkpt lat="41.6273" lon="12.89764"></trkpt>
      <trkpt lat="41.62558" lon="12.89745"></trkpt>
      <trkpt lat="41.62316" lon="12.89867"></trkpt>
      <trkpt lat="41.61649" lon="12.90175"></trkpt>
      <trkpt lat="41.61446" lon="12.9017"></trkpt>
      <trkpt lat="41.61112" lon="12.90358"></trkpt>
      <trkpt lat="41.60504" lon="12.90906"></trkpt>
      <trkpt lat="41.59742" lon="12.91771"></trkpt>
      <trkpt lat="41.59589" lon="12.91946"></trkpt>
      <trkpt lat="41.59226" lon="12.92004"></trkpt>
      <trkpt lat="41.59118" lon="12.92154"></trkpt>
      <trkpt lat="41.59063" lon="12.92784"></trkpt>
      <trkpt lat="41.58813" lon="12.92979"></trkpt>
      <trkpt lat="41.58197" lon="12.93415"></trkpt>
      <trkpt lat="41.5814" lon="12.93696"></trkpt>
      <trkpt lat="41.58235" lon="12.94067"></trkpt>
      <trkpt lat="41.5827" lon="12.94413"></trkpt>
      <trkpt lat="41.58156" lon="12.94485"></trkpt>
      <trkpt lat="41.58063" lon="12.94525"></trkpt>
      <trkpt lat="41.58228" lon="12.94926"></trkpt>
      <trkpt lat="41.58328" lon="12.95099"></trkpt>
      <trkpt lat="41.58314" lon="12.95295"></trkpt>
      <trkpt lat="41.58358" lon="12.9548"></trkpt>
      <trkpt lat="41.5829" lon="12.95702"></trkpt>
      <trkpt lat="41.58197" lon="12.95801"></trkpt>
      <trkpt lat="41.57995" lon="12.96442"></trkpt>
      <trkpt lat="41.57773" lon="12.9705"></trkpt>
      <trkpt lat="41.5743" lon="12.97467"></trkpt>
      <trkpt lat="41.5718" lon="12.97571"></trkpt>
      <trkpt lat="41.57058" lon="12.97538"></trkpt>
      <trkpt lat="41.56973" lon="12.97615"></trkpt>
      <trkpt lat="41.56996" lon="12.9776"></trkpt>
      <trkpt lat="41.56912" lon="12.97877"></trkpt>
      <trkpt lat="41.56864" lon="12.98007"></trkpt>
      <trkpt lat="41.56827" lon="12.98116"></trkpt>
      <trkpt lat="41.56885" lon="12.98018"></trkpt>
      <trkpt lat="41.56863" lon="12.98013"></trkpt>
      <trkpt lat="41.56593" lon="12.9807"></trkpt>
      <trkpt lat="41.56126" lon="12.98102"></trkpt>
      <trkpt lat="41.55577" lon="12.98433"></trkpt>
      <trkpt lat="41.55442" lon="12.98501"></trkpt>
      <trkpt lat="41.55357" lon="12.98721"></trkpt>
      <trkpt lat="41.55297" lon="12.98755"></trkpt>
      <trkpt lat="41.5525" lon="12.98837"></trkpt>
      <trkpt lat="41.55002" lon="12.99171"></trkpt>
      <trkpt lat="41.54919" lon="12.99186"></trkpt>
      <trkpt lat="41.54859" lon="12.99067"></trkpt>
      <trkpt lat="41.54862" lon="12.98823"></trkpt>
      <trkpt lat="41.54794" lon="12.98798"></trkpt>
      <trkpt lat="41.54872" lon="12.98698"></trkpt>
      <trkpt lat="41.54908" lon="12.98572"></trkpt>
      <trkpt lat="41.54805" lon="12.98792"></trkpt>
      <trkpt lat="41.54871" lon="12.98925"></trkpt>
      <trkpt lat="41.54906" lon="12.99181"></trkpt>
      <trkpt lat="41.54993" lon="12.99178"></trkpt>
      <trkpt lat="41.55111" lon="12.98962"></trkpt>
      <trkpt lat="41.55164" lon="12.98868"></trkpt>
      <trkpt lat="41.55259" lon="12.98777"></trkpt>
      <trkpt lat="41.55333" lon="12.98797"></trkpt>
      <trkpt lat="41.55384" lon="12.98594"></trkpt>
      <trkpt lat="41.55405" lon="12.98255"></trkpt>
      <trkpt lat="41.55304" lon="12.9795"></trkpt>
      <trkpt lat="41.55098" lon="12.97737"></trkpt>
      <trkpt lat="41.54883" lon="12.9773"></trkpt>
      <trkpt lat="41.54353" lon="12.97597"></trkpt>
      <trkpt lat="41.53652" lon="12.97567"></trkpt>
      <trkpt lat="41.53192" lon="12.97335"></trkpt>
      <trkpt lat="41.52928" lon="12.9708"></trkpt>
      <trkpt lat="41.52547" lon="12.96658"></trkpt>
      <trkpt lat="41.52492" lon="12.96635"></trkpt>
      <trkpt lat="41.5221" lon="12.96981"></trkpt>
      <trkpt lat="41.51764" lon="12.97535"></trkpt>
      <trkpt lat="41.51589" lon="12.97755"></trkpt>
      <trkpt lat="41.5131" lon="12.97954"></trkpt>
      <trkpt lat="41.50665" lon="12.98188"></trkpt>
      <trkpt lat="41.50496" lon="12.98314"></trkpt>
      <trkpt lat="41.49854" lon="12.98886"></trkpt>
      <trkpt lat="41.49692" lon="12.99156"></trkpt>
      <trkpt lat="41.4976" lon="12.99639"></trkpt>
      <trkpt lat="41.49817" lon="13.00309"></trkpt>
      <trkpt lat="41.49527" lon="13.01919"></trkpt>
      <trkpt lat="41.49266" lon="13.03326"></trkpt>
      <trkpt lat="41.49131" lon="13.0363"></trkpt>
      <trkpt lat="41.4899" lon="13.04188"></trkpt>
      <trkpt lat="41.48825" lon="13.04957"></trkpt>
      <trkpt lat="41.48858" lon="13.05577"></trkpt>
      <trkpt lat="41.48441" lon="13.06797"></trkpt>
      <trkpt lat="41.47914" lon="13.09188"></trkpt>
      <trkpt lat="41.47129" lon="13.10673"></trkpt>
      <trkpt lat="41.47019" lon="13.10586"></trkpt>
      <trkpt lat="41.46914" lon="13.1049"></trkpt>
      <trkpt lat="41.46833" lon="13.10527"></trkpt>
      <trkpt lat="41.46679" lon="13.10782"></trkpt>
      <trkpt lat="41.46505" lon="13.11148"></trkpt>
      <trkpt lat="41.46312" lon="13.11635"></trkpt>
      <trkpt lat="41.45899" lon="13.12148"></trkpt>
      <trkpt lat="41.45561" lon="13.12555"></trkpt>
      <trkpt lat="41.45177" lon="13.12831"></trkpt>
      <trkpt lat="41.4495" lon="13.13323"></trkpt>
      <trkpt lat="41.44876" lon="13.13578"></trkpt>
      <trkpt lat="41.44686" lon="13.13833"></trkpt>
      <trkpt lat="41.44484" lon="13.14321"></trkpt>
      <trkpt lat="41.44064" lon="13.14265"></trkpt>
      <trkpt lat="41.43016" lon="13.14215"></trkpt>
      <trkpt lat="41.42399" lon="13.1465"></trkpt>
      <trkpt lat="41.42398" lon="13.15513"></trkpt>
      <trkpt lat="41.42317" lon="13.15634"></trkpt>
      <trkpt lat="41.42127" lon="13.15887"></trkpt>
      <trkpt lat="41.42004" lon="13.16063"></trkpt>
      <trkpt lat="41.42073" lon="13.16141"></trkpt>
      <trkpt lat="41.42235" lon="13.16326"></trkpt>
      <trkpt lat="41.42265" lon="13.16391"></trkpt>
      <trkpt lat="41.42266" lon="13.16828"></trkpt>
      <trkpt lat="41.42258" lon="13.17742"></trkpt>
      <trkpt lat="41.42225" lon="13.17996"></trkpt>
      <trkpt lat="41.42239" lon="13.18047"></trkpt>
      <trkpt lat="41.42735" lon="13.18579"></trkpt>
      <trkpt lat="41.43048" lon="13.18809"></trkpt>
      <trkpt lat="41.43256" lon="13.18871"></trkpt>
      <trkpt lat="41.43779" lon="13.19307"></trkpt>
      <trkpt lat="41.43978" lon="13.19612"></trkpt>
      <trkpt lat="41.43961" lon="13.1965"></trkpt>
      <trkpt lat="41.43853" lon="13.19689"></trkpt>
      <trkpt lat="41.43791" lon="13.19576"></trkpt>
      <trkpt lat="41.43772" lon="13.19598"></trkpt>
      <trkpt lat="41.43832" lon="13.19687"></trkpt>
      <trkpt lat="41.43955" lon="13.19615"></trkpt>
      <trkpt lat="41.43978" lon="13.1969"></trkpt>
      <trkpt lat="41.43918" lon="13.19426"></trkpt>
      <trkpt lat="41.43344" lon="13.18936"></trkpt>
      <trkpt lat="41.42876" lon="13.18711"></trkpt>
      <trkpt lat="41.42273" lon="13.18099"></trkpt>
      <trkpt lat="41.42262" lon="13.17265"></trkpt>
      <trkpt lat="41.42244" lon="13.16341"></trkpt>
      <trkpt lat="41.42104" lon="13.16176"></trkpt>
      <trkpt lat="41.42043" lon="13.16003"></trkpt>
      <trkpt lat="41.42385" lon="13.15545"></trkpt>
      <trkpt lat="41.42398" lon="13.15007"></trkpt>
      <trkpt lat="41.42378" lon="13.14669"></trkpt>
      <trkpt lat="41.41103" lon="13.12869"></trkpt>
      <trkpt lat="41.38711" lon="13.09599"></trkpt>
      <trkpt lat="41.37182" lon="13.07502"></trkpt>
      <trkpt lat="41.37173" lon="13.07491"></trkpt>
      <trkpt lat="41.36381" lon="13.06414"></trkpt>
      <trkpt lat="41.35902" lon="13.05753"></trkpt>
      <trkpt lat="41.36163" lon="13.05319"></trkpt>
      <trkpt lat="41.37355" lon="13.03539"></trkpt>
      <trkpt lat="41.3768" lon="13.03088"></trkpt>
      <trkpt lat="41.39072" lon="13.00985"></trkpt>
      <trkpt lat="41.40546" lon="12.98786"></trkpt>
      <trkpt lat="41.42016" lon="12.96506"></trkpt>
      <trkpt lat="41.43014" lon="12.94863"></trkpt>
      <trkpt lat="41.44239" lon="12.90392"></trkpt>
      <trkpt lat="41.44825" lon="12.88686"></trkpt>
      <trkpt lat="41.45135" lon="12.88182"></trkpt>
      <trkpt lat="41.45673" lon="12.87776"></trkpt>
      <trkpt lat="41.4624" lon="12.87477"></trkpt>
      <trkpt lat="41.46654" lon="12.8714"></trkpt>
      <trkpt lat="41.47512" lon="12.8663"></trkpt>
      <trkpt lat="41.47965" lon="12.86346"></trkpt>
      <trkpt lat="41.4851" lon="12.85746"></trkpt>
      <trkpt lat="41.4871" lon="12.85031"></trkpt>
      <trkpt lat="41.4953" lon="12.82714"></trkpt>
      <trkpt lat="41.50728" lon="12.80171"></trkpt>
      <trkpt lat="41.50967" lon="12.79731"></trkpt>
      <trkpt lat="41.51009" lon="12.79847"></trkpt>
      <trkpt lat="41.5089" lon="12.79826"></trkpt>
      <trkpt lat="41.50359" lon="12.79776"></trkpt>
      <trkpt lat="41.49658" lon="12.79799"></trkpt>
      <trkpt lat="41.49215" lon="12.7965"></trkpt>
      <trkpt lat="41.48383" lon="12.79308"></trkpt>
    </trkseg>
  </trk>
  <wpt lat="41.48383" lon="12.79308">
    <name>41.4838271,12.793091</name>
    <desc>Str. dello Scopeto, 14, 04100 Borgo Bainsizza LT, Italy</desc>
  </wpt>
  <wpt lat="41.68353" lon="12.77837">
    <name>41.6835242,12.7783715</name>
    <desc>Via Orti Ginnetti, 2, 00049 Velletri RM, Italy</desc>
  </wpt>
  <wpt lat="41.64439" lon="12.91791">
    <name>41.64438,12.9179256</name>
    <desc>Via Madonna del Soccorso, 18, 04010 Cori LT, Italy</desc>
  </wpt>
  <wpt lat="41.58305" lon="12.95293">
    <name>41.5830732,12.9527395</name>
    <desc>Giardino di Ninfa, Via Ninfina, 68, 04012 Cisterna di Latina LT, Italy</desc>
  </wpt>
  <wpt lat="41.56826" lon="12.98124">
    <name>41.5681078,12.9812082</name>
    <desc>Via Abbadia, 14, 04013 Sermoneta LT, Italy</desc>
  </wpt>
  <wpt lat="41.54911" lon="12.98543">
    <name>41.5491126,12.9854271</name>
    <desc>Piazza del Comune, 22, 04013 Sermoneta LT, Italy</desc>
  </wpt>
  <wpt lat="41.43826" lon="13.19542">
    <name>41.4383697,13.1955936</name>
    <desc>Via San Tommaso d'Aquino, 1, 04015 Priverno LT, Italy</desc>
  </wpt>
  <wpt lat="41.48383" lon="12.79308">
    <name>41.4838271,12.793091</name>
    <desc>Str. dello Scopeto, 14, 04100 Borgo Bainsizza LT, Italy</desc>
  </wpt>
</gpx>