{
  "type": "FeatureCollection",
  "features": [
    {
      "type": "Feature",
      "properties": {
        "_gpxType": "trk",
        "name": "Borgo Bainsizza LT Loop",
        "coordinateProperties": {}
      },
      "geometry": {
        "type": "LineString",
        "coordinates": [
          [
            12.79308,
            41.48383,
            30.72686958312988
          ],
          [
            12.79511,
            41.48881,
            31.56427764892578
          ],
          [
            12.79798,
            41.49576,
            33.28314208984375
          ],
          [
            12.798,
            41.49582,
            33.29607391357422
          ],
          [
            12.79799,
            41.49674,
            33.05428314208984
          ],
          [
            12.79787,
            41.50006,
            34.88029479980469
          ],
          [
            12.79784,
            41.50163,
            33.75087738037109
          ],
          [
            12.79763,
            41.50676,
            25.88944625854492
          ],
          [
            12.79765,
            41.50779,
            25.9215030670166
          ],
          [
            12.7977,
            41.50804,
            25.99979400634766
          ],
          [
            12.79821,
            41.50883,
            26.46380043029785
          ],
          [
            12.79838,
            41.50907,
            26.88869857788086
          ],
          [
            12.79894,
            41.50967,
            26.3580379486084
          ],
          [
            12.79909,
            41.50991,
            26.49254608154297
          ],
          [
            12.79907,
            41.51002,
            26.25610733032227
          ],
          [
            12.79904,
            41.51009,
            26.00778961181641
          ],
          [
            12.79644,
            41.51008,
            25.74802017211914
          ],
          [
            12.7961,
            41.5101,
            26
          ],
          [
            12.79578,
            41.51018,
            26
          ],
          [
            12.79547,
            41.51031,
            25.56411933898926
          ],
          [
            12.79529,
            41.5103,
            25.10737419128418
          ],
          [
            12.77968,
            41.51745,
            28.5890064239502
          ],
          [
            12.76031,
            41.52634,
            30.66431999206543
          ],
          [
            12.75767,
            41.52753,
            27.59735679626465
          ],
          [
            12.75625,
            41.52819,
            27.22611427307129
          ],
          [
            12.73878,
            41.53616,
            35.09226226806641
          ],
          [
            12.7381,
            41.53641,
            34.1820068359375
          ],
          [
            12.73738,
            41.53661,
            36.14604568481445
          ],
          [
            12.7367,
            41.53675,
            34.45882415771484
          ],
          [
            12.73581,
            41.53684,
            33.45748138427734
          ],
          [
            12.73487,
            41.53686,
            33.85256195068359
          ],
          [
            12.7326,
            41.53686,
            34.15229415893555
          ],
          [
            12.73188,
            41.5369,
            34.60663223266602
          ],
          [
            12.73105,
            41.53701,
            35.05755233764648
          ],
          [
            12.73035,
            41.53715,
            36.73556518554688
          ],
          [
            12.72961,
            41.53735,
            39.38983154296875
          ],
          [
            12.72898,
            41.53757,
            36.84410858154297
          ],
          [
            12.72769,
            41.53815,
            36.62881469726562
          ],
          [
            12.7256,
            41.53909,
            38.50692367553711
          ],
          [
            12.72558,
            41.53916,
            38.63017272949219
          ],
          [
            12.72524,
            41.53939,
            39.44198226928711
          ],
          [
            12.72498,
            41.53965,
            39.26143264770508
          ],
          [
            12.72487,
            41.53986,
            38.83060455322266
          ],
          [
            12.72478,
            41.54028,
            38.80636215209961
          ],
          [
            12.72442,
            41.5406,
            39.88406372070312
          ],
          [
            12.72424,
            41.54072,
            40.37598419189453
          ],
          [
            12.72401,
            41.54079,
            39.96812438964844
          ],
          [
            12.72383,
            41.54082,
            39.64376449584961
          ],
          [
            12.72309,
            41.54078,
            39.27264404296875
          ],
          [
            12.72302,
            41.54056,
            39.42692947387695
          ],
          [
            12.72237,
            41.53976,
            40.76668167114258
          ],
          [
            12.72191,
            41.53936,
            42.50251007080078
          ],
          [
            12.72164,
            41.53921,
            42.97712707519531
          ],
          [
            12.72081,
            41.53879,
            44.73246002197266
          ],
          [
            12.71987,
            41.5383,
            47.18091201782227
          ],
          [
            12.71873,
            41.53775,
            47.18091201782227
          ],
          [
            12.71661,
            41.53697,
            51.86423492431641
          ],
          [
            12.71559,
            41.53663,
            51.79152679443359
          ],
          [
            12.71513,
            41.53644,
            51.65861511230469
          ],
          [
            12.71441,
            41.53608,
            52.06623077392578
          ],
          [
            12.71374,
            41.53565,
            52.61728668212891
          ],
          [
            12.71337,
            41.5354,
            51.63555145263672
          ],
          [
            12.7112,
            41.53323,
            50.27376174926758
          ],
          [
            12.70934,
            41.53135,
            53.7650260925293
          ],
          [
            12.70763,
            41.52954,
            54.39615249633789
          ],
          [
            12.70582,
            41.52735,
            56.74710845947266
          ],
          [
            12.70524,
            41.52653,
            59.47113037109375
          ],
          [
            12.70372,
            41.52419,
            63.52499771118164
          ],
          [
            12.70348,
            41.52378,
            63.40308380126953
          ],
          [
            12.70265,
            41.52251,
            65.4337387084961
          ],
          [
            12.70249,
            41.52231,
            65.6495590209961
          ],
          [
            12.70192,
            41.52141,
            66.89407348632812
          ],
          [
            12.70174,
            41.52097,
            66.9620361328125
          ],
          [
            12.70159,
            41.52043,
            67.56656646728516
          ],
          [
            12.70155,
            41.51989,
            67.97283172607422
          ],
          [
            12.70159,
            41.51933,
            67.6354751586914
          ],
          [
            12.70203,
            41.5172,
            66.95362091064453
          ],
          [
            12.7022,
            41.51622,
            67.94390106201172
          ],
          [
            12.70224,
            41.51574,
            68.32183837890625
          ],
          [
            12.70222,
            41.5155,
            68.49848937988281
          ],
          [
            12.70218,
            41.51527,
            68.51071166992188
          ],
          [
            12.70206,
            41.51491,
            67.57991790771484
          ],
          [
            12.70191,
            41.51462,
            67.00818634033203
          ],
          [
            12.70175,
            41.5144,
            67.34728240966797
          ],
          [
            12.70141,
            41.51399,
            68.4172592163086
          ],
          [
            12.70104,
            41.5137,
            68.64542388916016
          ],
          [
            12.70058,
            41.51343,
            69.05825805664062
          ],
          [
            12.69833,
            41.5124,
            67.43537902832031
          ],
          [
            12.69698,
            41.51172,
            67.13151550292969
          ],
          [
            12.69567,
            41.51114,
            66.44043731689453
          ],
          [
            12.694,
            41.51034,
            66.71036529541016
          ],
          [
            12.69282,
            41.50974,
            66.14240264892578
          ],
          [
            12.69213,
            41.50928,
            66.85923767089844
          ],
          [
            12.69132,
            41.50852,
            65.22838592529297
          ],
          [
            12.69088,
            41.50804,
            63.34561157226562
          ],
          [
            12.68865,
            41.50546,
            60.24425888061523
          ],
          [
            12.68838,
            41.5051,
            60.12370300292969
          ],
          [
            12.68813,
            41.50468,
            59.06838607788086
          ],
          [
            12.68796,
            41.50436,
            57.88608169555664
          ],
          [
            12.68783,
            41.50416,
            57.20222473144531
          ],
          [
            12.68754,
            41.50381,
            55.75677490234375
          ],
          [
            12.68639,
            41.50281,
            51.63698196411133
          ],
          [
            12.68616,
            41.50257,
            50.90656661987305
          ],
          [
            12.68583,
            41.50218,
            49.57916259765625
          ],
          [
            12.68544,
            41.50152,
            49.4515495300293
          ],
          [
            12.68526,
            41.50132,
            48.96518325805664
          ],
          [
            12.68518,
            41.5013,
            48.88349914550781
          ],
          [
            12.68491,
            41.50134,
            48.12178802490234
          ],
          [
            12.68344,
            41.5018,
            44.79871368408203
          ],
          [
            12.68168,
            41.50234,
            44.79871368408203
          ],
          [
            12.68062,
            41.50267,
            43.51227188110352
          ],
          [
            12.67816,
            41.50343,
            42.36286926269531
          ],
          [
            12.67316,
            41.50502,
            41.99726867675781
          ],
          [
            12.67185,
            41.50547,
            45.58606338500977
          ],
          [
            12.66617,
            41.50731,
            63.97168731689453
          ],
          [
            12.6662,
            41.50739,
            64.95291900634766
          ],
          [
            12.66614,
            41.50746,
            66.74390411376953
          ],
          [
            12.66604,
            41.50748,
            68.39322662353516
          ],
          [
            12.66594,
            41.50743,
            68.50316619873047
          ],
          [
            12.66592,
            41.50739,
            67.7436752319336
          ],
          [
            12.66429,
            41.50794,
            68.11766052246094
          ],
          [
            12.66027,
            41.50924,
            68.82301330566406
          ],
          [
            12.65371,
            41.51141,
            61.53075790405273
          ],
          [
            12.65317,
            41.51156,
            60.98244476318359
          ],
          [
            12.6528,
            41.5116,
            61.07422637939453
          ],
          [
            12.65253,
            41.51156,
            61.22023010253906
          ],
          [
            12.65235,
            41.51147,
            61.08338928222656
          ],
          [
            12.65126,
            41.51065,
            54.30908584594727
          ],
          [
            12.65106,
            41.51059,
            53.2453727722168
          ],
          [
            12.65089,
            41.51059,
            53.04751968383789
          ],
          [
            12.6507,
            41.51063,
            53.09919357299805
          ],
          [
            12.64977,
            41.51113,
            52.81784439086914
          ],
          [
            12.64961,
            41.51128,
            51.87637329101562
          ],
          [
            12.64955,
            41.51136,
            51.65726089477539
          ],
          [
            12.64944,
            41.51173,
            52.59963989257812
          ],
          [
            12.64931,
            41.51234,
            55.74357604980469
          ],
          [
            12.64922,
            41.51247,
            56.40974426269531
          ],
          [
            12.64899,
            41.5126,
            56.19355010986328
          ],
          [
            12.64857,
            41.51281,
            54.80178451538086
          ],
          [
            12.64818,
            41.5131,
            55.00608825683594
          ],
          [
            12.64795,
            41.5132,
            55.47359085083008
          ],
          [
            12.64769,
            41.51323,
            56.57062530517578
          ],
          [
            12.64744,
            41.51319,
            57.45454788208008
          ],
          [
            12.64715,
            41.51312,
            60.22177886962891
          ],
          [
            12.64624,
            41.51278,
            64.5147476196289
          ],
          [
            12.64603,
            41.51273,
            64.59343719482422
          ],
          [
            12.64561,
            41.51273,
            66.52885437011719
          ],
          [
            12.64431,
            41.51279,
            73.02626037597656
          ],
          [
            12.64366,
            41.5128,
            73.98979949951172
          ],
          [
            12.63991,
            41.51297,
            75.15190887451172
          ],
          [
            12.6313,
            41.51333,
            74.38188934326172
          ],
          [
            12.63117,
            41.51343,
            74.33646392822266
          ],
          [
            12.63112,
            41.51357,
            74.26136779785156
          ],
          [
            12.63117,
            41.51365,
            74.16199493408203
          ],
          [
            12.63118,
            41.51375,
            74.07207489013672
          ],
          [
            12.63125,
            41.51386,
            73.89372253417969
          ],
          [
            12.63129,
            41.514,
            73.86715698242188
          ],
          [
            12.63128,
            41.51414,
            73.9855728149414
          ],
          [
            12.63114,
            41.5144,
            74.70738983154297
          ],
          [
            12.63096,
            41.51457,
            75.78832244873047
          ],
          [
            12.63067,
            41.51477,
            75.31449890136719
          ],
          [
            12.63034,
            41.5149,
            74.68108367919922
          ],
          [
            12.63017,
            41.51495,
            74.5849380493164
          ],
          [
            12.62963,
            41.51503,
            74.66764831542969
          ],
          [
            12.62917,
            41.515,
            74.25326538085938
          ],
          [
            12.6287,
            41.51492,
            73.73631286621094
          ],
          [
            12.62836,
            41.5148,
            74.5965805053711
          ],
          [
            12.62799,
            41.5146,
            76.02534484863281
          ],
          [
            12.62775,
            41.51439,
            74.38191223144531
          ],
          [
            12.62729,
            41.51379,
            72.63517761230469
          ],
          [
            12.62714,
            41.51366,
            72.7981185913086
          ],
          [
            12.62699,
            41.51361,
            72.79177856445312
          ],
          [
            12.62666,
            41.51355,
            72.69259643554688
          ],
          [
            12.62546,
            41.51358,
            72.65397644042969
          ],
          [
            12.61577,
            41.51397,
            69.20120239257812
          ],
          [
            12.6151,
            41.51398,
            68.40916442871094
          ],
          [
            12.61509,
            41.51405,
            68.36430358886719
          ],
          [
            12.61502,
            41.51412,
            68.2900161743164
          ],
          [
            12.6149,
            41.51416,
            68.35850524902344
          ],
          [
            12.61478,
            41.51414,
            68.4349365234375
          ],
          [
            12.61469,
            41.51407,
            68.43753051757812
          ],
          [
            12.61467,
            41.51397,
            68.3593521118164
          ],
          [
            12.61473,
            41.51388,
            68.26403045654297
          ],
          [
            12.61477,
            41.51386,
            68.22425842285156
          ],
          [
            12.60709,
            41.50568,
            62.25123977661133
          ],
          [
            12.60572,
            41.50427,
            62.25123977661133
          ],
          [
            12.60379,
            41.50224,
            60.31397247314453
          ],
          [
            12.60327,
            41.50168,
            60.31397247314453
          ],
          [
            12.60318,
            41.50164,
            58.06355667114258
          ],
          [
            12.60315,
            41.50157,
            58.06355667114258
          ],
          [
            12.60316,
            41.50155,
            57.83658599853516
          ],
          [
            12.603,
            41.50162,
            57.83658599853516
          ],
          [
            12.60267,
            41.50166,
            56.98465347290039
          ],
          [
            12.60073,
            41.50176,
            54.78117370605469
          ],
          [
            12.59874,
            41.50189,
            52.80724716186523
          ],
          [
            12.59686,
            41.50198,
            47.97171020507812
          ],
          [
            12.59449,
            41.50214,
            40.44371795654297
          ],
          [
            12.59374,
            41.50217,
            38.09224319458008
          ],
          [
            12.59204,
            41.50141,
            34.2299919128418
          ],
          [
            12.5909,
            41.50089,
            31.25762939453125
          ],
          [
            12.58983,
            41.50036,
            29.93026161193848
          ],
          [
            12.58865,
            41.49982,
            28.48538589477539
          ],
          [
            12.59425,
            41.49314,
            27.7170352935791
          ],
          [
            12.59633,
            41.49066,
            27.55396842956543
          ],
          [
            12.59603,
            41.49052,
            28.47853851318359
          ],
          [
            12.59594,
            41.49051,
            28.77390480041504
          ],
          [
            12.5958,
            41.49052,
            29.28532409667969
          ],
          [
            12.59536,
            41.49064,
            31.90679359436035
          ],
          [
            12.59487,
            41.49096,
            31.57109832763672
          ],
          [
            12.59457,
            41.49105,
            31.27326393127441
          ],
          [
            12.59387,
            41.49109,
            32.48045349121094
          ],
          [
            12.59376,
            41.49109,
            32.73046875
          ],
          [
            12.59363,
            41.49104,
            32.67306900024414
          ],
          [
            12.5934,
            41.4908,
            31.49148178100586
          ],
          [
            12.5932,
            41.49056,
            29.26945304870605
          ],
          [
            12.59288,
            41.4902,
            26.00545120239258
          ],
          [
            12.59271,
            41.48997,
            24.82456398010254
          ],
          [
            12.59259,
            41.48946,
            24.93624496459961
          ],
          [
            12.59252,
            41.48902,
            24.93624496459961
          ],
          [
            12.59243,
            41.4888,
            21.5156364440918
          ],
          [
            12.59252,
            41.48902,
            21.5156364440918
          ],
          [
            12.59262,
            41.48962,
            24.79684257507324
          ],
          [
            12.59271,
            41.48997,
            24.79684257507324
          ],
          [
            12.59298,
            41.49033,
            26.85617637634277
          ],
          [
            12.5932,
            41.49056,
            29.26945304870605
          ],
          [
            12.59356,
            41.49098,
            32.48093414306641
          ],
          [
            12.5937,
            41.49108,
            32.74225234985352
          ],
          [
            12.59376,
            41.49109,
            32.73046875
          ],
          [
            12.59448,
            41.49106,
            31.29956245422363
          ],
          [
            12.59465,
            41.49103,
            31.32939338684082
          ],
          [
            12.59487,
            41.49096,
            31.57109832763672
          ],
          [
            12.59536,
            41.49064,
            31.90679359436035
          ],
          [
            12.5958,
            41.49052,
            29.28532409667969
          ],
          [
            12.59594,
            41.49051,
            28.77390480041504
          ],
          [
            12.59611,
            41.49055,
            28.16840362548828
          ],
          [
            12.59633,
            41.49066,
            27.55396842956543
          ],
          [
            12.6029,
            41.48278,
            36.1682243347168
          ],
          [
            12.60398,
            41.48327,
            42.68672180175781
          ],
          [
            12.60527,
            41.48314,
            49.22481918334961
          ],
          [
            12.60592,
            41.48303,
            51.24814605712891
          ],
          [
            12.6068,
            41.48275,
            54.45492172241211
          ],
          [
            12.6075,
            41.48245,
            56.25232315063477
          ],
          [
            12.60796,
            41.4822,
            56.98882675170898
          ],
          [
            12.60823,
            41.48209,
            57.16751861572266
          ],
          [
            12.61343,
            41.48327,
            56.55223083496094
          ],
          [
            12.61524,
            41.48369,
            57.24515533447266
          ],
          [
            12.61703,
            41.48413,
            58.43021392822266
          ],
          [
            12.62073,
            41.48495,
            61.08724975585938
          ],
          [
            12.62423,
            41.48576,
            56.89424514770508
          ],
          [
            12.6244,
            41.48576,
            56.89424514770508
          ],
          [
            12.62449,
            41.48579,
            55.57133865356445
          ],
          [
            12.62477,
            41.48561,
            55.57133865356445
          ],
          [
            12.62489,
            41.48556,
            54.28587341308594
          ],
          [
            12.62498,
            41.48551,
            54.28587341308594
          ],
          [
            12.62509,
            41.48551,
            54.20248413085938
          ],
          [
            12.62517,
            41.48558,
            54.20248413085938
          ],
          [
            12.62516,
            41.48567,
            54.42724609375
          ],
          [
            12.62512,
            41.4857,
            54.46139907836914
          ],
          [
            12.62506,
            41.48591,
            55.05980682373047
          ],
          [
            12.62502,
            41.48599,
            55.40327835083008
          ],
          [
            12.62532,
            41.49033,
            58.41830444335938
          ],
          [
            12.63617,
            41.48969,
            59.88887023925781
          ],
          [
            12.63675,
            41.48962,
            59.36492538452148
          ],
          [
            12.63681,
            41.48959,
            59.26198196411133
          ],
          [
            12.63688,
            41.48961,
            59.16717147827148
          ],
          [
            12.63701,
            41.48963,
            58.98575592041016
          ],
          [
            12.64438,
            41.48918,
            47.94553375244141
          ],
          [
            12.64968,
            41.48885,
            43.3735466003418
          ],
          [
            12.65093,
            41.48876,
            43.06442642211914
          ],
          [
            12.65125,
            41.4887,
            43.16516876220703
          ],
          [
            12.6515,
            41.48862,
            43.06917572021484
          ],
          [
            12.65163,
            41.48856,
            42.79939651489258
          ],
          [
            12.65199,
            41.48833,
            42.24799728393555
          ],
          [
            12.65541,
            41.48557,
            38.32476043701172
          ],
          [
            12.6555,
            41.48542,
            38.47020721435547
          ],
          [
            12.6555,
            41.48489,
            38.65909194946289
          ],
          [
            12.65552,
            41.48478,
            38.81633758544922
          ],
          [
            12.65561,
            41.48466,
            39.08757781982422
          ],
          [
            12.65571,
            41.48457,
            39.26888275146484
          ],
          [
            12.65967,
            41.48241,
            43.62802124023438
          ],
          [
            12.66141,
            41.4815,
            43.97118759155273
          ],
          [
            12.66265,
            41.4808,
            42.89052581787109
          ],
          [
            12.66322,
            41.48054,
            41.77096939086914
          ],
          [
            12.66328,
            41.48072,
            41.95488739013672
          ],
          [
            12.66345,
            41.48099,
            41.84366989135742
          ],
          [
            12.66351,
            41.48103,
            41.66771697998047
          ],
          [
            12.66373,
            41.48104,
            41.22356414794922
          ],
          [
            12.66658,
            41.48082,
            32.65008926391602
          ],
          [
            12.66905,
            41.48052,
            24.89837646484375
          ],
          [
            12.66971,
            41.48044,
            22.98123359680176
          ],
          [
            12.66947,
            41.47949,
            20.70566177368164
          ],
          [
            12.66925,
            41.47889,
            19.29871368408203
          ],
          [
            12.67211,
            41.47857,
            13.19762516021729
          ],
          [
            12.67253,
            41.47857,
            13.38033485412598
          ],
          [
            12.67432,
            41.47895,
            16.89662170410156
          ],
          [
            12.67456,
            41.47896,
            16.90219116210938
          ],
          [
            12.67483,
            41.47895,
            16.75300216674805
          ],
          [
            12.675,
            41.4789,
            16.40707206726074
          ],
          [
            12.67528,
            41.47876,
            16.56620025634766
          ],
          [
            12.67691,
            41.4776,
            22.07892799377441
          ],
          [
            12.68027,
            41.47528,
            28.78293037414551
          ],
          [
            12.68052,
            41.47512,
            28.77223968505859
          ],
          [
            12.68154,
            41.47442,
            28.60284233093262
          ],
          [
            12.68468,
            41.4723,
            27.16519546508789
          ],
          [
            12.68658,
            41.471,
            24.48164367675781
          ],
          [
            12.68669,
            41.47086,
            24.27056503295898
          ],
          [
            12.68668,
            41.47082,
            24.22337341308594
          ],
          [
            12.68675,
            41.47078,
            24.1599235534668
          ],
          [
            12.68683,
            41.47077,
            24.13280296325684
          ],
          [
            12.68703,
            41.47067,
            23.99444961547852
          ],
          [
            12.68708,
            41.47066,
            23.97866821289062
          ],
          [
            12.69116,
            41.46786,
            22.92654609680176
          ],
          [
            12.69347,
            41.46628,
            21.26504516601562
          ],
          [
            12.6936,
            41.46617,
            21.23383712768555
          ],
          [
            12.69374,
            41.46597,
            21.2567081451416
          ],
          [
            12.6938,
            41.46577,
            21.25831413269043
          ],
          [
            12.69379,
            41.46535,
            20.96891021728516
          ],
          [
            12.69363,
            41.46292,
            18.93029403686523
          ],
          [
            12.69361,
            41.46233,
            18.75099945068359
          ],
          [
            12.69346,
            41.45981,
            16.01164245605469
          ],
          [
            12.69391,
            41.45994,
            16.92001152038574
          ],
          [
            12.69529,
            41.46041,
            17.81919288635254
          ],
          [
            12.69617,
            41.46061,
            18.46644592285156
          ],
          [
            12.6983,
            41.46099,
            17.47744369506836
          ],
          [
            12.7014,
            41.46157,
            13.47922229766846
          ],
          [
            12.70225,
            41.46168,
            12.41845226287842
          ],
          [
            12.70375,
            41.46174,
            16.13423919677734
          ],
          [
            12.70421,
            41.46174,
            16.99685287475586
          ],
          [
            12.70703,
            41.46163,
            18.46864700317383
          ],
          [
            12.70929,
            41.46153,
            15.4721736907959
          ],
          [
            12.70964,
            41.46147,
            14.35482311248779
          ],
          [
            12.7099,
            41.46139,
            13.59719944000244
          ],
          [
            12.71013,
            41.46127,
            12.9409236907959
          ],
          [
            12.7103,
            41.46116,
            12.1577787399292
          ],
          [
            12.71091,
            41.46061,
            10.84667778015137
          ],
          [
            12.7111,
            41.46043,
            11.66951465606689
          ],
          [
            12.71274,
            41.459,
            16.16287422180176
          ],
          [
            12.7132,
            41.4587,
            17.3731632232666
          ],
          [
            12.71408,
            41.45823,
            38.83293151855469
          ],
          [
            12.71445,
            41.45808,
            38.83293151855469
          ],
          [
            12.7149,
            41.45796,
            44.34561538696289
          ],
          [
            12.71557,
            41.45787,
            40.61986923217773
          ],
          [
            12.71895,
            41.45755,
            22.3592700958252
          ],
          [
            12.71974,
            41.4573,
            22.3592700958252
          ],
          [
            12.72034,
            41.45702,
            19.85307884216309
          ],
          [
            12.7279,
            41.45267,
            17.82624626159668
          ],
          [
            12.72906,
            41.45202,
            15.87961578369141
          ],
          [
            12.73083,
            41.45097,
            15.87961578369141
          ],
          [
            12.73325,
            41.44957,
            13.98716735839844
          ],
          [
            12.73695,
            41.44747,
            18.40352630615234
          ],
          [
            12.73724,
            41.44737,
            17.71903991699219
          ],
          [
            12.73813,
            41.44718,
            17.71903991699219
          ],
          [
            12.73929,
            41.44698,
            13.96504783630371
          ],
          [
            12.73969,
            41.44686,
            12.84566402435303
          ],
          [
            12.74009,
            41.44665,
            11.78117656707764
          ],
          [
            12.74146,
            41.44587,
            14.82697200775146
          ],
          [
            12.74204,
            41.44563,
            13.63276100158691
          ],
          [
            12.74248,
            41.44548,
            12.36055946350098
          ],
          [
            12.74553,
            41.44458,
            12.86700820922852
          ],
          [
            12.74599,
            41.44449,
            13
          ],
          [
            12.74895,
            41.44402,
            14.22365951538086
          ],
          [
            12.7493,
            41.44399,
            13.57608604431152
          ],
          [
            12.74966,
            41.44402,
            12.97056007385254
          ],
          [
            12.74988,
            41.44406,
            12.74434852600098
          ],
          [
            12.75037,
            41.44427,
            12.59286022186279
          ],
          [
            12.7529,
            41.44547,
            13.4162769317627
          ],
          [
            12.75374,
            41.44584,
            13.86424350738525
          ],
          [
            12.75808,
            41.44244,
            11.92772960662842
          ],
          [
            12.75868,
            41.44201,
            11.370774269104
          ],
          [
            12.76178,
            41.43966,
            9.394149780273438
          ],
          [
            12.76214,
            41.43934,
            9.394149780273438
          ],
          [
            12.76609,
            41.43494,
            7.033905982971191
          ],
          [
            12.76749,
            41.43271,
            4.998788833618164
          ],
          [
            12.7694,
            41.4296,
            4.820550441741943
          ],
          [
            12.77048,
            41.42776,
            4.820550441741943
          ],
          [
            12.77104,
            41.42673,
            3.864860057830811
          ],
          [
            12.77197,
            41.42512,
            4.762581348419189
          ],
          [
            12.77217,
            41.42491,
            5.039288997650146
          ],
          [
            12.77235,
            41.42478,
            5.039288997650146
          ],
          [
            12.77295,
            41.42442,
            5.663873672485352
          ],
          [
            12.7747,
            41.42346,
            1.00758957862854
          ],
          [
            12.77488,
            41.4234,
            1.428619980812073
          ],
          [
            12.77509,
            41.42339,
            1.428619980812073
          ],
          [
            12.77802,
            41.42381,
            1.069504141807556
          ],
          [
            12.77865,
            41.42387,
            0.8287496566772461
          ],
          [
            12.77877,
            41.42387,
            0.633575975894928
          ],
          [
            12.77908,
            41.4238,
            0.1411872506141663
          ],
          [
            12.7792,
            41.42377,
            0
          ],
          [
            12.77936,
            41.4237,
            0
          ],
          [
            12.78063,
            41.4227,
            0
          ],
          [
            12.78116,
            41.42311,
            0
          ],
          [
            12.78131,
            41.42328,
            0.1526249200105667
          ],
          [
            12.78154,
            41.42402,
            0.9457933902740479
          ],
          [
            12.7818,
            41.42429,
            0.9235119223594666
          ],
          [
            12.7824,
            41.42404,
            1
          ],
          [
            12.78264,
            41.42388,
            0.9382525086402893
          ],
          [
            12.78294,
            41.42361,
            0.7448540925979614
          ],
          [
            12.78296,
            41.42358,
            0.7535241842269897
          ],
          [
            12.78295,
            41.42348,
            0.836002767086029
          ],
          [
            12.78261,
            41.42248,
            1.833784937858582
          ],
          [
            12.78336,
            41.42225,
            0.5182989239692688
          ],
          [
            12.78301,
            41.42157,
            0.5182989239692688
          ],
          [
            12.78251,
            41.42122,
            1
          ],
          [
            12.78357,
            41.42038,
            0.283888965845108
          ],
          [
            12.78375,
            41.42027,
            0.6061686873435974
          ],
          [
            12.78407,
            41.42017,
            0.6061686873435974
          ],
          [
            12.78453,
            41.4201,
            1.537065863609314
          ],
          [
            12.7885,
            41.41975,
            1.83697772026062
          ],
          [
            12.79074,
            41.41959,
            1.094317555427551
          ],
          [
            12.7913,
            41.41953,
            1.094317555427551
          ],
          [
            12.7935,
            41.41922,
            1.786451101303101
          ],
          [
            12.79875,
            41.41802,
            2.017959117889404
          ],
          [
            12.79959,
            41.41785,
            2.256234169006348
          ],
          [
            12.8017,
            41.41769,
            2.256234169006348
          ],
          [
            12.80178,
            41.41766,
            2.488624095916748
          ],
          [
            12.80229,
            41.41913,
            1.610533237457275
          ],
          [
            12.80297,
            41.42117,
            6.316400527954102
          ],
          [
            12.80312,
            41.4218,
            6.669447898864746
          ],
          [
            12.80316,
            41.42212,
            6.015354633331299
          ],
          [
            12.80318,
            41.42246,
            5.074320316314697
          ],
          [
            12.80304,
            41.42528,
            5.863407135009766
          ],
          [
            12.80265,
            41.4318,
            7.372873783111572
          ],
          [
            12.80268,
            41.43186,
            7.349495887756348
          ],
          [
            12.80268,
            41.43195,
            7.305199146270752
          ],
          [
            12.80271,
            41.43197,
            7.300309658050537
          ],
          [
            12.80289,
            41.43195,
            7.340867042541504
          ],
          [
            12.80299,
            41.43196,
            7.352200984954834
          ],
          [
            12.80525,
            41.43169,
            6.741304874420166
          ],
          [
            12.80681,
            41.43148,
            6.203032493591309
          ],
          [
            12.82046,
            41.42972,
            7.026984691619873
          ],
          [
            12.82119,
            41.42964,
            7.671254634857178
          ],
          [
            12.82125,
            41.4296,
            7.698595523834229
          ],
          [
            12.82134,
            41.42956,
            7.758925437927246
          ],
          [
            12.8214,
            41.4295,
            7.806241989135742
          ],
          [
            12.82152,
            41.42948,
            7.919999599456787
          ],
          [
            12.8216,
            41.42953,
            7.97786283493042
          ],
          [
            12.82161,
            41.42954,
            7.97786283493042
          ],
          [
            12.82172,
            41.42954,
            8.07475471496582
          ],
          [
            12.82176,
            41.42958,
            8.084261894226074
          ],
          [
            12.8227,
            41.42944,
            8.257841110229492
          ],
          [
            12.82408,
            41.42928,
            8.257841110229492
          ],
          [
            12.8367,
            41.42767,
            4.32433557510376
          ],
          [
            12.84823,
            41.42619,
            4.076619625091553
          ],
          [
            12.85243,
            41.42566,
            4.35553503036499
          ],
          [
            12.85358,
            41.42547,
            4.35553503036499
          ],
          [
            12.85634,
            41.42489,
            3.625643014907837
          ],
          [
            12.85816,
            41.42447,
            3.574698209762573
          ],
          [
            12.85948,
            41.42422,
            3.727347135543823
          ],
          [
            12.86223,
            41.42361,
            2.400383710861206
          ],
          [
            12.8626,
            41.42354,
            2.296844959259033
          ],
          [
            12.86455,
            41.42311,
            2.764482498168945
          ],
          [
            12.86639,
            41.42274,
            2.355352401733398
          ],
          [
            12.86979,
            41.422,
            3.221656084060669
          ],
          [
            12.87191,
            41.42154,
            3.328483104705811
          ],
          [
            12.87368,
            41.42113,
            2.775239706039429
          ],
          [
            12.8758,
            41.4207,
            3.442624568939209
          ],
          [
            12.87712,
            41.42039,
            1.966927409172058
          ],
          [
            12.87734,
            41.42032,
            1.748982787132263
          ],
          [
            12.87781,
            41.4202,
            2.554913997650146
          ],
          [
            12.87786,
            41.42012,
            2.591450691223145
          ],
          [
            12.8777,
            41.41972,
            2.251135349273682
          ],
          [
            12.8777,
            41.41963,
            2.255147695541382
          ],
          [
            12.87591,
            41.41574,
            1.298200130462646
          ],
          [
            12.87536,
            41.41456,
            1.322780251502991
          ],
          [
            12.87172,
            41.40647,
            2.166466236114502
          ],
          [
            12.8716,
            41.40632,
            2.432273149490356
          ],
          [
            12.8715,
            41.40628,
            2.51705527305603
          ],
          [
            12.87147,
            41.40619,
            2.51705527305603
          ],
          [
            12.87152,
            41.40612,
            2.646726369857788
          ],
          [
            12.87162,
            41.40609,
            2.641571283340454
          ],
          [
            12.87168,
            41.40611,
            2.654306411743164
          ],
          [
            12.8719,
            41.40608,
            2.654306411743164
          ],
          [
            12.87206,
            41.40605,
            2.639746189117432
          ],
          [
            12.8746,
            41.40502,
            2.052258729934692
          ],
          [
            12.87625,
            41.40439,
            3.123126745223999
          ],
          [
            12.87777,
            41.40373,
            3.123126745223999
          ],
          [
            12.88746,
            41.39919,
            5.298633098602295
          ],
          [
            12.89469,
            41.39576,
            5.657082557678223
          ],
          [
            12.90188,
            41.3922,
            4.221789360046387
          ],
          [
            12.90414,
            41.39108,
            4.221789360046387
          ],
          [
            12.90916,
            41.38858,
            4.735720157623291
          ],
          [
            12.91317,
            41.38634,
            5.235840797424316
          ],
          [
            12.91451,
            41.38558,
            4.321775436401367
          ],
          [
            12.91516,
            41.38533,
            3.199385643005371
          ],
          [
            12.91617,
            41.38496,
            2.4780592918396
          ],
          [
            12.9163,
            41.38484,
            2.336992025375366
          ],
          [
            12.91634,
            41.38479,
            2.223001718521118
          ],
          [
            12.91641,
            41.38473,
            1.911325216293335
          ],
          [
            12.9165,
            41.38474,
            1.723477125167847
          ],
          [
            12.91657,
            41.38481,
            1.807243704795837
          ],
          [
            12.91668,
            41.3849,
            1.674737572669983
          ],
          [
            12.91671,
            41.38492,
            1.647756695747375
          ],
          [
            12.91719,
            41.38505,
            1.382815480232239
          ],
          [
            12.9174,
            41.38514,
            1.126282215118408
          ],
          [
            12.91793,
            41.3856,
            0.1838666796684265
          ],
          [
            12.91847,
            41.38604,
            0.08419574797153473
          ],
          [
            12.91887,
            41.3863,
            0.01299417577683926
          ],
          [
            12.91922,
            41.38648,
            0.04332888126373291
          ],
          [
            12.91976,
            41.38666,
            0.04332888126373291
          ],
          [
            12.92032,
            41.3868,
            0.8684881925582886
          ],
          [
            12.92084,
            41.38691,
            0.5846541523933411
          ],
          [
            12.92182,
            41.38702,
            0.2630810141563416
          ],
          [
            12.92235,
            41.38704,
            0.2630810141563416
          ],
          [
            12.92404,
            41.38703,
            -0.4027398526668549
          ],
          [
            12.92506,
            41.38697,
            0.2426231205463409
          ],
          [
            12.9272,
            41.38696,
            0.5078129768371582
          ],
          [
            12.92898,
            41.38697,
            0.5078129768371582
          ],
          [
            12.92958,
            41.38696,
            0.6444540619850159
          ],
          [
            12.93106,
            41.38699,
            1.998689889907837
          ],
          [
            12.93145,
            41.38702,
            1.64683723449707
          ],
          [
            12.93639,
            41.38759,
            1.64683723449707
          ],
          [
            12.93689,
            41.38764,
            2.96212911605835
          ],
          [
            12.93695,
            41.38712,
            2.817543745040894
          ],
          [
            12.93692,
            41.38706,
            2.843633890151978
          ],
          [
            12.93686,
            41.38702,
            2.860190629959106
          ],
          [
            12.93647,
            41.38697,
            2.730940103530884
          ],
          [
            12.93619,
            41.38695,
            3.199158668518066
          ],
          [
            12.93622,
            41.38683,
            4.661900997161865
          ],
          [
            12.93633,
            41.38673,
            3.77940559387207
          ],
          [
            12.9366,
            41.38655,
            3.5500807762146
          ],
          [
            12.93703,
            41.38622,
            2.580271005630493
          ],
          [
            12.93797,
            41.38552,
            2.350358247756958
          ],
          [
            12.93844,
            41.38516,
            0.2964363992214203
          ],
          [
            12.93922,
            41.3846,
            -0.07508445531129837
          ],
          [
            12.93844,
            41.38516,
            0.2964363992214203
          ],
          [
            12.93775,
            41.3857,
            2.055947542190552
          ],
          [
            12.93678,
            41.38641,
            3.394782304763794
          ],
          [
            12.93643,
            41.38666,
            3.921012401580811
          ],
          [
            12.93627,
            41.38677,
            4.293028354644775
          ],
          [
            12.93621,
            41.38687,
            4.141312599182129
          ],
          [
            12.93619,
            41.38695,
            3.199158668518066
          ],
          [
            12.93674,
            41.387,
            3.211316585540771
          ],
          [
            12.93686,
            41.38702,
            2.860190629959106
          ],
          [
            12.93694,
            41.38708,
            2.902459859848022
          ],
          [
            12.93694,
            41.38719,
            2.6463782787323
          ],
          [
            12.93689,
            41.38764,
            3.157594680786133
          ],
          [
            12.93843,
            41.38815,
            2.8131103515625
          ],
          [
            12.93995,
            41.3887,
            2.33707332611084
          ],
          [
            12.94261,
            41.3897,
            5.551944732666016
          ],
          [
            12.94701,
            41.39129,
            9.449443817138672
          ],
          [
            12.94712,
            41.39132,
            9.833718299865723
          ],
          [
            12.9473,
            41.39143,
            11.15909290313721
          ],
          [
            12.9474,
            41.39142,
            11.3631477355957
          ],
          [
            12.94748,
            41.39147,
            11.44406700134277
          ],
          [
            12.94747,
            41.39155,
            11.74421882629395
          ],
          [
            12.9474,
            41.39159,
            11.84494876861572
          ],
          [
            12.94737,
            41.3916,
            11.77153968811035
          ],
          [
            12.94717,
            41.39173,
            11.62200832366943
          ],
          [
            12.94698,
            41.39182,
            10.79489707946777
          ],
          [
            12.94359,
            41.3936,
            9.248600006103516
          ],
          [
            12.94272,
            41.39406,
            9.566813468933105
          ],
          [
            12.94135,
            41.39478,
            8.936991691589355
          ],
          [
            12.94015,
            41.39542,
            7.318883419036865
          ],
          [
            12.93906,
            41.39598,
            6.819694042205811
          ],
          [
            12.93813,
            41.39648,
            8.611106872558594
          ],
          [
            12.94144,
            41.40006,
            12.5437650680542
          ],
          [
            12.94203,
            41.40068,
            13.63438701629639
          ],
          [
            12.94233,
            41.40108,
            14.9466381072998
          ],
          [
            12.94246,
            41.40135,
            15.26560020446777
          ],
          [
            12.94254,
            41.40173,
            14.80577087402344
          ],
          [
            12.94252,
            41.40206,
            16.10026550292969
          ],
          [
            12.94237,
            41.40247,
            15.40567970275879
          ],
          [
            12.93129,
            41.4188,
            22.06983184814453
          ],
          [
            12.92904,
            41.42214,
            22.22157287597656
          ],
          [
            12.9274,
            41.42454,
            22.32440376281738
          ],
          [
            12.92726,
            41.4248,
            22.54231262207031
          ],
          [
            12.92724,
            41.425,
            23.32578086853027
          ],
          [
            12.92734,
            41.42536,
            24.18760681152344
          ],
          [
            12.9288,
            41.42891,
            22.31000518798828
          ],
          [
            12.93103,
            41.43432,
            19.9422721862793
          ],
          [
            12.93114,
            41.43449,
            19.85558128356934
          ],
          [
            12.93125,
            41.43462,
            20.14418792724609
          ],
          [
            12.93136,
            41.43467,
            20.31159019470215
          ],
          [
            12.9314,
            41.43476,
            19.99580192565918
          ],
          [
            12.93136,
            41.43485,
            19.63926696777344
          ],
          [
            12.93126,
            41.4349,
            19.90439987182617
          ],
          [
            12.93113,
            41.4349,
            19.73681831359863
          ],
          [
            12.93108,
            41.43487,
            19.76143646240234
          ],
          [
            12.93068,
            41.43493,
            19.97834014892578
          ],
          [
            12.92939,
            41.43529,
            19.72458839416504
          ],
          [
            12.92834,
            41.43561,
            19.14013290405273
          ],
          [
            12.92658,
            41.43608,
            19.60148429870605
          ],
          [
            12.92591,
            41.43621,
            19.82674026489258
          ],
          [
            12.925,
            41.43644,
            19.78487396240234
          ],
          [
            12.92477,
            41.43651,
            19.79196739196777
          ],
          [
            12.9221,
            41.4372,
            20.1708812713623
          ],
          [
            12.91805,
            41.43827,
            20.65636253356934
          ],
          [
            12.91786,
            41.43828,
            20.60877227783203
          ],
          [
            12.91058,
            41.4402,
            20.2378101348877
          ],
          [
            12.9089,
            41.4407,
            21.27779388427734
          ],
          [
            12.90216,
            41.443,
            21.31150245666504
          ],
          [
            12.88686,
            41.44825,
            21.60330009460449
          ],
          [
            12.88568,
            41.44872,
            23.35487365722656
          ],
          [
            12.88492,
            41.44911,
            22.43112945556641
          ],
          [
            12.88385,
            41.44974,
            21.52102661132812
          ],
          [
            12.88382,
            41.44979,
            21.64933776855469
          ],
          [
            12.88308,
            41.45031,
            22.35790824890137
          ],
          [
            12.88218,
            41.45104,
            18.13140487670898
          ],
          [
            12.88135,
            41.45177,
            21.99496078491211
          ],
          [
            12.88024,
            41.45293,
            21.06803894042969
          ],
          [
            12.87971,
            41.45353,
            22.77970695495605
          ],
          [
            12.87917,
            41.45427,
            24.10422897338867
          ],
          [
            12.87857,
            41.45524,
            22.97727584838867
          ],
          [
            12.87789,
            41.45647,
            24.00475883483887
          ],
          [
            12.87602,
            41.46033,
            24.20342254638672
          ],
          [
            12.87574,
            41.46088,
            24.70804405212402
          ],
          [
            12.87523,
            41.46172,
            23.80470657348633
          ],
          [
            12.8745,
            41.46278,
            23.04585075378418
          ],
          [
            12.87384,
            41.46361,
            23.83537101745605
          ],
          [
            12.87149,
            41.46642,
            26.7396297454834
          ],
          [
            12.87095,
            41.46709,
            26.9001579284668
          ],
          [
            12.8705,
            41.46763,
            25.11176109313965
          ],
          [
            12.87011,
            41.46813,
            26.64623069763184
          ],
          [
            12.86953,
            41.46898,
            26.56266021728516
          ],
          [
            12.86906,
            41.46977,
            26.0910758972168
          ],
          [
            12.86794,
            41.47191,
            26.99223327636719
          ],
          [
            12.86636,
            41.47501,
            25.98691177368164
          ],
          [
            12.866,
            41.47573,
            26.17311859130859
          ],
          [
            12.86527,
            41.47707,
            25.90591430664062
          ],
          [
            12.86456,
            41.47816,
            26.14970779418945
          ],
          [
            12.86353,
            41.47961,
            27.16340637207031
          ],
          [
            12.86344,
            41.47966,
            27.13348960876465
          ],
          [
            12.86322,
            41.47996,
            27.06632995605469
          ],
          [
            12.86249,
            41.48078,
            25.91370391845703
          ],
          [
            12.86158,
            41.48171,
            26.48398208618164
          ],
          [
            12.8607,
            41.48256,
            28.07429313659668
          ],
          [
            12.85954,
            41.4836,
            25.66963768005371
          ],
          [
            12.85912,
            41.48396,
            25.38626098632812
          ],
          [
            12.8581,
            41.48471,
            27.6010913848877
          ],
          [
            12.85715,
            41.48528,
            24.33951377868652
          ],
          [
            12.85648,
            41.48562,
            24.10002899169922
          ],
          [
            12.85568,
            41.48596,
            24.11714935302734
          ],
          [
            12.85492,
            41.48623,
            24.95232009887695
          ],
          [
            12.85423,
            41.48643,
            24.88535118103027
          ],
          [
            12.85332,
            41.48665,
            25.27404594421387
          ],
          [
            12.85236,
            41.48681,
            25.02166366577148
          ],
          [
            12.8508,
            41.48702,
            26.11691284179688
          ],
          [
            12.85001,
            41.48717,
            26.39497184753418
          ],
          [
            12.84922,
            41.48737,
            26.69289207458496
          ],
          [
            12.84906,
            41.48742,
            26.83050346374512
          ],
          [
            12.84897,
            41.48741,
            26.74910926818848
          ],
          [
            12.84283,
            41.48964,
            27.98927116394043
          ],
          [
            12.82834,
            41.49487,
            25.53395462036133
          ],
          [
            12.82512,
            41.49604,
            27.7787036895752
          ],
          [
            12.82407,
            41.49649,
            25.7879467010498
          ],
          [
            12.80171,
            41.50728,
            23.11751556396484
          ],
          [
            12.79941,
            41.5084,
            24.07018661499023
          ],
          [
            12.79852,
            41.50882,
            25.73641395568848
          ],
          [
            12.79838,
            41.50897,
            26.59101867675781
          ],
          [
            12.79755,
            41.50938,
            25.0810546875
          ],
          [
            12.79737,
            41.50953,
            24.6397533416748
          ],
          [
            12.79731,
            41.50967,
            24.61338043212891
          ],
          [
            12.79733,
            41.50983,
            24.7347469329834
          ],
          [
            12.79745,
            41.50996,
            25.22695732116699
          ],
          [
            12.79767,
            41.51008,
            24.61958503723145
          ],
          [
            12.79847,
            41.51009,
            24.93694496154785
          ],
          [
            12.79874,
            41.50994,
            26.63131713867188
          ],
          [
            12.79883,
            41.50987,
            27.30613136291504
          ],
          [
            12.79888,
            41.5096,
            27.00182914733887
          ],
          [
            12.79833,
            41.509,
            26.69353103637695
          ],
          [
            12.79797,
            41.50847,
            26.42624664306641
          ],
          [
            12.7977,
            41.50804,
            26.00069427490234
          ],
          [
            12.79765,
            41.50779,
            25.9215030670166
          ],
          [
            12.79763,
            41.5064,
            25.84562301635742
          ],
          [
            12.79785,
            41.50119,
            33.94818115234375
          ],
          [
            12.79792,
            41.49861,
            36.07981872558594
          ],
          [
            12.79801,
            41.49605,
            33.36285781860352
          ],
          [
            12.798,
            41.49582,
            32.59359741210938
          ],
          [
            12.79777,
            41.49524,
            33.22706604003906
          ],
          [
            12.79361,
            41.48514,
            31.07424736022949
          ],
          [
            12.79308,
            41.48383,
            30.72686958312988
          ]
        ]
      }
    }
  ]
}