{
  "type": "FeatureCollection",
  "features": [
    {
      "type": "Feature",
      "properties": {
        "_gpxType": "trk",
        "coordinateProperties": {}
      },
      "geometry": {
        "type": "LineString",
        "coordinates": [
          [
            12.79308,
            41.48383
          ],
          [
            12.79797,
            41.49572
          ],
          [
            12.79764,
            41.50622
          ],
          [
            12.79797,
            41.50847
          ],
          [
            12.79903,
            41.5098
          ],
          [
            12.79394,
            41.51092
          ],
          [
            12.78001,
            41.51746
          ],
          [
            12.78317,
            41.5178
          ],
          [
            12.78319,
            41.5179
          ],
          [
            12.77913,
            41.53027
          ],
          [
            12.77489,
            41.54359
          ],
          [
            12.77223,
            41.55189
          ],
          [
            12.7701,
            41.55588
          ],
          [
            12.77459,
            41.55951
          ],
          [
            12.77669,
            41.5631
          ],
          [
            12.77694,
            41.57428
          ],
          [
            12.78021,
            41.5863
          ],
          [
            12.7819,
            41.59241
          ],
          [
            12.78229,
            41.59383
          ],
          [
            12.78252,
            41.59471
          ],
          [
            12.77987,
            41.5952
          ],
          [
            12.77917,
            41.5953
          ],
          [
            12.77815,
            41.59547
          ],
          [
            12.77684,
            41.59613
          ],
          [
            12.77426,
            41.59786
          ],
          [
            12.77184,
            41.59955
          ],
          [
            12.76592,
            41.60482
          ],
          [
            12.75944,
            41.60655
          ],
          [
            12.76033,
            41.60763
          ],
          [
            12.76305,
            41.60949
          ],
          [
            12.76226,
            41.61653
          ],
          [
            12.76392,
            41.62604
          ],
          [
            12.76545,
            41.63218
          ],
          [
            12.76693,
            41.63872
          ],
          [
            12.7686,
            41.64246
          ],
          [
            12.76819,
            41.64665
          ],
          [
            12.76831,
            41.65429
          ],
          [
            12.7713,
            41.6606
          ],
          [
            12.77244,
            41.66453
          ],
          [
            12.77397,
            41.66678
          ],
          [
            12.77415,
            41.66882
          ],
          [
            12.77488,
            41.67008
          ],
          [
            12.77628,
            41.66999
          ],
          [
            12.77654,
            41.67001
          ],
          [
            12.77656,
            41.67017
          ],
          [
            12.77683,
            41.67093
          ],
          [
            12.77917,
            41.67149
          ],
          [
            12.7809,
            41.67484
          ],
          [
            12.78327,
            41.67803
          ],
          [
            12.78307,
            41.67909
          ],
          [
            12.78095,
            41.67985
          ],
          [
            12.77844,
            41.68039
          ],
          [
            12.77771,
            41.68254
          ],
          [
            12.77834,
            41.68349
          ],
          [
            12.77835,
            41.68361
          ],
          [
            12.77818,
            41.68364
          ],
          [
            12.77814,
            41.68351
          ],
          [
            12.78048,
            41.6837
          ],
          [
            12.78024,
            41.68271
          ],
          [
            12.7803,
            41.68264
          ],
          [
            12.78041,
            41.68265
          ],
          [
            12.78095,
            41.68418
          ],
          [
            12.78157,
            41.68434
          ],
          [
            12.78399,
            41.68697
          ],
          [
            12.78632,
            41.68748
          ],
          [
            12.79407,
            41.6904
          ],
          [
            12.79331,
            41.69252
          ],
          [
            12.79694,
            41.69304
          ],
          [
            12.80303,
            41.695
          ],
          [
            12.80723,
            41.69565
          ],
          [
            12.8085,
            41.69482
          ],
          [
            12.81195,
            41.69494
          ],
          [
            12.81942,
            41.69509
          ],
          [
            12.8256,
            41.6969
          ],
          [
            12.83692,
            41.70352
          ],
          [
            12.83901,
            41.70298
          ],
          [
            12.83979,
            41.70187
          ],
          [
            12.84312,
            41.69937
          ],
          [
            12.84446,
            41.69781
          ],
          [
            12.84623,
            41.69843
          ],
          [
            12.8495,
            41.70107
          ],
          [
            12.85314,
            41.70159
          ],
          [
            12.85781,
            41.69808
          ],
          [
            12.86933,
            41.68931
          ],
          [
            12.8752,
            41.68634
          ],
          [
            12.87557,
            41.68598
          ],
          [
            12.87615,
            41.68177
          ],
          [
            12.87617,
            41.67929
          ],
          [
            12.87578,
            41.67855
          ],
          [
            12.87615,
            41.67746
          ],
          [
            12.87659,
            41.67717
          ],
          [
            12.87748,
            41.67649
          ],
          [
            12.87837,
            41.67525
          ],
          [
            12.88002,
            41.67177
          ],
          [
            12.88254,
            41.66788
          ],
          [
            12.8835,
            41.66661
          ],
          [
            12.88526,
            41.66584
          ],
          [
            12.88886,
            41.66279
          ],
          [
            12.89137,
            41.66268
          ],
          [
            12.8964,
            41.66418
          ],
          [
            12.8975,
            41.66141
          ],
          [
            12.89911,
            41.66038
          ],
          [
            12.89938,
            41.6595
          ],
          [
            12.89805,
            41.65864
          ],
          [
            12.89831,
            41.65747
          ],
          [
            12.90098,
            41.65491
          ],
          [
            12.9028,
            41.65416
          ],
          [
            12.90293,
            41.65301
          ],
          [
            12.90586,
            41.65257
          ],
          [
            12.90953,
            41.65175
          ],
          [
            12.91115,
            41.64934
          ],
          [
            12.91276,
            41.64872
          ],
          [
            12.9137,
            41.6487
          ],
          [
            12.91441,
            41.64765
          ],
          [
            12.91623,
            41.64631
          ],
          [
            12.91772,
            41.64458
          ],
          [
            12.91947,
            41.64394
          ],
          [
            12.91879,
            41.64343
          ],
          [
            12.91934,
            41.64292
          ],
          [
            12.91774,
            41.64135
          ],
          [
            12.91539,
            41.64028
          ],
          [
            12.91425,
            41.63971
          ],
          [
            12.91148,
            41.63989
          ],
          [
            12.9063,
            41.63723
          ],
          [
            12.90387,
            41.63633
          ],
          [
            12.90359,
            41.63538
          ],
          [
            12.90101,
            41.63354
          ],
          [
            12.89874,
            41.63063
          ],
          [
            12.89764,
            41.6273
          ],
          [
            12.89745,
            41.62558
          ],
          [
            12.89867,
            41.62316
          ],
          [
            12.90175,
            41.61649
          ],
          [
            12.9017,
            41.61446
          ],
          [
            12.90358,
            41.61112
          ],
          [
            12.90906,
            41.60504
          ],
          [
            12.91771,
            41.59742
          ],
          [
            12.91946,
            41.59589
          ],
          [
            12.92004,
            41.59226
          ],
          [
            12.92154,
            41.59118
          ],
          [
            12.92784,
            41.59063
          ],
          [
            12.92979,
            41.58813
          ],
          [
            12.93415,
            41.58197
          ],
          [
            12.93696,
            41.5814
          ],
          [
            12.94067,
            41.58235
          ],
          [
            12.94413,
            41.5827
          ],
          [
            12.94485,
            41.58156
          ],
          [
            12.94525,
            41.58063
          ],
          [
            12.94926,
            41.58228
          ],
          [
            12.95099,
            41.58328
          ],
          [
            12.95295,
            41.58314
          ],
          [
            12.9548,
            41.58358
          ],
          [
            12.95702,
            41.5829
          ],
          [
            12.95801,
            41.58197
          ],
          [
            12.96442,
            41.57995
          ],
          [
            12.9705,
            41.57773
          ],
          [
            12.97467,
            41.5743
          ],
          [
            12.97571,
            41.5718
          ],
          [
            12.97538,
            41.57058
          ],
          [
            12.97615,
            41.56973
          ],
          [
            12.9776,
            41.56996
          ],
          [
            12.97877,
            41.56912
          ],
          [
            12.98007,
            41.56864
          ],
          [
            12.98116,
            41.56827
          ],
          [
            12.98018,
            41.56885
          ],
          [
            12.98013,
            41.56863
          ],
          [
            12.9807,
            41.56593
          ],
          [
            12.98102,
            41.56126
          ],
          [
            12.98433,
            41.55577
          ],
          [
            12.98501,
            41.55442
          ],
          [
            12.98721,
            41.55357
          ],
          [
            12.98755,
            41.55297
          ],
          [
            12.98837,
            41.5525
          ],
          [
            12.99171,
            41.55002
          ],
          [
            12.99186,
            41.54919
          ],
          [
            12.99067,
            41.54859
          ],
          [
            12.98823,
            41.54862
          ],
          [
            12.98798,
            41.54794
          ],
          [
            12.98698,
            41.54872
          ],
          [
            12.98572,
            41.54908
          ],
          [
            12.98792,
            41.54805
          ],
          [
            12.98925,
            41.54871
          ],
          [
            12.99181,
            41.54906
          ],
          [
            12.99178,
            41.54993
          ],
          [
            12.98962,
            41.55111
          ],
          [
            12.98868,
            41.55164
          ],
          [
            12.98777,
            41.55259
          ],
          [
            12.98797,
            41.55333
          ],
          [
            12.98594,
            41.55384
          ],
          [
            12.98255,
            41.55405
          ],
          [
            12.9795,
            41.55304
          ],
          [
            12.97737,
            41.55098
          ],
          [
            12.9773,
            41.54883
          ],
          [
            12.97597,
            41.54353
          ],
          [
            12.97567,
            41.53652
          ],
          [
            12.97335,
            41.53192
          ],
          [
            12.9708,
            41.52928
          ],
          [
            12.96658,
            41.52547
          ],
          [
            12.96635,
            41.52492
          ],
          [
            12.96981,
            41.5221
          ],
          [
            12.97535,
            41.51764
          ],
          [
            12.97755,
            41.51589
          ],
          [
            12.97954,
            41.5131
          ],
          [
            12.98188,
            41.50665
          ],
          [
            12.98314,
            41.50496
          ],
          [
            12.98886,
            41.49854
          ],
          [
            12.99156,
            41.49692
          ],
          [
            12.99639,
            41.4976
          ],
          [
            13.00309,
            41.49817
          ],
          [
            13.01919,
            41.49527
          ],
          [
            13.03326,
            41.49266
          ],
          [
            13.0363,
            41.49131
          ],
          [
            13.04188,
            41.4899
          ],
          [
            13.04957,
            41.48825
          ],
          [
            13.05577,
            41.48858
          ],
          [
            13.06797,
            41.48441
          ],
          [
            13.09188,
            41.47914
          ],
          [
            13.10673,
            41.47129
          ],
          [
            13.10586,
            41.47019
          ],
          [
            13.1049,
            41.46914
          ],
          [
            13.10527,
            41.46833
          ],
          [
            13.10782,
            41.46679
          ],
          [
            13.11148,
            41.46505
          ],
          [
            13.11635,
            41.46312
          ],
          [
            13.12148,
            41.45899
          ],
          [
            13.12555,
            41.45561
          ],
          [
            13.12831,
            41.45177
          ],
          [
            13.13323,
            41.4495
          ],
          [
            13.13578,
            41.44876
          ],
          [
            13.13833,
            41.44686
          ],
          [
            13.14321,
            41.44484
          ],
          [
            13.14265,
            41.44064
          ],
          [
            13.14215,
            41.43016
          ],
          [
            13.1465,
            41.42399
          ],
          [
            13.15513,
            41.42398
          ],
          [
            13.15634,
            41.42317
          ],
          [
            13.15887,
            41.42127
          ],
          [
            13.16063,
            41.42004
          ],
          [
            13.16141,
            41.42073
          ],
          [
            13.16326,
            41.42235
          ],
          [
            13.16391,
            41.42265
          ],
          [
            13.16828,
            41.42266
          ],
          [
            13.17742,
            41.42258
          ],
          [
            13.17996,
            41.42225
          ],
          [
            13.18047,
            41.42239
          ],
          [
            13.18579,
            41.42735
          ],
          [
            13.18809,
            41.43048
          ],
          [
            13.18871,
            41.43256
          ],
          [
            13.19307,
            41.43779
          ],
          [
            13.19612,
            41.43978
          ],
          [
            13.1965,
            41.43961
          ],
          [
            13.19689,
            41.43853
          ],
          [
            13.19576,
            41.43791
          ],
          [
            13.19598,
            41.43772
          ],
          [
            13.19687,
            41.43832
          ],
          [
            13.19615,
            41.43955
          ],
          [
            13.1969,
            41.43978
          ],
          [
            13.19426,
            41.43918
          ],
          [
            13.18936,
            41.43344
          ],
          [
            13.18711,
            41.42876
          ],
          [
            13.18099,
            41.42273
          ],
          [
            13.17265,
            41.42262
          ],
          [
            13.16341,
            41.42244
          ],
          [
            13.16176,
            41.42104
          ],
          [
            13.16003,
            41.42043
          ],
          [
            13.15545,
            41.42385
          ],
          [
            13.15007,
            41.42398
          ],
          [
            13.14669,
            41.42378
          ],
          [
            13.12869,
            41.41103
          ],
          [
            13.09599,
            41.38711
          ],
          [
            13.07502,
            41.37182
          ],
          [
            13.07491,
            41.37173
          ],
          [
            13.06414,
            41.36381
          ],
          [
            13.05753,
            41.35902
          ],
          [
            13.05319,
            41.36163
          ],
          [
            13.03539,
            41.37355
          ],
          [
            13.03088,
            41.3768
          ],
          [
            13.00985,
            41.39072
          ],
          [
            12.98786,
            41.40546
          ],
          [
            12.96506,
            41.42016
          ],
          [
            12.94863,
            41.43014
          ],
          [
            12.90392,
            41.44239
          ],
          [
            12.88686,
            41.44825
          ],
          [
            12.88182,
            41.45135
          ],
          [
            12.87776,
            41.45673
          ],
          [
            12.87477,
            41.4624
          ],
          [
            12.8714,
            41.46654
          ],
          [
            12.8663,
            41.47512
          ],
          [
            12.86346,
            41.47965
          ],
          [
            12.85746,
            41.4851
          ],
          [
            12.85031,
            41.4871
          ],
          [
            12.82714,
            41.4953
          ],
          [
            12.80171,
            41.50728
          ],
          [
            12.79731,
            41.50967
          ],
          [
            12.79847,
            41.51009
          ],
          [
            12.79826,
            41.5089
          ],
          [
            12.79776,
            41.50359
          ],
          [
            12.79799,
            41.49658
          ],
          [
            12.7965,
            41.49215
          ],
          [
            12.79308,
            41.48383
          ]
        ]
      }
    },
    {
      "type": "Feature",
      "properties": {
        "name": "41.4838271,12.793091",
        "desc": "Str. dello Scopeto, 14, 04100 Borgo Bainsizza LT, Italy"
      },
      "geometry": {
        "type": "Point",
        "coordinates": [
          12.79308,
          41.48383
        ]
      }
    },
    {
      "type": "Feature",
      "properties": {
        "name": "41.6835242,12.7783715",
        "desc": "Via Orti Ginnetti, 2, 00049 Velletri RM, Italy"
      },
      "geometry": {
        "type": "Point",
        "coordinates": [
          12.77837,
          41.68353
        ]
      }
    },
    {
      "type": "Feature",
      "properties": {
        "name": "41.64438,12.9179256",
        "desc": "Via Madonna del Soccorso, 18, 04010 Cori LT, Italy"
      },
      "geometry": {
        "type": "Point",
        "coordinates": [
          12.91791,
          41.64439
        ]
      }
    },
    {
      "type": "Feature",
      "properties": {
        "name": "41.5830732,12.9527395",
        "desc": "Giardino di Ninfa, Via Ninfina, 68, 04012 Cisterna di Latina LT, Italy"
      },
      "geometry": {
        "type": "Point",
        "coordinates": [
          12.95293,
          41.58305
        ]
      }
    },
    {
      "type": "Feature",
      "properties": {
        "name": "41.5681078,12.9812082",
        "desc": "Via Abbadia, 14, 04013 Sermoneta LT, Italy"
      },
      "geometry": {
        "type": "Point",
        "coordinates": [
          12.98124,
          41.56826
        ]
      }
    },
    {
      "type": "Feature",
      "properties": {
        "name": "41.5491126,12.9854271",
        "desc": "Piazza del Comune, 22, 04013 Sermoneta LT, Italy"
      },
      "geometry": {
        "type": "Point",
        "coordinates": [
          12.98543,
          41.54911
        ]
      }
    },
    {
      "type": "Feature",
      "properties": {
        "name": "41.4383697,13.1955936",
        "desc": "Via San Tommaso d'Aquino, 1, 04015 Priverno LT, Italy"
      },
      "geometry": {
        "type": "Point",
        "coordinates": [
          13.19542,
          41.43826
        ]
      }
    },
    {
      "type": "Feature",
      "properties": {
        "name": "41.4838271,12.793091",
        "desc": "Str. dello Scopeto, 14, 04100 Borgo Bainsizza LT, Italy"
      },
      "geometry": {
        "type": "Point",
        "coordinates": [
          12.79308,
          41.48383
        ]
      }
    }
  ]
}